{
"type": "FeatureCollection",
"name": "combined_sewer_area",
"crs": { "type": "name", "properties": { "name": "urn:ogc:def:crs:OGC:1.3:CRS84" } },
"xy_coordinate_resolution": 1e-06,
"features": [
{ "type": "Feature", "properties": { "name": "Combined sewer area", "note": "drains to Blue Plains; not modelled" }, "geometry": { "type": "MultiPolygon", "coordinates": [ [ [ [ -77.057186, 38.900677 ], [ -77.057349, 38.900987 ], [ -77.057222, 38.901053 ], [ -77.057076, 38.900678 ], [ -77.057186, 38.900677 ] ] ], [ [ [ -77.059526, 38.918648 ], [ -77.05924, 38.918438 ], [ -77.059248, 38.91841 ], [ -77.059387, 38.918519 ], [ -77.059534, 38.918614 ], [ -77.059526, 38.918648 ] ] ], [ [ [ -77.060914, 38.918572 ], [ -77.060814, 38.918666 ], [ -77.060531, 38.918704 ], [ -77.060415, 38.918648 ], [ -77.060281, 38.918658 ], [ -77.060183, 38.918736 ], [ -77.060043, 38.918732 ], [ -77.059883, 38.918668 ], [ -77.059783, 38.918581 ], [ -77.059614, 38.918562 ], [ -77.059549, 38.918578 ], [ -77.059535, 38.91861 ], [ -77.059249, 38.918405 ], [ -77.059281, 38.918345 ], [ -77.059459, 38.918339 ], [ -77.060914, 38.918381 ], [ -77.060842, 38.918422 ], [ -77.060948, 38.918463 ], [ -77.060914, 38.918572 ] ] ], [ [ [ -77.061435, 38.923791 ], [ -77.061167, 38.923745 ], [ -77.061103, 38.923679 ], [ -77.061105, 38.923624 ], [ -77.061185, 38.923519 ], [ -77.061318, 38.923463 ], [ -77.061423, 38.923455 ], [ -77.061492, 38.923469 ], [ -77.061533, 38.923513 ], [ -77.061715, 38.923486 ], [ -77.061733, 38.923715 ], [ -77.061867, 38.923836 ], [ -77.061911, 38.92381 ], [ -77.061968, 38.923862 ], [ -77.061653, 38.924012 ], [ -77.061435, 38.923791 ] ] ], [ [ [ -77.06134, 38.929023 ], [ -77.061575, 38.929019 ], [ -77.061545, 38.928976 ], [ -77.061659, 38.928861 ], [ -77.061704, 38.928861 ], [ -77.061736, 38.928733 ], [ -77.061705, 38.928708 ], [ -77.061599, 38.928713 ], [ -77.061548, 38.928654 ], [ -77.060888, 38.928614 ], [ -77.06052, 38.928425 ], [ -77.060519, 38.928305 ], [ -77.060329, 38.92833 ], [ -77.060328, 38.928077 ], [ -77.060495, 38.928044 ], [ -77.060608, 38.927254 ], [ -77.060511, 38.927021 ], [ -77.060457, 38.927009 ], [ -77.060496, 38.926875 ], [ -77.060425, 38.926863 ], [ -77.06043, 38.9268 ], [ -77.060504, 38.926785 ], [ -77.06046, 38.926631 ], [ -77.060395, 38.926645 ], [ -77.060357, 38.926601 ], [ -77.06041, 38.92659 ], [ -77.060364, 38.926442 ], [ -77.060306, 38.926455 ], [ -77.060245, 38.926394 ], [ -77.060258, 38.926353 ], [ -77.060309, 38.926335 ], [ -77.060252, 38.926244 ], [ -77.059975, 38.926332 ], [ -77.059765, 38.926334 ], [ -77.059492, 38.926125 ], [ -77.059543, 38.926083 ], [ -77.059506, 38.926057 ], [ -77.059475, 38.926084 ], [ -77.059319, 38.925973 ], [ -77.059289, 38.926002 ], [ -77.059099, 38.926025 ], [ -77.059094, 38.92599 ], [ -77.058957, 38.925923 ], [ -77.058993, 38.925883 ], [ -77.058906, 38.925865 ], [ -77.058859, 38.925905 ], [ -77.058776, 38.925844 ], [ -77.058815, 38.925812 ], [ -77.058754, 38.925737 ], [ -77.058678, 38.925752 ], [ -77.058618, 38.925553 ], [ -77.058523, 38.925499 ], [ -77.05814, 38.925493 ], [ -77.058145, 38.92587 ], [ -77.058121, 38.925913 ], [ -77.058071, 38.925913 ], [ -77.058071, 38.925982 ], [ -77.058121, 38.925982 ], [ -77.058121, 38.926012 ], [ -77.058073, 38.926012 ], [ -77.058073, 38.926083 ], [ -77.05802, 38.926083 ], [ -77.057955, 38.92613 ], [ -77.057774, 38.926117 ], [ -77.057751, 38.926148 ], [ -77.057781, 38.926199 ], [ -77.057585, 38.926173 ], [ -77.057534, 38.926094 ], [ -77.057281, 38.926009 ], [ -77.057296, 38.925825 ], [ -77.057127, 38.925824 ], [ -77.057125, 38.925999 ], [ -77.056889, 38.925968 ], [ -77.056957, 38.925804 ], [ -77.056801, 38.925803 ], [ -77.056719, 38.925935 ], [ -77.056645, 38.925958 ], [ -77.055942, 38.925882 ], [ -77.055795, 38.925682 ], [ -77.055782, 38.925566 ], [ -77.055658, 38.925467 ], [ -77.055545, 38.925254 ], [ -77.05543, 38.925122 ], [ -77.055234, 38.924923 ], [ -77.054876, 38.924706 ], [ -77.054495, 38.92473 ], [ -77.054225, 38.924973 ], [ -77.054217, 38.924911 ], [ -77.05353, 38.924962 ], [ -77.053519, 38.924983 ], [ -77.053673, 38.925134 ], [ -77.053539, 38.925217 ], [ -77.053519, 38.925199 ], [ -77.053274, 38.925288 ], [ -77.053223, 38.925439 ], [ -77.052985, 38.925443 ], [ -77.052909, 38.925525 ], [ -77.052949, 38.925581 ], [ -77.05268, 38.925542 ], [ -77.052252, 38.924805 ], [ -77.052358, 38.924603 ], [ -77.052162, 38.924217 ], [ -77.051949, 38.923856 ], [ -77.051802, 38.923829 ], [ -77.051738, 38.923919 ], [ -77.051516, 38.923537 ], [ -77.052519, 38.923487 ], [ -77.052594, 38.923405 ], [ -77.052589, 38.923354 ], [ -77.053348, 38.923322 ], [ -77.053318, 38.923028 ], [ -77.053495, 38.923018 ], [ -77.053461, 38.92263 ], [ -77.053999, 38.922597 ], [ -77.05396, 38.922184 ], [ -77.054002, 38.922049 ], [ -77.05396, 38.921974 ], [ -77.054004, 38.921613 ], [ -77.054105, 38.921445 ], [ -77.053987, 38.921199 ], [ -77.054058, 38.921223 ], [ -77.054083, 38.921183 ], [ -77.054256, 38.921262 ], [ -77.054485, 38.921374 ], [ -77.054457, 38.921401 ], [ -77.0545, 38.92144 ], [ -77.054589, 38.921405 ], [ -77.054731, 38.921616 ], [ -77.054779, 38.921587 ], [ -77.054823, 38.921627 ], [ -77.054885, 38.92162 ], [ -77.05496, 38.921571 ], [ -77.05513, 38.921587 ], [ -77.05528, 38.921509 ], [ -77.055609, 38.921636 ], [ -77.055669, 38.921537 ], [ -77.055947, 38.921657 ], [ -77.05595, 38.921775 ], [ -77.056498, 38.92199 ], [ -77.056611, 38.921949 ], [ -77.056698, 38.921981 ], [ -77.056761, 38.921926 ], [ -77.05701, 38.922138 ], [ -77.056895, 38.922273 ], [ -77.056926, 38.922302 ], [ -77.057052, 38.922227 ], [ -77.057167, 38.922321 ], [ -77.057226, 38.922275 ], [ -77.057313, 38.922305 ], [ -77.057361, 38.922341 ], [ -77.057307, 38.922444 ], [ -77.057646, 38.922686 ], [ -77.057763, 38.922699 ], [ -77.057845, 38.922635 ], [ -77.057885, 38.922637 ], [ -77.058031, 38.922753 ], [ -77.058243, 38.922741 ], [ -77.058804, 38.922634 ], [ -77.059114, 38.922666 ], [ -77.059061, 38.922694 ], [ -77.059063, 38.922879 ], [ -77.05904, 38.922861 ], [ -77.058994, 38.922925 ], [ -77.059089, 38.923031 ], [ -77.059057, 38.923055 ], [ -77.059154, 38.923203 ], [ -77.059265, 38.92335 ], [ -77.059307, 38.923359 ], [ -77.059295, 38.923391 ], [ -77.059549, 38.923732 ], [ -77.059611, 38.923775 ], [ -77.059488, 38.923921 ], [ -77.059508, 38.923983 ], [ -77.05957, 38.92401 ], [ -77.059498, 38.92416 ], [ -77.059522, 38.924242 ], [ -77.059376, 38.924355 ], [ -77.059346, 38.924482 ], [ -77.059446, 38.924558 ], [ -77.059474, 38.924483 ], [ -77.059533, 38.924478 ], [ -77.05979, 38.924664 ], [ -77.060069, 38.924721 ], [ -77.06029, 38.924952 ], [ -77.060364, 38.924985 ], [ -77.060408, 38.924957 ], [ -77.060506, 38.924982 ], [ -77.060894, 38.925249 ], [ -77.061018, 38.925112 ], [ -77.061162, 38.925135 ], [ -77.061453, 38.925318 ], [ -77.061715, 38.925316 ], [ -77.062544, 38.925973 ], [ -77.062564, 38.926036 ], [ -77.062526, 38.926068 ], [ -77.062659, 38.926225 ], [ -77.062748, 38.926246 ], [ -77.062904, 38.92637 ], [ -77.062992, 38.926332 ], [ -77.063091, 38.92647 ], [ -77.062993, 38.92651 ], [ -77.063076, 38.926662 ], [ -77.062963, 38.926783 ], [ -77.063145, 38.927161 ], [ -77.063251, 38.927528 ], [ -77.063097, 38.927526 ], [ -77.063057, 38.927569 ], [ -77.063127, 38.927786 ], [ -77.063065, 38.92809 ], [ -77.06326, 38.928287 ], [ -77.06326, 38.928362 ], [ -77.063208, 38.928343 ], [ -77.063015, 38.928428 ], [ -77.062981, 38.928478 ], [ -77.062956, 38.928755 ], [ -77.062958, 38.928795 ], [ -77.063046, 38.928795 ], [ -77.063259, 38.929021 ], [ -77.063259, 38.929101 ], [ -77.063212, 38.929084 ], [ -77.063175, 38.929106 ], [ -77.063181, 38.929535 ], [ -77.063029, 38.929519 ], [ -77.063027, 38.92964 ], [ -77.062906, 38.929633 ], [ -77.062755, 38.929743 ], [ -77.062579, 38.92976 ], [ -77.062486, 38.929717 ], [ -77.062412, 38.929728 ], [ -77.062166, 38.929675 ], [ -77.06206, 38.92977 ], [ -77.061855, 38.92986 ], [ -77.061638, 38.929622 ], [ -77.06134, 38.929023 ] ] ], [ [ [ -77.073101, 38.929079 ], [ -77.073138, 38.928851 ], [ -77.073314, 38.928791 ], [ -77.07348, 38.928842 ], [ -77.073597, 38.928932 ], [ -77.073589, 38.929032 ], [ -77.073215, 38.929033 ], [ -77.073101, 38.929079 ] ] ], [ [ [ -77.057075, 38.900668 ], [ -77.05702, 38.900521 ], [ -77.056905, 38.90051 ], [ -77.056847, 38.900544 ], [ -77.056802, 38.900422 ], [ -77.056742, 38.90042 ], [ -77.056738, 38.900383 ], [ -77.056605, 38.900379 ], [ -77.056603, 38.900351 ], [ -77.056551, 38.900351 ], [ -77.056483, 38.900292 ], [ -77.056159, 38.900169 ], [ -77.056009, 38.900353 ], [ -77.056089, 38.900398 ], [ -77.056114, 38.900905 ], [ -77.056204, 38.900888 ], [ -77.056378, 38.900986 ], [ -77.056616, 38.901429 ], [ -77.056524, 38.901518 ], [ -77.056473, 38.901637 ], [ -77.056435, 38.901848 ], [ -77.057042, 38.901956 ], [ -77.05702, 38.902029 ], [ -77.056194, 38.901854 ], [ -77.056201, 38.902277 ], [ -77.056295, 38.90235 ], [ -77.055843, 38.90239 ], [ -77.055738, 38.902531 ], [ -77.055845, 38.902683 ], [ -77.056004, 38.902718 ], [ -77.056015, 38.902784 ], [ -77.055704, 38.902912 ], [ -77.055808, 38.90305 ], [ -77.055971, 38.90318 ], [ -77.056055, 38.903303 ], [ -77.056062, 38.903377 ], [ -77.055892, 38.903338 ], [ -77.05568, 38.903247 ], [ -77.055556, 38.903356 ], [ -77.055479, 38.903561 ], [ -77.055358, 38.903678 ], [ -77.055213, 38.903737 ], [ -77.054752, 38.903745 ], [ -77.054756, 38.904146 ], [ -77.054844, 38.904343 ], [ -77.054852, 38.905177 ], [ -77.056382, 38.90517 ], [ -77.056371, 38.905082 ], [ -77.056514, 38.904872 ], [ -77.056069, 38.90471 ], [ -77.056127, 38.904623 ], [ -77.056653, 38.904803 ], [ -77.056879, 38.904772 ], [ -77.057063, 38.904817 ], [ -77.05705, 38.90451 ], [ -77.057123, 38.904511 ], [ -77.05712, 38.904448 ], [ -77.057423, 38.904445 ], [ -77.057421, 38.904384 ], [ -77.057344, 38.904386 ], [ -77.057341, 38.904334 ], [ -77.057628, 38.90433 ], [ -77.057626, 38.904216 ], [ -77.05769, 38.904213 ], [ -77.057701, 38.904492 ], [ -77.057895, 38.904489 ], [ -77.057895, 38.904511 ], [ -77.057434, 38.904519 ], [ -77.05744, 38.904699 ], [ -77.057324, 38.904701 ], [ -77.057327, 38.904792 ], [ -77.057212, 38.904794 ], [ -77.057219, 38.905064 ], [ -77.057335, 38.905062 ], [ -77.057337, 38.905152 ], [ -77.057453, 38.90515 ], [ -77.057455, 38.90524 ], [ -77.05757, 38.905238 ], [ -77.057576, 38.905418 ], [ -77.057345, 38.905422 ], [ -77.05735, 38.905602 ], [ -77.057466, 38.9056 ], [ -77.057468, 38.90569 ], [ -77.057583, 38.905688 ], [ -77.057591, 38.905958 ], [ -77.057822, 38.905954 ], [ -77.057824, 38.906044 ], [ -77.05794, 38.906042 ], [ -77.057947, 38.906312 ], [ -77.057832, 38.906314 ], [ -77.057845, 38.906765 ], [ -77.05796, 38.906763 ], [ -77.057963, 38.906853 ], [ -77.058078, 38.906851 ], [ -77.058083, 38.907031 ], [ -77.057853, 38.907035 ], [ -77.057858, 38.907215 ], [ -77.057743, 38.907217 ], [ -77.057746, 38.907307 ], [ -77.057515, 38.907311 ], [ -77.057518, 38.907401 ], [ -77.057633, 38.907399 ], [ -77.057635, 38.907489 ], [ -77.057751, 38.907487 ], [ -77.057764, 38.907937 ], [ -77.057879, 38.907935 ], [ -77.057882, 38.908025 ], [ -77.057766, 38.908027 ], [ -77.057769, 38.908118 ], [ -77.057884, 38.908116 ], [ -77.057892, 38.908386 ], [ -77.058007, 38.908384 ], [ -77.058012, 38.908564 ], [ -77.058128, 38.908562 ], [ -77.058136, 38.908832 ], [ -77.058251, 38.90883 ], [ -77.058253, 38.90892 ], [ -77.058369, 38.908918 ], [ -77.058374, 38.909098 ], [ -77.058489, 38.909096 ], [ -77.058492, 38.909186 ], [ -77.058376, 38.909188 ], [ -77.058382, 38.909368 ], [ -77.058266, 38.90937 ], [ -77.058272, 38.90955 ], [ -77.058387, 38.909548 ], [ -77.058389, 38.909638 ], [ -77.058505, 38.909636 ], [ -77.058513, 38.909906 ], [ -77.058397, 38.909909 ], [ -77.058402, 38.910089 ], [ -77.058518, 38.910087 ], [ -77.05852, 38.910177 ], [ -77.058405, 38.910179 ], [ -77.058408, 38.910269 ], [ -77.058177, 38.910273 ], [ -77.05818, 38.910363 ], [ -77.058064, 38.910365 ], [ -77.058067, 38.910455 ], [ -77.057952, 38.910457 ], [ -77.05796, 38.910727 ], [ -77.057844, 38.910729 ], [ -77.057852, 38.910999 ], [ -77.057737, 38.911001 ], [ -77.057739, 38.911091 ], [ -77.057624, 38.911093 ], [ -77.057627, 38.911184 ], [ -77.057512, 38.911186 ], [ -77.057525, 38.911636 ], [ -77.05764, 38.911634 ], [ -77.057642, 38.911724 ], [ -77.057758, 38.911722 ], [ -77.05776, 38.911812 ], [ -77.057876, 38.91181 ], [ -77.057878, 38.9119 ], [ -77.057993, 38.911898 ], [ -77.057996, 38.911988 ], [ -77.058227, 38.911984 ], [ -77.058229, 38.912074 ], [ -77.058575, 38.912068 ], [ -77.058572, 38.911978 ], [ -77.058918, 38.911972 ], [ -77.058921, 38.912062 ], [ -77.059036, 38.91206 ], [ -77.059046, 38.91242 ], [ -77.059162, 38.912418 ], [ -77.059164, 38.912508 ], [ -77.05928, 38.912506 ], [ -77.059282, 38.912596 ], [ -77.059397, 38.912594 ], [ -77.0594, 38.912684 ], [ -77.059572, 38.912681 ], [ -77.059563, 38.912711 ], [ -77.059351, 38.912732 ], [ -77.05933, 38.912628 ], [ -77.057088, 38.91266 ], [ -77.057082, 38.912578 ], [ -77.057109, 38.912569 ], [ -77.05707, 38.912297 ], [ -77.056918, 38.912271 ], [ -77.056738, 38.911954 ], [ -77.056504, 38.911806 ], [ -77.056455, 38.911806 ], [ -77.05641, 38.911318 ], [ -77.05633, 38.911179 ], [ -77.056167, 38.911083 ], [ -77.056154, 38.910646 ], [ -77.055885, 38.910649 ], [ -77.055888, 38.910762 ], [ -77.055852, 38.910763 ], [ -77.055849, 38.910649 ], [ -77.05517, 38.910663 ], [ -77.055103, 38.910622 ], [ -77.055131, 38.91057 ], [ -77.054887, 38.910575 ], [ -77.054929, 38.91053 ], [ -77.054849, 38.910463 ], [ -77.054534, 38.91046 ], [ -77.054532, 38.910376 ], [ -77.05433, 38.910379 ], [ -77.054332, 38.910463 ], [ -77.05419, 38.910465 ], [ -77.054189, 38.910416 ], [ -77.053996, 38.910412 ], [ -77.053993, 38.910292 ], [ -77.053783, 38.910294 ], [ -77.053784, 38.910505 ], [ -77.05339, 38.910508 ], [ -77.05334, 38.910473 ], [ -77.053215, 38.910473 ], [ -77.053194, 38.910377 ], [ -77.053161, 38.910377 ], [ -77.053161, 38.910458 ], [ -77.053088, 38.910488 ], [ -77.053087, 38.910526 ], [ -77.052629, 38.910532 ], [ -77.052548, 38.910457 ], [ -77.052396, 38.910449 ], [ -77.05231, 38.910476 ], [ -77.05226, 38.910537 ], [ -77.051794, 38.91055 ], [ -77.051561, 38.910603 ], [ -77.051632, 38.910507 ], [ -77.051595, 38.910419 ], [ -77.051301, 38.910079 ], [ -77.051173, 38.909721 ], [ -77.049646, 38.909723 ], [ -77.049624, 38.909698 ], [ -77.049664, 38.909648 ], [ -77.049412, 38.909651 ], [ -77.049397, 38.909773 ], [ -77.04948, 38.909972 ], [ -77.050258, 38.910531 ], [ -77.050691, 38.910943 ], [ -77.050775, 38.910954 ], [ -77.051127, 38.910742 ], [ -77.051223, 38.910853 ], [ -77.050813, 38.911085 ], [ -77.050922, 38.911138 ], [ -77.050997, 38.911133 ], [ -77.051193, 38.911287 ], [ -77.05152, 38.911727 ], [ -77.051833, 38.912071 ], [ -77.051881, 38.912264 ], [ -77.051987, 38.91242 ], [ -77.052674, 38.912917 ], [ -77.053107, 38.913169 ], [ -77.053668, 38.913588 ], [ -77.053822, 38.913754 ], [ -77.053967, 38.91382 ], [ -77.054183, 38.913838 ], [ -77.054409, 38.913917 ], [ -77.054635, 38.914226 ], [ -77.055059, 38.914536 ], [ -77.055133, 38.914563 ], [ -77.055313, 38.914549 ], [ -77.055563, 38.914673 ], [ -77.055927, 38.914792 ], [ -77.056078, 38.914901 ], [ -77.056254, 38.915124 ], [ -77.056391, 38.915217 ], [ -77.056737, 38.915415 ], [ -77.056915, 38.915399 ], [ -77.057121, 38.915556 ], [ -77.056839, 38.9158 ], [ -77.056713, 38.915716 ], [ -77.056242, 38.916108 ], [ -77.056278, 38.916135 ], [ -77.056383, 38.916044 ], [ -77.056564, 38.916177 ], [ -77.056482, 38.916254 ], [ -77.056551, 38.9163 ], [ -77.056628, 38.916237 ], [ -77.056981, 38.916482 ], [ -77.056879, 38.916565 ], [ -77.056897, 38.916598 ], [ -77.056943, 38.916622 ], [ -77.057055, 38.916536 ], [ -77.057397, 38.916784 ], [ -77.057333, 38.916888 ], [ -77.057323, 38.917021 ], [ -77.057439, 38.917119 ], [ -77.057252, 38.917144 ], [ -77.056739, 38.916761 ], [ -77.056049, 38.91737 ], [ -77.05587, 38.917249 ], [ -77.055858, 38.917306 ], [ -77.055816, 38.917315 ], [ -77.055293, 38.916964 ], [ -77.055116, 38.917106 ], [ -77.055007, 38.917036 ], [ -77.054802, 38.917011 ], [ -77.054872, 38.917051 ], [ -77.054829, 38.917091 ], [ -77.054228, 38.917108 ], [ -77.053933, 38.917177 ], [ -77.053931, 38.917236 ], [ -77.053875, 38.917188 ], [ -77.05377, 38.917189 ], [ -77.053761, 38.917292 ], [ -77.053807, 38.917328 ], [ -77.05381, 38.917399 ], [ -77.053762, 38.917426 ], [ -77.053751, 38.9174 ], [ -77.053678, 38.917477 ], [ -77.053588, 38.917503 ], [ -77.053366, 38.917732 ], [ -77.052989, 38.917766 ], [ -77.052924, 38.9177 ], [ -77.05279, 38.917698 ], [ -77.052723, 38.917836 ], [ -77.052661, 38.917885 ], [ -77.052602, 38.91786 ], [ -77.05256, 38.918071 ], [ -77.052494, 38.918071 ], [ -77.052496, 38.918141 ], [ -77.052466, 38.918141 ], [ -77.052466, 38.918188 ], [ -77.052522, 38.918188 ], [ -77.052471, 38.918384 ], [ -77.052404, 38.918496 ], [ -77.052368, 38.918496 ], [ -77.052368, 38.918555 ], [ -77.052304, 38.918639 ], [ -77.052332, 38.918658 ], [ -77.052241, 38.918731 ], [ -77.052314, 38.918806 ], [ -77.052312, 38.918846 ], [ -77.052221, 38.918852 ], [ -77.052154, 38.918801 ], [ -77.05214, 38.918854 ], [ -77.052004, 38.91872 ], [ -77.051917, 38.918527 ], [ -77.051938, 38.918313 ], [ -77.051872, 38.918249 ], [ -77.05174, 38.918202 ], [ -77.051607, 38.918224 ], [ -77.051447, 38.918203 ], [ -77.051248, 38.918143 ], [ -77.051155, 38.918084 ], [ -77.050992, 38.918048 ], [ -77.050981, 38.918133 ], [ -77.050453, 38.918295 ], [ -77.050478, 38.918342 ], [ -77.050315, 38.918387 ], [ -77.050209, 38.918375 ], [ -77.05008, 38.918301 ], [ -77.049934, 38.918155 ], [ -77.049835, 38.918206 ], [ -77.049835, 38.91829 ], [ -77.049663, 38.918311 ], [ -77.049522, 38.918229 ], [ -77.049291, 38.918297 ], [ -77.049299, 38.918345 ], [ -77.049049, 38.918433 ], [ -77.049115, 38.918647 ], [ -77.049056, 38.918857 ], [ -77.049257, 38.919281 ], [ -77.049254, 38.919461 ], [ -77.050274, 38.92121 ], [ -77.050086, 38.921277 ], [ -77.049002, 38.919478 ], [ -77.049016, 38.919403 ], [ -77.048914, 38.919248 ], [ -77.048816, 38.919374 ], [ -77.048818, 38.91946 ], [ -77.048741, 38.919565 ], [ -77.048619, 38.919526 ], [ -77.048544, 38.919643 ], [ -77.048454, 38.919588 ], [ -77.048448, 38.919636 ], [ -77.048588, 38.919702 ], [ -77.048628, 38.919741 ], [ -77.048617, 38.919775 ], [ -77.048543, 38.919838 ], [ -77.048491, 38.919809 ], [ -77.04842, 38.919888 ], [ -77.048473, 38.919916 ], [ -77.048462, 38.919949 ], [ -77.048389, 38.920012 ], [ -77.048336, 38.919984 ], [ -77.048266, 38.920063 ], [ -77.048319, 38.920091 ], [ -77.048269, 38.920166 ], [ -77.048233, 38.920186 ], [ -77.048182, 38.920157 ], [ -77.048103, 38.920245 ], [ -77.04814, 38.920301 ], [ -77.048121, 38.92032 ], [ -77.048006, 38.920353 ], [ -77.047974, 38.920302 ], [ -77.047838, 38.920301 ], [ -77.047837, 38.920351 ], [ -77.047728, 38.920361 ], [ -77.047688, 38.920349 ], [ -77.04769, 38.920292 ], [ -77.047647, 38.920269 ], [ -77.04752, 38.92038 ], [ -77.047162, 38.920412 ], [ -77.047157, 38.920361 ], [ -77.046864, 38.920577 ], [ -77.046838, 38.920687 ], [ -77.046945, 38.921424 ], [ -77.04707, 38.921325 ], [ -77.047229, 38.92131 ], [ -77.047208, 38.92117 ], [ -77.047266, 38.921165 ], [ -77.047287, 38.921305 ], [ -77.047447, 38.92129 ], [ -77.047444, 38.921263 ], [ -77.047602, 38.921273 ], [ -77.048039, 38.921395 ], [ -77.048014, 38.921431 ], [ -77.048033, 38.921528 ], [ -77.047994, 38.921556 ], [ -77.047745, 38.921463 ], [ -77.047543, 38.921424 ], [ -77.04733, 38.921422 ], [ -77.046953, 38.921476 ], [ -77.046963, 38.921551 ], [ -77.047013, 38.921528 ], [ -77.047151, 38.921593 ], [ -77.047246, 38.922166 ], [ -77.047212, 38.92217 ], [ -77.047256, 38.922414 ], [ -77.047187, 38.922423 ], [ -77.047216, 38.922607 ], [ -77.047385, 38.922907 ], [ -77.047445, 38.92313 ], [ -77.04811, 38.923174 ], [ -77.048114, 38.923464 ], [ -77.047386, 38.923409 ], [ -77.047357, 38.92362 ], [ -77.04548, 38.923683 ], [ -77.045603, 38.923888 ], [ -77.044865, 38.923885 ], [ -77.044916, 38.923994 ], [ -77.044843, 38.924916 ], [ -77.045243, 38.925051 ], [ -77.046059, 38.925146 ], [ -77.046127, 38.925702 ], [ -77.046193, 38.925779 ], [ -77.045595, 38.926041 ], [ -77.045116, 38.926307 ], [ -77.044496, 38.926755 ], [ -77.04419, 38.927093 ], [ -77.043984, 38.927502 ], [ -77.044011, 38.927583 ], [ -77.044139, 38.927609 ], [ -77.044898, 38.927463 ], [ -77.044852, 38.927067 ], [ -77.044937, 38.92684 ], [ -77.045047, 38.926691 ], [ -77.045297, 38.926516 ], [ -77.045597, 38.926369 ], [ -77.046093, 38.926169 ], [ -77.046287, 38.926165 ], [ -77.046413, 38.92623 ], [ -77.046485, 38.926305 ], [ -77.04659, 38.926596 ], [ -77.046668, 38.926605 ], [ -77.04743, 38.927077 ], [ -77.048119, 38.927645 ], [ -77.04832, 38.92771 ], [ -77.048411, 38.927845 ], [ -77.048673, 38.928031 ], [ -77.048863, 38.927916 ], [ -77.048954, 38.927985 ], [ -77.048769, 38.928141 ], [ -77.048943, 38.928302 ], [ -77.049511, 38.92829 ], [ -77.049595, 38.928266 ], [ -77.049814, 38.928704 ], [ -77.050053, 38.928912 ], [ -77.0502, 38.928981 ], [ -77.050301, 38.92893 ], [ -77.050488, 38.928924 ], [ -77.050711, 38.929066 ], [ -77.050919, 38.929132 ], [ -77.051016, 38.92913 ], [ -77.051347, 38.928996 ], [ -77.05181, 38.928961 ], [ -77.052135, 38.928903 ], [ -77.052467, 38.928939 ], [ -77.052771, 38.929292 ], [ -77.052756, 38.92947 ], [ -77.052805, 38.929749 ], [ -77.052854, 38.929768 ], [ -77.052922, 38.929739 ], [ -77.053118, 38.929815 ], [ -77.053276, 38.929711 ], [ -77.053337, 38.9296 ], [ -77.053413, 38.929585 ], [ -77.053582, 38.929609 ], [ -77.053598, 38.929749 ], [ -77.053785, 38.929746 ], [ -77.054001, 38.929683 ], [ -77.054368, 38.930017 ], [ -77.054715, 38.930153 ], [ -77.054932, 38.930298 ], [ -77.055121, 38.930793 ], [ -77.054835, 38.930964 ], [ -77.054928, 38.931155 ], [ -77.054577, 38.931613 ], [ -77.054565, 38.931692 ], [ -77.054601, 38.931758 ], [ -77.054519, 38.931945 ], [ -77.054579, 38.931968 ], [ -77.054531, 38.932109 ], [ -77.0544, 38.932247 ], [ -77.054194, 38.932332 ], [ -77.053439, 38.932456 ], [ -77.053078, 38.932461 ], [ -77.05307, 38.932412 ], [ -77.052956, 38.932375 ], [ -77.052869, 38.932268 ], [ -77.052399, 38.932281 ], [ -77.052112, 38.932358 ], [ -77.051917, 38.932243 ], [ -77.050129, 38.93152 ], [ -77.050002, 38.931675 ], [ -77.049853, 38.931763 ], [ -77.049709, 38.931805 ], [ -77.049667, 38.931854 ], [ -77.049546, 38.931845 ], [ -77.048041, 38.931451 ], [ -77.047499, 38.931373 ], [ -77.047426, 38.931304 ], [ -77.04717, 38.931205 ], [ -77.046859, 38.930873 ], [ -77.046715, 38.930516 ], [ -77.046822, 38.930273 ], [ -77.046808, 38.930191 ], [ -77.045991, 38.929791 ], [ -77.045466, 38.929334 ], [ -77.0452, 38.928927 ], [ -77.045122, 38.928707 ], [ -77.045098, 38.928343 ], [ -77.045055, 38.928264 ], [ -77.044236, 38.928142 ], [ -77.044284, 38.928515 ], [ -77.044364, 38.928563 ], [ -77.044509, 38.92885 ], [ -77.044829, 38.929264 ], [ -77.045603, 38.93002 ], [ -77.045549, 38.930229 ], [ -77.045448, 38.930331 ], [ -77.045281, 38.930206 ], [ -77.045166, 38.93027 ], [ -77.044974, 38.93012 ], [ -77.044742, 38.930248 ], [ -77.046416, 38.932133 ], [ -77.046369, 38.932185 ], [ -77.046204, 38.93226 ], [ -77.046297, 38.932361 ], [ -77.045497, 38.932698 ], [ -77.045495, 38.933074 ], [ -77.04541, 38.933218 ], [ -77.04556, 38.933424 ], [ -77.045613, 38.933613 ], [ -77.045713, 38.933688 ], [ -77.045519, 38.934724 ], [ -77.045539, 38.934998 ], [ -77.045651, 38.93529 ], [ -77.045542, 38.935245 ], [ -77.045542, 38.935349 ], [ -77.04535, 38.935365 ], [ -77.04516, 38.935272 ], [ -77.045086, 38.935175 ], [ -77.044934, 38.935161 ], [ -77.045257, 38.933624 ], [ -77.045243, 38.933493 ], [ -77.045161, 38.933369 ], [ -77.045026, 38.933287 ], [ -77.044958, 38.933369 ], [ -77.044281, 38.933178 ], [ -77.044288, 38.933278 ], [ -77.044368, 38.933303 ], [ -77.044373, 38.934285 ], [ -77.044308, 38.934281 ], [ -77.044298, 38.934389 ], [ -77.044345, 38.934413 ], [ -77.044316, 38.934568 ], [ -77.044244, 38.934705 ], [ -77.044208, 38.93469 ], [ -77.044182, 38.934744 ], [ -77.044212, 38.934761 ], [ -77.044063, 38.934921 ], [ -77.043778, 38.935119 ], [ -77.043373, 38.935229 ], [ -77.042872, 38.935229 ], [ -77.042827, 38.935157 ], [ -77.04274, 38.935147 ], [ -77.042678, 38.93523 ], [ -77.042139, 38.935232 ], [ -77.041531, 38.934979 ], [ -77.041545, 38.934962 ], [ -77.041462, 38.934921 ], [ -77.041494, 38.93482 ], [ -77.041413, 38.934755 ], [ -77.041298, 38.934508 ], [ -77.041291, 38.934177 ], [ -77.041441, 38.934177 ], [ -77.041404, 38.934221 ], [ -77.041429, 38.934312 ], [ -77.042396, 38.934297 ], [ -77.042384, 38.934013 ], [ -77.042011, 38.934039 ], [ -77.042012, 38.93377 ], [ -77.042218, 38.933772 ], [ -77.042216, 38.933883 ], [ -77.042293, 38.933844 ], [ -77.042371, 38.933851 ], [ -77.04238, 38.933767 ], [ -77.042329, 38.933656 ], [ -77.042217, 38.933623 ], [ -77.042157, 38.933166 ], [ -77.042161, 38.932822 ], [ -77.039998, 38.932828 ], [ -77.04, 38.932863 ], [ -77.040075, 38.932861 ], [ -77.040091, 38.933245 ], [ -77.040087, 38.933289 ], [ -77.040032, 38.93331 ], [ -77.040034, 38.933406 ], [ -77.040097, 38.933405 ], [ -77.040102, 38.933475 ], [ -77.039933, 38.933478 ], [ -77.039961, 38.935003 ], [ -77.039862, 38.935016 ], [ -77.039856, 38.935076 ], [ -77.039393, 38.935083 ], [ -77.039385, 38.934973 ], [ -77.039221, 38.935159 ], [ -77.039221, 38.93533 ], [ -77.039158, 38.935399 ], [ -77.039161, 38.935492 ], [ -77.039118, 38.935492 ], [ -77.039125, 38.935602 ], [ -77.038901, 38.935643 ], [ -77.038773, 38.935485 ], [ -77.038725, 38.935467 ], [ -77.038703, 38.935501 ], [ -77.038357, 38.935411 ], [ -77.038277, 38.935435 ], [ -77.038176, 38.935522 ], [ -77.038127, 38.935515 ], [ -77.037442, 38.935262 ], [ -77.037418, 38.935297 ], [ -77.037274, 38.935241 ], [ -77.037247, 38.935282 ], [ -77.037149, 38.935242 ], [ -77.037091, 38.935151 ], [ -77.037047, 38.935217 ], [ -77.036976, 38.935214 ], [ -77.036819, 38.935475 ], [ -77.03685, 38.935527 ], [ -77.03693, 38.935565 ], [ -77.036899, 38.935621 ], [ -77.037175, 38.93573 ], [ -77.03715, 38.935768 ], [ -77.037199, 38.93579 ], [ -77.037282, 38.93574 ], [ -77.037346, 38.93574 ], [ -77.037869, 38.935938 ], [ -77.037944, 38.936009 ], [ -77.037938, 38.93623 ], [ -77.038015, 38.93622 ], [ -77.038076, 38.936047 ], [ -77.038132, 38.936047 ], [ -77.03828, 38.936106 ], [ -77.03823, 38.936243 ], [ -77.038334, 38.936342 ], [ -77.038372, 38.936342 ], [ -77.03853, 38.936203 ], [ -77.038755, 38.936293 ], [ -77.038347, 38.936589 ], [ -77.038071, 38.936377 ], [ -77.037923, 38.936481 ], [ -77.037869, 38.936411 ], [ -77.037847, 38.936436 ], [ -77.037939, 38.936717 ], [ -77.037748, 38.936762 ], [ -77.037707, 38.936757 ], [ -77.037642, 38.936472 ], [ -77.037608, 38.936455 ], [ -77.037406, 38.936489 ], [ -77.037267, 38.936769 ], [ -77.036727, 38.93676 ], [ -77.036713, 38.93661 ], [ -77.036613, 38.936622 ], [ -77.036576, 38.937683 ], [ -77.037047, 38.937806 ], [ -77.037299, 38.937825 ], [ -77.037338, 38.937867 ], [ -77.037324, 38.937909 ], [ -77.03723, 38.93795 ], [ -77.037305, 38.937967 ], [ -77.036559, 38.93825 ], [ -77.036559, 38.938209 ], [ -77.036336, 38.938213 ], [ -77.036334, 38.939011 ], [ -77.036445, 38.939117 ], [ -77.036446, 38.939408 ], [ -77.036336, 38.939334 ], [ -77.036331, 38.939527 ], [ -77.036259, 38.939651 ], [ -77.036275, 38.940299 ], [ -77.036041, 38.940469 ], [ -77.035953, 38.94088 ], [ -77.035963, 38.940985 ], [ -77.036123, 38.941224 ], [ -77.036123, 38.941325 ], [ -77.0361, 38.941359 ], [ -77.036054, 38.941359 ], [ -77.036055, 38.941436 ], [ -77.036146, 38.941435 ], [ -77.036147, 38.941722 ], [ -77.036434, 38.941895 ], [ -77.036436, 38.942029 ], [ -77.03635, 38.941965 ], [ -77.036174, 38.94206 ], [ -77.036172, 38.942816 ], [ -77.036286, 38.942856 ], [ -77.03643, 38.942958 ], [ -77.036431, 38.943082 ], [ -77.036347, 38.943017 ], [ -77.0362, 38.943086 ], [ -77.036147, 38.943345 ], [ -77.036146, 38.943821 ], [ -77.03628, 38.943861 ], [ -77.036328, 38.943945 ], [ -77.036426, 38.944012 ], [ -77.036429, 38.944182 ], [ -77.036343, 38.944116 ], [ -77.03626, 38.94422 ], [ -77.036231, 38.944335 ], [ -77.036149, 38.944393 ], [ -77.036149, 38.944436 ], [ -77.036273, 38.944434 ], [ -77.03616, 38.944773 ], [ -77.03625, 38.944961 ], [ -77.036426, 38.945089 ], [ -77.036427, 38.945233 ], [ -77.036341, 38.945163 ], [ -77.03621, 38.945445 ], [ -77.036143, 38.945511 ], [ -77.036158, 38.945801 ], [ -77.036128, 38.945975 ], [ -77.036423, 38.946148 ], [ -77.036422, 38.946288 ], [ -77.036335, 38.946219 ], [ -77.036278, 38.946237 ], [ -77.036199, 38.946351 ], [ -77.036165, 38.946982 ], [ -77.03633, 38.947135 ], [ -77.03642, 38.947171 ], [ -77.036422, 38.947378 ], [ -77.036335, 38.947348 ], [ -77.036198, 38.947411 ], [ -77.036195, 38.947873 ], [ -77.036139, 38.947959 ], [ -77.036021, 38.94805 ], [ -77.035962, 38.94805 ], [ -77.035945, 38.948117 ], [ -77.035881, 38.948134 ], [ -77.035643, 38.948086 ], [ -77.03553, 38.948093 ], [ -77.035523, 38.948199 ], [ -77.035396, 38.948265 ], [ -77.035374, 38.948339 ], [ -77.035411, 38.948335 ], [ -77.035536, 38.948513 ], [ -77.035624, 38.948578 ], [ -77.035659, 38.948388 ], [ -77.03579, 38.948388 ], [ -77.035791, 38.94844 ], [ -77.036072, 38.94844 ], [ -77.036102, 38.948669 ], [ -77.035929, 38.948918 ], [ -77.035597, 38.949072 ], [ -77.035263, 38.949086 ], [ -77.034833, 38.950868 ], [ -77.034898, 38.950881 ], [ -77.034914, 38.950928 ], [ -77.034942, 38.951224 ], [ -77.035134, 38.95137 ], [ -77.035215, 38.951389 ], [ -77.035265, 38.951344 ], [ -77.035558, 38.951643 ], [ -77.035637, 38.951564 ], [ -77.035803, 38.951585 ], [ -77.03584, 38.951638 ], [ -77.035847, 38.951788 ], [ -77.036093, 38.951806 ], [ -77.036127, 38.951956 ], [ -77.036236, 38.952151 ], [ -77.036248, 38.952508 ], [ -77.035972, 38.952838 ], [ -77.036039, 38.95295 ], [ -77.035233, 38.953908 ], [ -77.035296, 38.953915 ], [ -77.035388, 38.953995 ], [ -77.035452, 38.953922 ], [ -77.035437, 38.953979 ], [ -77.035533, 38.954028 ], [ -77.0356, 38.954015 ], [ -77.035644, 38.954138 ], [ -77.035784, 38.954208 ], [ -77.035766, 38.954405 ], [ -77.035688, 38.95451 ], [ -77.035736, 38.954545 ], [ -77.035692, 38.954546 ], [ -77.035755, 38.954712 ], [ -77.035876, 38.954796 ], [ -77.035913, 38.954896 ], [ -77.036015, 38.954895 ], [ -77.036016, 38.954918 ], [ -77.035978, 38.954917 ], [ -77.035979, 38.954967 ], [ -77.036043, 38.955342 ], [ -77.036093, 38.956055 ], [ -77.036401, 38.956213 ], [ -77.0364, 38.956338 ], [ -77.036312, 38.956297 ], [ -77.036259, 38.956338 ], [ -77.03619, 38.956488 ], [ -77.036113, 38.956495 ], [ -77.036032, 38.95656 ], [ -77.036026, 38.95676 ], [ -77.035841, 38.956761 ], [ -77.035337, 38.956896 ], [ -77.035383, 38.956954 ], [ -77.035341, 38.95703 ], [ -77.035414, 38.958214 ], [ -77.035257, 38.958285 ], [ -77.035195, 38.958557 ], [ -77.035069, 38.958565 ], [ -77.03507, 38.958658 ], [ -77.034993, 38.958828 ], [ -77.034868, 38.958989 ], [ -77.034864, 38.959191 ], [ -77.034506, 38.959212 ], [ -77.034402, 38.959376 ], [ -77.034267, 38.95943 ], [ -77.034305, 38.959873 ], [ -77.034413, 38.959872 ], [ -77.034468, 38.959915 ], [ -77.034817, 38.959908 ], [ -77.034783, 38.960229 ], [ -77.03483, 38.960228 ], [ -77.034857, 38.960273 ], [ -77.03485, 38.960377 ], [ -77.034763, 38.960475 ], [ -77.034726, 38.960459 ], [ -77.034702, 38.960491 ], [ -77.034598, 38.96049 ], [ -77.034553, 38.960553 ], [ -77.034454, 38.960509 ], [ -77.034383, 38.960519 ], [ -77.034358, 38.960552 ], [ -77.03426, 38.960508 ], [ -77.034178, 38.960547 ], [ -77.034028, 38.960473 ], [ -77.033618, 38.960467 ], [ -77.033586, 38.960274 ], [ -77.033615, 38.960227 ], [ -77.03325, 38.960227 ], [ -77.03325, 38.960297 ], [ -77.032139, 38.960303 ], [ -77.032006, 38.960347 ], [ -77.031885, 38.960347 ], [ -77.031885, 38.960383 ], [ -77.03164, 38.960385 ], [ -77.031636, 38.960428 ], [ -77.031452, 38.960429 ], [ -77.031453, 38.960591 ], [ -77.031046, 38.96059 ], [ -77.031046, 38.960484 ], [ -77.030077, 38.960489 ], [ -77.029698, 38.960217 ], [ -77.02947, 38.960331 ], [ -77.029533, 38.960356 ], [ -77.029537, 38.960388 ], [ -77.029382, 38.960548 ], [ -77.029395, 38.960593 ], [ -77.029179, 38.960782 ], [ -77.02877, 38.960555 ], [ -77.02841, 38.960529 ], [ -77.028375, 38.960889 ], [ -77.028042, 38.960908 ], [ -77.028006, 38.961397 ], [ -77.028151, 38.961526 ], [ -77.028175, 38.961517 ], [ -77.02806, 38.962633 ], [ -77.027889, 38.962708 ], [ -77.027781, 38.964163 ], [ -77.028034, 38.964181 ], [ -77.02803, 38.964455 ], [ -77.028587, 38.964551 ], [ -77.028637, 38.964965 ], [ -77.027712, 38.964959 ], [ -77.027382, 38.968637 ], [ -77.027163, 38.968638 ], [ -77.027188, 38.968597 ], [ -77.027165, 38.96851 ], [ -77.027053, 38.968498 ], [ -77.027061, 38.968414 ], [ -77.026869, 38.968401 ], [ -77.026869, 38.968431 ], [ -77.026445, 38.968434 ], [ -77.026232, 38.968587 ], [ -77.026067, 38.96864 ], [ -77.026008, 38.96875 ], [ -77.026128, 38.968731 ], [ -77.026186, 38.968759 ], [ -77.025683, 38.969783 ], [ -77.025737, 38.969808 ], [ -77.026468, 38.969807 ], [ -77.026409, 38.970075 ], [ -77.02643, 38.97023 ], [ -77.026576, 38.970357 ], [ -77.026652, 38.970367 ], [ -77.026714, 38.970446 ], [ -77.026924, 38.970446 ], [ -77.026963, 38.970602 ], [ -77.026882, 38.970702 ], [ -77.027003, 38.970916 ], [ -77.027148, 38.970931 ], [ -77.027107, 38.971412 ], [ -77.027002, 38.971481 ], [ -77.026951, 38.971556 ], [ -77.026846, 38.971589 ], [ -77.026841, 38.971629 ], [ -77.026732, 38.971624 ], [ -77.026723, 38.971664 ], [ -77.026493, 38.971658 ], [ -77.026427, 38.97227 ], [ -77.02577, 38.97224 ], [ -77.025549, 38.972276 ], [ -77.025018, 38.972278 ], [ -77.024986, 38.972694 ], [ -77.024904, 38.972713 ], [ -77.02488, 38.972796 ], [ -77.024842, 38.972796 ], [ -77.024776, 38.972876 ], [ -77.024593, 38.972996 ], [ -77.024352, 38.973078 ], [ -77.024356, 38.973254 ], [ -77.0243, 38.973365 ], [ -77.024137, 38.973378 ], [ -77.024136, 38.973434 ], [ -77.023256, 38.973408 ], [ -77.022728, 38.973653 ], [ -77.022727, 38.973604 ], [ -77.022496, 38.973608 ], [ -77.022489, 38.973338 ], [ -77.022373, 38.97334 ], [ -77.022376, 38.97343 ], [ -77.02226, 38.973432 ], [ -77.022268, 38.973702 ], [ -77.022153, 38.973704 ], [ -77.022155, 38.973794 ], [ -77.021925, 38.973798 ], [ -77.021927, 38.973888 ], [ -77.021696, 38.973892 ], [ -77.021702, 38.974072 ], [ -77.021586, 38.974074 ], [ -77.021589, 38.974164 ], [ -77.021243, 38.97417 ], [ -77.021245, 38.97426 ], [ -77.02113, 38.974262 ], [ -77.021135, 38.974443 ], [ -77.020789, 38.974449 ], [ -77.020791, 38.974539 ], [ -77.020215, 38.974549 ], [ -77.020217, 38.974639 ], [ -77.019756, 38.974647 ], [ -77.019758, 38.974737 ], [ -77.019181, 38.974747 ], [ -77.019176, 38.974567 ], [ -77.019061, 38.974569 ], [ -77.019063, 38.974659 ], [ -77.018602, 38.974667 ], [ -77.018599, 38.974577 ], [ -77.018253, 38.974583 ], [ -77.018251, 38.974492 ], [ -77.017212, 38.97451 ], [ -77.017215, 38.9746 ], [ -77.0171, 38.974602 ], [ -77.017102, 38.974693 ], [ -77.016756, 38.974699 ], [ -77.016759, 38.974789 ], [ -77.016412, 38.974795 ], [ -77.016415, 38.974885 ], [ -77.016184, 38.974889 ], [ -77.016179, 38.974708 ], [ -77.016064, 38.97471 ], [ -77.016066, 38.974801 ], [ -77.015951, 38.974803 ], [ -77.015953, 38.974893 ], [ -77.015838, 38.974895 ], [ -77.015841, 38.974985 ], [ -77.015264, 38.974995 ], [ -77.015266, 38.975085 ], [ -77.015151, 38.975087 ], [ -77.015154, 38.975177 ], [ -77.015269, 38.975175 ], [ -77.015272, 38.975275 ], [ -77.014995, 38.975378 ], [ -77.014951, 38.975441 ], [ -77.0147, 38.975472 ], [ -77.012883, 38.974053 ], [ -77.012789, 38.973806 ], [ -77.0128, 38.973595 ], [ -77.012916, 38.973594 ], [ -77.012913, 38.973503 ], [ -77.013028, 38.973501 ], [ -77.013025, 38.973394 ], [ -77.01306, 38.973399 ], [ -77.013174, 38.973321 ], [ -77.013167, 38.973229 ], [ -77.013251, 38.973227 ], [ -77.013246, 38.973047 ], [ -77.013131, 38.973049 ], [ -77.013103, 38.972059 ], [ -77.012988, 38.972061 ], [ -77.012982, 38.97188 ], [ -77.012952, 38.971848 ], [ -77.013026, 38.971835 ], [ -77.012965, 38.97161 ], [ -77.01297, 38.97143 ], [ -77.012928, 38.971431 ], [ -77.012901, 38.971347 ], [ -77.012795, 38.971343 ], [ -77.012631, 38.971222 ], [ -77.012503, 38.971246 ], [ -77.012501, 38.971168 ], [ -77.012385, 38.97117 ], [ -77.012383, 38.97108 ], [ -77.012267, 38.971082 ], [ -77.012265, 38.970992 ], [ -77.012149, 38.970994 ], [ -77.012147, 38.970904 ], [ -77.011801, 38.97091 ], [ -77.011796, 38.97073 ], [ -77.01168, 38.970732 ], [ -77.011668, 38.970642 ], [ -77.011671, 38.969985 ], [ -77.011774, 38.969896 ], [ -77.011766, 38.969546 ], [ -77.011875, 38.969467 ], [ -77.011882, 38.969429 ], [ -77.012, 38.969374 ], [ -77.01245, 38.969367 ], [ -77.012447, 38.969277 ], [ -77.012678, 38.969273 ], [ -77.012675, 38.969183 ], [ -77.01256, 38.969185 ], [ -77.012552, 38.968914 ], [ -77.012668, 38.968912 ], [ -77.012666, 38.968872 ], [ -77.013354, 38.968828 ], [ -77.013309, 38.968394 ], [ -77.0137, 38.968354 ], [ -77.014573, 38.969903 ], [ -77.014773, 38.96987 ], [ -77.014071, 38.968616 ], [ -77.014029, 38.968474 ], [ -77.014034, 38.968258 ], [ -77.014265, 38.968254 ], [ -77.014257, 38.967984 ], [ -77.014372, 38.967982 ], [ -77.01437, 38.967892 ], [ -77.014139, 38.967896 ], [ -77.014134, 38.967716 ], [ -77.014019, 38.967718 ], [ -77.014016, 38.967628 ], [ -77.013901, 38.96763 ], [ -77.013898, 38.96754 ], [ -77.013783, 38.967542 ], [ -77.01378, 38.967452 ], [ -77.013561, 38.967455 ], [ -77.013545, 38.967275 ], [ -77.013444, 38.967277 ], [ -77.013427, 38.967187 ], [ -77.013395, 38.967188 ], [ -77.013307, 38.96705 ], [ -77.013301, 38.966829 ], [ -77.013186, 38.966831 ], [ -77.013183, 38.966741 ], [ -77.013068, 38.966743 ], [ -77.013063, 38.966563 ], [ -77.012947, 38.966565 ], [ -77.012945, 38.966475 ], [ -77.012844, 38.966477 ], [ -77.012827, 38.966387 ], [ -77.012785, 38.966388 ], [ -77.012708, 38.966272 ], [ -77.012701, 38.966029 ], [ -77.012932, 38.966025 ], [ -77.012927, 38.965845 ], [ -77.013042, 38.965843 ], [ -77.01304, 38.965752 ], [ -77.013155, 38.96575 ], [ -77.013145, 38.96539 ], [ -77.01303, 38.965392 ], [ -77.013027, 38.965302 ], [ -77.012796, 38.965306 ], [ -77.012794, 38.965216 ], [ -77.012678, 38.965218 ], [ -77.012673, 38.965038 ], [ -77.012789, 38.965036 ], [ -77.012784, 38.964856 ], [ -77.012899, 38.964854 ], [ -77.012894, 38.964674 ], [ -77.012663, 38.964678 ], [ -77.012661, 38.964588 ], [ -77.012545, 38.96459 ], [ -77.012548, 38.96468 ], [ -77.011971, 38.96469 ], [ -77.011968, 38.9646 ], [ -77.011838, 38.964602 ], [ -77.011772, 38.964469 ], [ -77.011734, 38.964459 ], [ -77.01173, 38.964333 ], [ -77.011615, 38.964335 ], [ -77.011612, 38.964245 ], [ -77.011497, 38.964247 ], [ -77.011494, 38.964157 ], [ -77.011379, 38.964159 ], [ -77.011376, 38.964069 ], [ -77.011261, 38.964071 ], [ -77.011258, 38.963981 ], [ -77.011028, 38.963983 ], [ -77.01102, 38.963715 ], [ -77.01093, 38.963716 ], [ -77.010924, 38.963575 ], [ -77.010872, 38.963577 ], [ -77.010828, 38.962972 ], [ -77.010768, 38.962971 ], [ -77.010766, 38.962908 ], [ -77.010656, 38.96291 ], [ -77.010643, 38.96264 ], [ -77.010528, 38.962642 ], [ -77.010649, 38.96241 ], [ -77.010576, 38.962276 ], [ -77.010556, 38.962346 ], [ -77.010408, 38.96235 ], [ -77.010403, 38.962284 ], [ -77.010335, 38.962285 ], [ -77.010286, 38.962241 ], [ -77.010282, 38.962106 ], [ -77.009821, 38.962107 ], [ -77.009818, 38.962024 ], [ -77.009587, 38.962028 ], [ -77.009585, 38.961938 ], [ -77.00947, 38.96194 ], [ -77.009467, 38.96185 ], [ -77.009236, 38.961854 ], [ -77.009234, 38.961763 ], [ -77.009151, 38.961765 ], [ -77.009147, 38.961596 ], [ -77.009275, 38.96154 ], [ -77.009226, 38.961482 ], [ -77.009224, 38.961403 ], [ -77.009339, 38.961401 ], [ -77.009336, 38.961311 ], [ -77.009452, 38.961309 ], [ -77.009447, 38.961132 ], [ -77.009583, 38.960974 ], [ -77.009552, 38.960767 ], [ -77.009667, 38.960765 ], [ -77.009665, 38.960675 ], [ -77.009549, 38.960677 ], [ -77.009547, 38.960587 ], [ -77.009431, 38.960589 ], [ -77.009429, 38.960499 ], [ -77.009371, 38.9605 ], [ -77.009309, 38.960344 ], [ -77.009306, 38.96023 ], [ -77.009098, 38.960234 ], [ -77.009073, 38.960144 ], [ -77.008819, 38.959838 ], [ -77.008718, 38.959831 ], [ -77.008714, 38.9597 ], [ -77.008599, 38.959702 ], [ -77.008596, 38.959612 ], [ -77.008526, 38.959613 ], [ -77.008523, 38.959564 ], [ -77.008364, 38.959567 ], [ -77.008363, 38.959526 ], [ -77.008132, 38.95953 ], [ -77.00813, 38.95944 ], [ -77.008093, 38.95944 ], [ -77.008068, 38.959383 ], [ -77.007948, 38.959296 ], [ -77.007907, 38.959203 ], [ -77.007893, 38.958995 ], [ -77.007839, 38.958882 ], [ -77.007583, 38.95868 ], [ -77.007528, 38.958563 ], [ -77.007525, 38.958459 ], [ -77.007409, 38.958461 ], [ -77.007411, 38.95852 ], [ -77.00718, 38.958511 ], [ -77.007179, 38.958465 ], [ -77.007063, 38.958467 ], [ -77.007061, 38.958377 ], [ -77.00676, 38.958382 ], [ -77.006738, 38.958352 ], [ -77.006598, 38.958345 ], [ -77.006594, 38.958205 ], [ -77.00671, 38.958203 ], [ -77.006702, 38.957933 ], [ -77.006587, 38.957935 ], [ -77.006584, 38.957845 ], [ -77.006469, 38.957847 ], [ -77.006466, 38.957756 ], [ -77.006351, 38.957758 ], [ -77.006343, 38.957488 ], [ -77.006574, 38.957484 ], [ -77.006566, 38.957214 ], [ -77.006451, 38.957216 ], [ -77.006444, 38.956946 ], [ -77.006559, 38.956944 ], [ -77.006554, 38.956764 ], [ -77.006438, 38.956766 ], [ -77.006436, 38.956676 ], [ -77.006321, 38.956678 ], [ -77.006317, 38.956559 ], [ -77.006385, 38.956496 ], [ -77.006431, 38.956496 ], [ -77.006428, 38.956406 ], [ -77.006544, 38.956404 ], [ -77.006539, 38.956224 ], [ -77.006654, 38.956222 ], [ -77.006651, 38.956131 ], [ -77.006536, 38.956133 ], [ -77.006531, 38.955953 ], [ -77.006646, 38.955951 ], [ -77.006639, 38.955681 ], [ -77.006754, 38.955679 ], [ -77.006751, 38.955589 ], [ -77.006867, 38.955587 ], [ -77.006865, 38.955507 ], [ -77.006892, 38.955497 ], [ -77.007441, 38.955487 ], [ -77.007438, 38.955397 ], [ -77.007669, 38.955393 ], [ -77.007664, 38.955213 ], [ -77.00801, 38.955207 ], [ -77.008008, 38.955123 ], [ -77.008855, 38.954931 ], [ -77.008946, 38.954818 ], [ -77.009045, 38.954795 ], [ -77.009049, 38.954631 ], [ -77.008809, 38.954622 ], [ -77.00881, 38.954663 ], [ -77.008592, 38.954716 ], [ -77.008568, 38.954651 ], [ -77.008457, 38.954692 ], [ -77.008454, 38.954569 ], [ -77.008915, 38.954561 ], [ -77.008907, 38.954291 ], [ -77.008792, 38.954293 ], [ -77.008782, 38.953932 ], [ -77.008666, 38.953934 ], [ -77.008654, 38.953484 ], [ -77.008769, 38.953482 ], [ -77.008767, 38.953392 ], [ -77.008421, 38.953398 ], [ -77.008418, 38.953308 ], [ -77.008303, 38.95331 ], [ -77.008298, 38.95313 ], [ -77.008182, 38.953132 ], [ -77.008177, 38.952952 ], [ -77.008062, 38.952954 ], [ -77.008054, 38.952683 ], [ -77.007939, 38.952685 ], [ -77.007929, 38.952325 ], [ -77.007813, 38.952327 ], [ -77.007811, 38.952237 ], [ -77.007926, 38.952235 ], [ -77.007921, 38.952055 ], [ -77.007806, 38.952057 ], [ -77.007798, 38.951787 ], [ -77.007749, 38.951788 ], [ -77.007745, 38.951745 ], [ -77.00768, 38.951699 ], [ -77.007564, 38.951665 ], [ -77.007562, 38.951611 ], [ -77.007447, 38.951608 ], [ -77.007444, 38.951523 ], [ -77.007329, 38.951525 ], [ -77.007327, 38.951435 ], [ -77.007096, 38.951438 ], [ -77.007093, 38.951348 ], [ -77.006978, 38.95135 ], [ -77.006973, 38.95117 ], [ -77.006858, 38.951172 ], [ -77.006855, 38.951082 ], [ -77.006394, 38.95109 ], [ -77.006384, 38.95073 ], [ -77.006268, 38.950732 ], [ -77.006261, 38.950462 ], [ -77.006145, 38.950464 ], [ -77.006143, 38.950374 ], [ -77.006027, 38.950376 ], [ -77.006022, 38.950196 ], [ -77.006138, 38.950194 ], [ -77.006135, 38.950103 ], [ -77.006061, 38.950105 ], [ -77.006058, 38.949948 ], [ -77.006014, 38.949909 ], [ -77.006007, 38.949655 ], [ -77.005892, 38.949657 ], [ -77.005884, 38.949387 ], [ -77.005653, 38.949391 ], [ -77.005651, 38.949301 ], [ -77.00542, 38.949305 ], [ -77.005418, 38.949215 ], [ -77.005345, 38.949216 ], [ -77.005244, 38.949052 ], [ -77.005063, 38.948919 ], [ -77.004944, 38.94877 ], [ -77.004941, 38.948682 ], [ -77.004825, 38.948684 ], [ -77.004708, 38.948606 ], [ -77.0047, 38.948326 ], [ -77.004816, 38.948324 ], [ -77.004813, 38.948234 ], [ -77.004929, 38.948232 ], [ -77.004923, 38.948052 ], [ -77.004577, 38.948058 ], [ -77.004575, 38.947976 ], [ -77.00462, 38.947877 ], [ -77.004688, 38.947876 ], [ -77.004685, 38.947786 ], [ -77.0048, 38.947784 ], [ -77.004803, 38.947603 ], [ -77.004911, 38.947602 ], [ -77.004906, 38.947422 ], [ -77.004866, 38.947422 ], [ -77.00486, 38.947392 ], [ -77.004903, 38.947331 ], [ -77.004934, 38.947123 ], [ -77.005002, 38.947074 ], [ -77.00558, 38.947024 ], [ -77.005704, 38.946962 ], [ -77.006006, 38.946888 ], [ -77.006086, 38.94679 ], [ -77.006035, 38.946681 ], [ -77.006036, 38.946591 ], [ -77.006151, 38.946589 ], [ -77.006149, 38.946499 ], [ -77.006264, 38.946497 ], [ -77.006262, 38.946407 ], [ -77.006723, 38.946399 ], [ -77.00672, 38.946309 ], [ -77.006836, 38.946307 ], [ -77.006828, 38.946037 ], [ -77.006943, 38.946035 ], [ -77.006939, 38.945881 ], [ -77.007021, 38.945673 ], [ -77.007049, 38.945673 ], [ -77.007046, 38.945583 ], [ -77.007277, 38.945579 ], [ -77.007272, 38.945399 ], [ -77.007387, 38.945397 ], [ -77.007384, 38.945307 ], [ -77.0075, 38.945305 ], [ -77.007495, 38.945138 ], [ -77.007566, 38.945128 ], [ -77.007651, 38.945187 ], [ -77.007695, 38.945134 ], [ -77.00768, 38.944761 ], [ -77.007715, 38.94476 ], [ -77.00771, 38.94458 ], [ -77.007825, 38.944578 ], [ -77.007823, 38.944488 ], [ -77.007708, 38.94449 ], [ -77.007702, 38.94431 ], [ -77.007818, 38.944308 ], [ -77.007813, 38.944128 ], [ -77.007928, 38.944126 ], [ -77.007923, 38.943946 ], [ -77.007808, 38.943948 ], [ -77.007805, 38.943858 ], [ -77.00792, 38.943856 ], [ -77.007913, 38.943585 ], [ -77.008028, 38.943584 ], [ -77.008023, 38.943403 ], [ -77.008138, 38.943401 ], [ -77.008136, 38.943311 ], [ -77.008251, 38.943309 ], [ -77.008243, 38.943039 ], [ -77.008128, 38.943041 ], [ -77.008123, 38.942861 ], [ -77.008043, 38.942862 ], [ -77.008073, 38.942772 ], [ -77.008121, 38.942771 ], [ -77.008118, 38.942681 ], [ -77.008233, 38.942679 ], [ -77.008228, 38.942499 ], [ -77.008344, 38.942497 ], [ -77.008346, 38.942587 ], [ -77.008577, 38.942583 ], [ -77.008579, 38.942673 ], [ -77.008695, 38.942671 ], [ -77.008697, 38.942761 ], [ -77.008928, 38.942757 ], [ -77.00893, 38.942847 ], [ -77.009276, 38.942841 ], [ -77.009281, 38.943021 ], [ -77.009512, 38.943017 ], [ -77.009515, 38.943107 ], [ -77.00963, 38.943105 ], [ -77.009632, 38.943195 ], [ -77.009748, 38.943193 ], [ -77.009753, 38.943374 ], [ -77.009868, 38.943372 ], [ -77.009871, 38.943462 ], [ -77.009986, 38.94346 ], [ -77.009989, 38.94355 ], [ -77.010104, 38.943548 ], [ -77.010106, 38.943638 ], [ -77.010337, 38.943634 ], [ -77.01034, 38.943724 ], [ -77.010455, 38.943722 ], [ -77.010457, 38.943812 ], [ -77.010573, 38.94381 ], [ -77.010578, 38.94399 ], [ -77.010693, 38.943988 ], [ -77.010698, 38.944168 ], [ -77.010814, 38.944166 ], [ -77.010816, 38.944256 ], [ -77.011277, 38.944248 ], [ -77.01128, 38.944338 ], [ -77.011511, 38.944334 ], [ -77.01149, 38.943614 ], [ -77.011375, 38.943616 ], [ -77.01137, 38.943436 ], [ -77.011255, 38.943438 ], [ -77.011252, 38.943348 ], [ -77.011137, 38.94335 ], [ -77.011114, 38.942539 ], [ -77.011344, 38.942535 ], [ -77.011352, 38.942805 ], [ -77.011467, 38.942803 ], [ -77.01147, 38.942894 ], [ -77.011585, 38.942892 ], [ -77.011588, 38.942982 ], [ -77.011703, 38.94298 ], [ -77.011706, 38.94307 ], [ -77.011821, 38.943068 ], [ -77.011824, 38.943158 ], [ -77.012631, 38.943144 ], [ -77.012623, 38.942874 ], [ -77.012738, 38.942872 ], [ -77.012736, 38.942782 ], [ -77.012851, 38.94278 ], [ -77.012849, 38.94269 ], [ -77.012964, 38.942688 ], [ -77.012961, 38.942597 ], [ -77.013077, 38.942595 ], [ -77.013074, 38.942505 ], [ -77.013305, 38.942501 ], [ -77.013302, 38.942411 ], [ -77.013418, 38.942409 ], [ -77.013415, 38.942319 ], [ -77.01353, 38.942317 ], [ -77.013528, 38.942227 ], [ -77.013989, 38.942219 ], [ -77.013994, 38.942399 ], [ -77.014225, 38.942395 ], [ -77.014227, 38.942486 ], [ -77.014573, 38.94248 ], [ -77.014576, 38.94257 ], [ -77.014922, 38.942564 ], [ -77.014924, 38.942654 ], [ -77.015155, 38.94265 ], [ -77.015158, 38.94274 ], [ -77.015388, 38.942736 ], [ -77.015391, 38.942826 ], [ -77.015621, 38.942822 ], [ -77.015624, 38.942912 ], [ -77.015739, 38.94291 ], [ -77.015742, 38.943 ], [ -77.015973, 38.942996 ], [ -77.01597, 38.942906 ], [ -77.016085, 38.942904 ], [ -77.016075, 38.942544 ], [ -77.01619, 38.942542 ], [ -77.016188, 38.942452 ], [ -77.016303, 38.94245 ], [ -77.016301, 38.94236 ], [ -77.016416, 38.942358 ], [ -77.016413, 38.942268 ], [ -77.016529, 38.942266 ], [ -77.016526, 38.942176 ], [ -77.016987, 38.942168 ], [ -77.016985, 38.942077 ], [ -77.017907, 38.942062 ], [ -77.017902, 38.941881 ], [ -77.018018, 38.941879 ], [ -77.01801, 38.941609 ], [ -77.018125, 38.941607 ], [ -77.01812, 38.941427 ], [ -77.018235, 38.941425 ], [ -77.018233, 38.941335 ], [ -77.018348, 38.941333 ], [ -77.018346, 38.941243 ], [ -77.018461, 38.941241 ], [ -77.018458, 38.941151 ], [ -77.018574, 38.941149 ], [ -77.018569, 38.940969 ], [ -77.018799, 38.940965 ], [ -77.018794, 38.940785 ], [ -77.01891, 38.940783 ], [ -77.018897, 38.940332 ], [ -77.018781, 38.940334 ], [ -77.018779, 38.940244 ], [ -77.018894, 38.940242 ], [ -77.018892, 38.940152 ], [ -77.019007, 38.94015 ], [ -77.019004, 38.94006 ], [ -77.01912, 38.940058 ], [ -77.019115, 38.939878 ], [ -77.01923, 38.939876 ], [ -77.019227, 38.939786 ], [ -77.019343, 38.939784 ], [ -77.01934, 38.939694 ], [ -77.019455, 38.939692 ], [ -77.01945, 38.939512 ], [ -77.019566, 38.93951 ], [ -77.019558, 38.93924 ], [ -77.019904, 38.939234 ], [ -77.019899, 38.939054 ], [ -77.020129, 38.93905 ], [ -77.020127, 38.93896 ], [ -77.020242, 38.938958 ], [ -77.020245, 38.939048 ], [ -77.021052, 38.939034 ], [ -77.021049, 38.938944 ], [ -77.02128, 38.93894 ], [ -77.021277, 38.93885 ], [ -77.021162, 38.938852 ], [ -77.021154, 38.938581 ], [ -77.020463, 38.938593 ], [ -77.02046, 38.938503 ], [ -77.019538, 38.938519 ], [ -77.019532, 38.938339 ], [ -77.019417, 38.938341 ], [ -77.019412, 38.938161 ], [ -77.019297, 38.938163 ], [ -77.019292, 38.937983 ], [ -77.019176, 38.937985 ], [ -77.019169, 38.937715 ], [ -77.019284, 38.937713 ], [ -77.019279, 38.937533 ], [ -77.019625, 38.937527 ], [ -77.019627, 38.937617 ], [ -77.019743, 38.937615 ], [ -77.01974, 38.937525 ], [ -77.019855, 38.937523 ], [ -77.019853, 38.937433 ], [ -77.019737, 38.937435 ], [ -77.019735, 38.937345 ], [ -77.01985, 38.937343 ], [ -77.019845, 38.937162 ], [ -77.01996, 38.93716 ], [ -77.019958, 38.93707 ], [ -77.020073, 38.937068 ], [ -77.020071, 38.936978 ], [ -77.020532, 38.93697 ], [ -77.020529, 38.93688 ], [ -77.020645, 38.936878 ], [ -77.020642, 38.936788 ], [ -77.020757, 38.936786 ], [ -77.020752, 38.936606 ], [ -77.020637, 38.936608 ], [ -77.020624, 38.936158 ], [ -77.020855, 38.936154 ], [ -77.020852, 38.936064 ], [ -77.020968, 38.936062 ], [ -77.020952, 38.935521 ], [ -77.021068, 38.935519 ], [ -77.021047, 38.934799 ], [ -77.021162, 38.934797 ], [ -77.02116, 38.934707 ], [ -77.021275, 38.934705 ], [ -77.02127, 38.934525 ], [ -77.021155, 38.934527 ], [ -77.021144, 38.934167 ], [ -77.020914, 38.934171 ], [ -77.020911, 38.934081 ], [ -77.020796, 38.934082 ], [ -77.020788, 38.933812 ], [ -77.020904, 38.93381 ], [ -77.020901, 38.93372 ], [ -77.021016, 38.933718 ], [ -77.021014, 38.933628 ], [ -77.020899, 38.93363 ], [ -77.020891, 38.93336 ], [ -77.020776, 38.933362 ], [ -77.02077, 38.933182 ], [ -77.020886, 38.93318 ], [ -77.020883, 38.93309 ], [ -77.020998, 38.933088 ], [ -77.020996, 38.932998 ], [ -77.021111, 38.932996 ], [ -77.021106, 38.932816 ], [ -77.021913, 38.932802 ], [ -77.021911, 38.932712 ], [ -77.022257, 38.932706 ], [ -77.022254, 38.932616 ], [ -77.022946, 38.932604 ], [ -77.022941, 38.932423 ], [ -77.023287, 38.932417 ], [ -77.023284, 38.932327 ], [ -77.023399, 38.932325 ], [ -77.023397, 38.932235 ], [ -77.023858, 38.932227 ], [ -77.023855, 38.932137 ], [ -77.023971, 38.932135 ], [ -77.023973, 38.932225 ], [ -77.02478, 38.932211 ], [ -77.024791, 38.932572 ], [ -77.025021, 38.932568 ], [ -77.025024, 38.932658 ], [ -77.025139, 38.932656 ], [ -77.025142, 38.932746 ], [ -77.025257, 38.932744 ], [ -77.02526, 38.932834 ], [ -77.025375, 38.932832 ], [ -77.025377, 38.932922 ], [ -77.025493, 38.93292 ], [ -77.02549, 38.93283 ], [ -77.025605, 38.932828 ], [ -77.025608, 38.932918 ], [ -77.025954, 38.932912 ], [ -77.025949, 38.932732 ], [ -77.026179, 38.932728 ], [ -77.026182, 38.932818 ], [ -77.026528, 38.932812 ], [ -77.026525, 38.932722 ], [ -77.026871, 38.932716 ], [ -77.026874, 38.932806 ], [ -77.027104, 38.932802 ], [ -77.027102, 38.932712 ], [ -77.027448, 38.932706 ], [ -77.027443, 38.932526 ], [ -77.027558, 38.932524 ], [ -77.027555, 38.932433 ], [ -77.027786, 38.932429 ], [ -77.027789, 38.93252 ], [ -77.027904, 38.932518 ], [ -77.027906, 38.932608 ], [ -77.028022, 38.932606 ], [ -77.028024, 38.932696 ], [ -77.028255, 38.932692 ], [ -77.028257, 38.932782 ], [ -77.028834, 38.932772 ], [ -77.028842, 38.933042 ], [ -77.028957, 38.93304 ], [ -77.02896, 38.93313 ], [ -77.029421, 38.933122 ], [ -77.029418, 38.933032 ], [ -77.029303, 38.933034 ], [ -77.0293, 38.932944 ], [ -77.029416, 38.932942 ], [ -77.029408, 38.932672 ], [ -77.029639, 38.932668 ], [ -77.029636, 38.932578 ], [ -77.029867, 38.932574 ], [ -77.029859, 38.932303 ], [ -77.03032, 38.932295 ], [ -77.030317, 38.932205 ], [ -77.030779, 38.932197 ], [ -77.030776, 38.932107 ], [ -77.031122, 38.932101 ], [ -77.031119, 38.932011 ], [ -77.03135, 38.932007 ], [ -77.031348, 38.931917 ], [ -77.031578, 38.931913 ], [ -77.031576, 38.931823 ], [ -77.031806, 38.931819 ], [ -77.031804, 38.931729 ], [ -77.031919, 38.931727 ], [ -77.031921, 38.931817 ], [ -77.032037, 38.931815 ], [ -77.032034, 38.931725 ], [ -77.032149, 38.931723 ], [ -77.032147, 38.931633 ], [ -77.032262, 38.931631 ], [ -77.032265, 38.931721 ], [ -77.03238, 38.931719 ], [ -77.032375, 38.931539 ], [ -77.03249, 38.931537 ], [ -77.032488, 38.931447 ], [ -77.032834, 38.931441 ], [ -77.032831, 38.931351 ], [ -77.033062, 38.931347 ], [ -77.033064, 38.931437 ], [ -77.033295, 38.931433 ], [ -77.033297, 38.931523 ], [ -77.033528, 38.931519 ], [ -77.033531, 38.931609 ], [ -77.033761, 38.931605 ], [ -77.033759, 38.931515 ], [ -77.033874, 38.931513 ], [ -77.033876, 38.931603 ], [ -77.033992, 38.931601 ], [ -77.033994, 38.931691 ], [ -77.03411, 38.931689 ], [ -77.034112, 38.931779 ], [ -77.034804, 38.931767 ], [ -77.034807, 38.931857 ], [ -77.035268, 38.931849 ], [ -77.03527, 38.931939 ], [ -77.035501, 38.931935 ], [ -77.035503, 38.932025 ], [ -77.035965, 38.932017 ], [ -77.035967, 38.932107 ], [ -77.036198, 38.932103 ], [ -77.036193, 38.931923 ], [ -77.036308, 38.931921 ], [ -77.036305, 38.931831 ], [ -77.03619, 38.931833 ], [ -77.036188, 38.931743 ], [ -77.036072, 38.931745 ], [ -77.03607, 38.931655 ], [ -77.035954, 38.931657 ], [ -77.035952, 38.931566 ], [ -77.035837, 38.931568 ], [ -77.035829, 38.931298 ], [ -77.035713, 38.9313 ], [ -77.035711, 38.93121 ], [ -77.035596, 38.931212 ], [ -77.035588, 38.930942 ], [ -77.035703, 38.93094 ], [ -77.035701, 38.93085 ], [ -77.035816, 38.930848 ], [ -77.035811, 38.930668 ], [ -77.035926, 38.930666 ], [ -77.035923, 38.930576 ], [ -77.035578, 38.930582 ], [ -77.035575, 38.930492 ], [ -77.03546, 38.930494 ], [ -77.035457, 38.930404 ], [ -77.035342, 38.930406 ], [ -77.035324, 38.929775 ], [ -77.035209, 38.929777 ], [ -77.035203, 38.929597 ], [ -77.035319, 38.929595 ], [ -77.035308, 38.929235 ], [ -77.035424, 38.929233 ], [ -77.035419, 38.929053 ], [ -77.03611, 38.929041 ], [ -77.036108, 38.928951 ], [ -77.036338, 38.928947 ], [ -77.036333, 38.928767 ], [ -77.036448, 38.928765 ], [ -77.036443, 38.928585 ], [ -77.036328, 38.928587 ], [ -77.036323, 38.928406 ], [ -77.036208, 38.928408 ], [ -77.036205, 38.928318 ], [ -77.03609, 38.92832 ], [ -77.036087, 38.92823 ], [ -77.035972, 38.928232 ], [ -77.035967, 38.928052 ], [ -77.035736, 38.928056 ], [ -77.035731, 38.927876 ], [ -77.035616, 38.927878 ], [ -77.035613, 38.927788 ], [ -77.035498, 38.92779 ], [ -77.035495, 38.9277 ], [ -77.03561, 38.927698 ], [ -77.0356, 38.927338 ], [ -77.035485, 38.92734 ], [ -77.035477, 38.92707 ], [ -77.035592, 38.927068 ], [ -77.035585, 38.926797 ], [ -77.0357, 38.926795 ], [ -77.035695, 38.926615 ], [ -77.03581, 38.926613 ], [ -77.035808, 38.926523 ], [ -77.036153, 38.926517 ], [ -77.036156, 38.926607 ], [ -77.036271, 38.926605 ], [ -77.036269, 38.926515 ], [ -77.03673, 38.926507 ], [ -77.036725, 38.926327 ], [ -77.036955, 38.926323 ], [ -77.036953, 38.926233 ], [ -77.037068, 38.926231 ], [ -77.037066, 38.926141 ], [ -77.037296, 38.926137 ], [ -77.037299, 38.926227 ], [ -77.037529, 38.926223 ], [ -77.037527, 38.926133 ], [ -77.037642, 38.926131 ], [ -77.037639, 38.926041 ], [ -77.03787, 38.926037 ], [ -77.037865, 38.925857 ], [ -77.038211, 38.925851 ], [ -77.038208, 38.925761 ], [ -77.038093, 38.925763 ], [ -77.038088, 38.925582 ], [ -77.038203, 38.92558 ], [ -77.038187, 38.92504 ], [ -77.038533, 38.925034 ], [ -77.038536, 38.925124 ], [ -77.038882, 38.925118 ], [ -77.038884, 38.925208 ], [ -77.039115, 38.925204 ], [ -77.039118, 38.925294 ], [ -77.039348, 38.92529 ], [ -77.039343, 38.92511 ], [ -77.039458, 38.925108 ], [ -77.039456, 38.925018 ], [ -77.039571, 38.925016 ], [ -77.039568, 38.924926 ], [ -77.039684, 38.924924 ], [ -77.039681, 38.924834 ], [ -77.039912, 38.92483 ], [ -77.039914, 38.92492 ], [ -77.04003, 38.924918 ], [ -77.040014, 38.924377 ], [ -77.040475, 38.924369 ], [ -77.04048, 38.924549 ], [ -77.040826, 38.924543 ], [ -77.040824, 38.924453 ], [ -77.041285, 38.924445 ], [ -77.041282, 38.924355 ], [ -77.041513, 38.924351 ], [ -77.04151, 38.924261 ], [ -77.041856, 38.924255 ], [ -77.041854, 38.924165 ], [ -77.042084, 38.924161 ], [ -77.042081, 38.924071 ], [ -77.042543, 38.924063 ], [ -77.042537, 38.923883 ], [ -77.042768, 38.923879 ], [ -77.04276, 38.923609 ], [ -77.042876, 38.923607 ], [ -77.04287, 38.923426 ], [ -77.042986, 38.923424 ], [ -77.042983, 38.923334 ], [ -77.043214, 38.92333 ], [ -77.043211, 38.92324 ], [ -77.043326, 38.923238 ], [ -77.043321, 38.923058 ], [ -77.043437, 38.923056 ], [ -77.043429, 38.922786 ], [ -77.043313, 38.922788 ], [ -77.043308, 38.922608 ], [ -77.043424, 38.922606 ], [ -77.043411, 38.922156 ], [ -77.043526, 38.922154 ], [ -77.043523, 38.922063 ], [ -77.043639, 38.922061 ], [ -77.043636, 38.921971 ], [ -77.043751, 38.921969 ], [ -77.043733, 38.921339 ], [ -77.043849, 38.921337 ], [ -77.043843, 38.921157 ], [ -77.043728, 38.921159 ], [ -77.04372, 38.920889 ], [ -77.043836, 38.920887 ], [ -77.043833, 38.920797 ], [ -77.044064, 38.920793 ], [ -77.044058, 38.920612 ], [ -77.043828, 38.920616 ], [ -77.043823, 38.920436 ], [ -77.043707, 38.920438 ], [ -77.043702, 38.920258 ], [ -77.043818, 38.920256 ], [ -77.043797, 38.919536 ], [ -77.044258, 38.919528 ], [ -77.044245, 38.919077 ], [ -77.04436, 38.919075 ], [ -77.044363, 38.919165 ], [ -77.045055, 38.919153 ], [ -77.045052, 38.919063 ], [ -77.045513, 38.919055 ], [ -77.0455, 38.918605 ], [ -77.045615, 38.918603 ], [ -77.045613, 38.918513 ], [ -77.045959, 38.918507 ], [ -77.045956, 38.918417 ], [ -77.046187, 38.918413 ], [ -77.046184, 38.918323 ], [ -77.046299, 38.918321 ], [ -77.046297, 38.918231 ], [ -77.046182, 38.918233 ], [ -77.046174, 38.917962 ], [ -77.046058, 38.917964 ], [ -77.046053, 38.917784 ], [ -77.046169, 38.917782 ], [ -77.046166, 38.917692 ], [ -77.046281, 38.91769 ], [ -77.046284, 38.91778 ], [ -77.04663, 38.917774 ], [ -77.046627, 38.917684 ], [ -77.046858, 38.91768 ], [ -77.046852, 38.9175 ], [ -77.047429, 38.91749 ], [ -77.047424, 38.91731 ], [ -77.04777, 38.917304 ], [ -77.047767, 38.917214 ], [ -77.047882, 38.917212 ], [ -77.047869, 38.916761 ], [ -77.047754, 38.916763 ], [ -77.047738, 38.916223 ], [ -77.047854, 38.916221 ], [ -77.047846, 38.915951 ], [ -77.047961, 38.915949 ], [ -77.047956, 38.915769 ], [ -77.048071, 38.915767 ], [ -77.048069, 38.915677 ], [ -77.047953, 38.915679 ], [ -77.047951, 38.915589 ], [ -77.047836, 38.915591 ], [ -77.047833, 38.915501 ], [ -77.047718, 38.915503 ], [ -77.047713, 38.915322 ], [ -77.047597, 38.915324 ], [ -77.047595, 38.915234 ], [ -77.047364, 38.915238 ], [ -77.047362, 38.915148 ], [ -77.047246, 38.91515 ], [ -77.047244, 38.91506 ], [ -77.047128, 38.915062 ], [ -77.047126, 38.914972 ], [ -77.047011, 38.914974 ], [ -77.047008, 38.914884 ], [ -77.046893, 38.914886 ], [ -77.04689, 38.914796 ], [ -77.046775, 38.914798 ], [ -77.046772, 38.914708 ], [ -77.046542, 38.914712 ], [ -77.046539, 38.914622 ], [ -77.046309, 38.914626 ], [ -77.046306, 38.914536 ], [ -77.046191, 38.914538 ], [ -77.046188, 38.914448 ], [ -77.046073, 38.91445 ], [ -77.046065, 38.91418 ], [ -77.04595, 38.914182 ], [ -77.045947, 38.914092 ], [ -77.045832, 38.914094 ], [ -77.045829, 38.914004 ], [ -77.045714, 38.914006 ], [ -77.045706, 38.913736 ], [ -77.045591, 38.913738 ], [ -77.045583, 38.913468 ], [ -77.045468, 38.91347 ], [ -77.045463, 38.91329 ], [ -77.045348, 38.913292 ], [ -77.04534, 38.913021 ], [ -77.045225, 38.913023 ], [ -77.045214, 38.912663 ], [ -77.045099, 38.912665 ], [ -77.045096, 38.912575 ], [ -77.044981, 38.912577 ], [ -77.044979, 38.912487 ], [ -77.045094, 38.912485 ], [ -77.045091, 38.912395 ], [ -77.044976, 38.912397 ], [ -77.044973, 38.912307 ], [ -77.044858, 38.912309 ], [ -77.044856, 38.912219 ], [ -77.044941, 38.912235 ], [ -77.044971, 38.912217 ], [ -77.044969, 38.912127 ], [ -77.045083, 38.912125 ], [ -77.045081, 38.912035 ], [ -77.044966, 38.912037 ], [ -77.04496, 38.911857 ], [ -77.045076, 38.911855 ], [ -77.045073, 38.911765 ], [ -77.044958, 38.911767 ], [ -77.044955, 38.911677 ], [ -77.04484, 38.911679 ], [ -77.044832, 38.911408 ], [ -77.044717, 38.91141 ], [ -77.044709, 38.91114 ], [ -77.044824, 38.911138 ], [ -77.044822, 38.911048 ], [ -77.045052, 38.911044 ], [ -77.04505, 38.910954 ], [ -77.044935, 38.910956 ], [ -77.044932, 38.910866 ], [ -77.044817, 38.910868 ], [ -77.044814, 38.910778 ], [ -77.044699, 38.91078 ], [ -77.044694, 38.9106 ], [ -77.044463, 38.910604 ], [ -77.044461, 38.910514 ], [ -77.044345, 38.910516 ], [ -77.04434, 38.910336 ], [ -77.044225, 38.910338 ], [ -77.044217, 38.910068 ], [ -77.044102, 38.91007 ], [ -77.044099, 38.909978 ], [ -77.044172, 38.909902 ], [ -77.044199, 38.909803 ], [ -77.044192, 38.90966 ], [ -77.049154, 38.909652 ], [ -77.049257, 38.909636 ], [ -77.049306, 38.909615 ], [ -77.049153, 38.909647 ], [ -77.044191, 38.909655 ], [ -77.044158, 38.909507 ], [ -77.044055, 38.90933 ], [ -77.043845, 38.909169 ], [ -77.043843, 38.909083 ], [ -77.043728, 38.909085 ], [ -77.043725, 38.908995 ], [ -77.04384, 38.908993 ], [ -77.043833, 38.908723 ], [ -77.043948, 38.908721 ], [ -77.043943, 38.908541 ], [ -77.044058, 38.908539 ], [ -77.044055, 38.908449 ], [ -77.044171, 38.908447 ], [ -77.044168, 38.908357 ], [ -77.044283, 38.908355 ], [ -77.044281, 38.908264 ], [ -77.044396, 38.908262 ], [ -77.044399, 38.908353 ], [ -77.044514, 38.908351 ], [ -77.044511, 38.90826 ], [ -77.044742, 38.908256 ], [ -77.044739, 38.908166 ], [ -77.044854, 38.908164 ], [ -77.044852, 38.908074 ], [ -77.044967, 38.908072 ], [ -77.044965, 38.907982 ], [ -77.04508, 38.90798 ], [ -77.045069, 38.90762 ], [ -77.045185, 38.907618 ], [ -77.045182, 38.907528 ], [ -77.045413, 38.907524 ], [ -77.04541, 38.907434 ], [ -77.045525, 38.907432 ], [ -77.04552, 38.907252 ], [ -77.045635, 38.90725 ], [ -77.045633, 38.90716 ], [ -77.045748, 38.907158 ], [ -77.045743, 38.906977 ], [ -77.045973, 38.906973 ], [ -77.045971, 38.906883 ], [ -77.046317, 38.906877 ], [ -77.046311, 38.906697 ], [ -77.046427, 38.906695 ], [ -77.046422, 38.906515 ], [ -77.046767, 38.906509 ], [ -77.04676, 38.906239 ], [ -77.046875, 38.906237 ], [ -77.046872, 38.906147 ], [ -77.047103, 38.906143 ], [ -77.0471, 38.906053 ], [ -77.047331, 38.906049 ], [ -77.047328, 38.905958 ], [ -77.047443, 38.905956 ], [ -77.047438, 38.905776 ], [ -77.047899, 38.905768 ], [ -77.047897, 38.905678 ], [ -77.048012, 38.905676 ], [ -77.048009, 38.905586 ], [ -77.04824, 38.905582 ], [ -77.048237, 38.905492 ], [ -77.048468, 38.905488 ], [ -77.048465, 38.905398 ], [ -77.049041, 38.905388 ], [ -77.049044, 38.905478 ], [ -77.049275, 38.905474 ], [ -77.049277, 38.905564 ], [ -77.049392, 38.905562 ], [ -77.049395, 38.905652 ], [ -77.049625, 38.905648 ], [ -77.049623, 38.905558 ], [ -77.049853, 38.905554 ], [ -77.049851, 38.905464 ], [ -77.049966, 38.905462 ], [ -77.049963, 38.905372 ], [ -77.050079, 38.90537 ], [ -77.050076, 38.90528 ], [ -77.050768, 38.905267 ], [ -77.05076, 38.904997 ], [ -77.050645, 38.904999 ], [ -77.050642, 38.904909 ], [ -77.050757, 38.904907 ], [ -77.050744, 38.904457 ], [ -77.05109, 38.904451 ], [ -77.051088, 38.904361 ], [ -77.051203, 38.904359 ], [ -77.05119, 38.903908 ], [ -77.05142, 38.903904 ], [ -77.051413, 38.903634 ], [ -77.051182, 38.903638 ], [ -77.051177, 38.903458 ], [ -77.051292, 38.903456 ], [ -77.051282, 38.903096 ], [ -77.051167, 38.903098 ], [ -77.051164, 38.903008 ], [ -77.050933, 38.903012 ], [ -77.050926, 38.902742 ], [ -77.05058, 38.902748 ], [ -77.050577, 38.902658 ], [ -77.050462, 38.90266 ], [ -77.050459, 38.90257 ], [ -77.050114, 38.902576 ], [ -77.050111, 38.902486 ], [ -77.049996, 38.902488 ], [ -77.049993, 38.902398 ], [ -77.049417, 38.902408 ], [ -77.049414, 38.902318 ], [ -77.049299, 38.90232 ], [ -77.049297, 38.90223 ], [ -77.049181, 38.902232 ], [ -77.049179, 38.902142 ], [ -77.048833, 38.902148 ], [ -77.04883, 38.902058 ], [ -77.0486, 38.902062 ], [ -77.048597, 38.901972 ], [ -77.048367, 38.901976 ], [ -77.048364, 38.901886 ], [ -77.048134, 38.90189 ], [ -77.048131, 38.9018 ], [ -77.047901, 38.901804 ], [ -77.047898, 38.901714 ], [ -77.047783, 38.901716 ], [ -77.04778, 38.901626 ], [ -77.047319, 38.901634 ], [ -77.047317, 38.901544 ], [ -77.047201, 38.901546 ], [ -77.047199, 38.901456 ], [ -77.046968, 38.90146 ], [ -77.046966, 38.90137 ], [ -77.046735, 38.901374 ], [ -77.046733, 38.901284 ], [ -77.046502, 38.901288 ], [ -77.046505, 38.901378 ], [ -77.046159, 38.901384 ], [ -77.046161, 38.901474 ], [ -77.04547, 38.901486 ], [ -77.045467, 38.901396 ], [ -77.045352, 38.901398 ], [ -77.04535, 38.901308 ], [ -77.045234, 38.90131 ], [ -77.045232, 38.90122 ], [ -77.045116, 38.901222 ], [ -77.045114, 38.901132 ], [ -77.045229, 38.90113 ], [ -77.045227, 38.90104 ], [ -77.045111, 38.901042 ], [ -77.045109, 38.900952 ], [ -77.044993, 38.900954 ], [ -77.044986, 38.900683 ], [ -77.045101, 38.900681 ], [ -77.045098, 38.900591 ], [ -77.045214, 38.900589 ], [ -77.045203, 38.900229 ], [ -77.045088, 38.900231 ], [ -77.04508, 38.899961 ], [ -77.045196, 38.899959 ], [ -77.045193, 38.899869 ], [ -77.045078, 38.899871 ], [ -77.04507, 38.899601 ], [ -77.045185, 38.899599 ], [ -77.04518, 38.899419 ], [ -77.045295, 38.899417 ], [ -77.045293, 38.899327 ], [ -77.045177, 38.899329 ], [ -77.045175, 38.899239 ], [ -77.04529, 38.899237 ], [ -77.045282, 38.898966 ], [ -77.045398, 38.898964 ], [ -77.045392, 38.898784 ], [ -77.045738, 38.898778 ], [ -77.045741, 38.898868 ], [ -77.046086, 38.898862 ], [ -77.046089, 38.898952 ], [ -77.04632, 38.898948 ], [ -77.046317, 38.898858 ], [ -77.046432, 38.898856 ], [ -77.04643, 38.898766 ], [ -77.046545, 38.898764 ], [ -77.046542, 38.898674 ], [ -77.047003, 38.898666 ], [ -77.047001, 38.898576 ], [ -77.047346, 38.89857 ], [ -77.047344, 38.89848 ], [ -77.047459, 38.898478 ], [ -77.047446, 38.898027 ], [ -77.047331, 38.898029 ], [ -77.047328, 38.897939 ], [ -77.047444, 38.897937 ], [ -77.047441, 38.897847 ], [ -77.047326, 38.897849 ], [ -77.047321, 38.897669 ], [ -77.047551, 38.897665 ], [ -77.047554, 38.897755 ], [ -77.047669, 38.897753 ], [ -77.047674, 38.897933 ], [ -77.047789, 38.897931 ], [ -77.047792, 38.898021 ], [ -77.048599, 38.898007 ], [ -77.048601, 38.898097 ], [ -77.048716, 38.898095 ], [ -77.048724, 38.898365 ], [ -77.048955, 38.898361 ], [ -77.048957, 38.898451 ], [ -77.049073, 38.898449 ], [ -77.049075, 38.898539 ], [ -77.049421, 38.898533 ], [ -77.049418, 38.898443 ], [ -77.049534, 38.898441 ], [ -77.049531, 38.898351 ], [ -77.049646, 38.898349 ], [ -77.049644, 38.898259 ], [ -77.049759, 38.898257 ], [ -77.049756, 38.898167 ], [ -77.049871, 38.898165 ], [ -77.049874, 38.898255 ], [ -77.050105, 38.898251 ], [ -77.050107, 38.898341 ], [ -77.050222, 38.898339 ], [ -77.050228, 38.898519 ], [ -77.051611, 38.898495 ], [ -77.051613, 38.898585 ], [ -77.051728, 38.898583 ], [ -77.051731, 38.898673 ], [ -77.051846, 38.898671 ], [ -77.051849, 38.898761 ], [ -77.051964, 38.898759 ], [ -77.051967, 38.898849 ], [ -77.052197, 38.898845 ], [ -77.0522, 38.898935 ], [ -77.052545, 38.898929 ], [ -77.052548, 38.899019 ], [ -77.052894, 38.899013 ], [ -77.052896, 38.899103 ], [ -77.053012, 38.899101 ], [ -77.053009, 38.899011 ], [ -77.05324, 38.899007 ], [ -77.053242, 38.899097 ], [ -77.053357, 38.899095 ], [ -77.05336, 38.899185 ], [ -77.053475, 38.899183 ], [ -77.053478, 38.899273 ], [ -77.054285, 38.899259 ], [ -77.054287, 38.899349 ], [ -77.054402, 38.899347 ], [ -77.054405, 38.899437 ], [ -77.05452, 38.899435 ], [ -77.054523, 38.899525 ], [ -77.054753, 38.899521 ], [ -77.054759, 38.899701 ], [ -77.054874, 38.899699 ], [ -77.054876, 38.899789 ], [ -77.054992, 38.899787 ], [ -77.054994, 38.899877 ], [ -77.055225, 38.899873 ], [ -77.05523, 38.900053 ], [ -77.05546, 38.900049 ], [ -77.055458, 38.899959 ], [ -77.055804, 38.899953 ], [ -77.055796, 38.899683 ], [ -77.055911, 38.899681 ], [ -77.055914, 38.899771 ], [ -77.056029, 38.899769 ], [ -77.056031, 38.899859 ], [ -77.056147, 38.899857 ], [ -77.056149, 38.899947 ], [ -77.05638, 38.899943 ], [ -77.056377, 38.899853 ], [ -77.056492, 38.899851 ], [ -77.056487, 38.89967 ], [ -77.056718, 38.899666 ], [ -77.056715, 38.899576 ], [ -77.056775, 38.899575 ], [ -77.057182, 38.900666 ], [ -77.057075, 38.900668 ] ], [ [ -77.049471, 38.909545 ], [ -77.052318, 38.909594 ], [ -77.052441, 38.90966 ], [ -77.052733, 38.909664 ], [ -77.052658, 38.909601 ], [ -77.053776, 38.909312 ], [ -77.054694, 38.909302 ], [ -77.054674, 38.908571 ], [ -77.05494, 38.908147 ], [ -77.054931, 38.907966 ], [ -77.054971, 38.907845 ], [ -77.054912, 38.907752 ], [ -77.054958, 38.907658 ], [ -77.055456, 38.907653 ], [ -77.055415, 38.907128 ], [ -77.055477, 38.906923 ], [ -77.055433, 38.906662 ], [ -77.05553, 38.906282 ], [ -77.055661, 38.906016 ], [ -77.055733, 38.905778 ], [ -77.055841, 38.905606 ], [ -77.055921, 38.905343 ], [ -77.054835, 38.905346 ], [ -77.054799, 38.90568 ], [ -77.054402, 38.905719 ], [ -77.053811, 38.90586 ], [ -77.053766, 38.905959 ], [ -77.053926, 38.906216 ], [ -77.053774, 38.906678 ], [ -77.053669, 38.906782 ], [ -77.053718, 38.90709 ], [ -77.053377, 38.907394 ], [ -77.053415, 38.907426 ], [ -77.053224, 38.907565 ], [ -77.053039, 38.907458 ], [ -77.052819, 38.907505 ], [ -77.052734, 38.90778 ], [ -77.052733, 38.907918 ], [ -77.052658, 38.90792 ], [ -77.052661, 38.908038 ], [ -77.05186, 38.90804 ], [ -77.051846, 38.907975 ], [ -77.051481, 38.907967 ], [ -77.051471, 38.907917 ], [ -77.051408, 38.907916 ], [ -77.051405, 38.907685 ], [ -77.051474, 38.907687 ], [ -77.051471, 38.907639 ], [ -77.051389, 38.907645 ], [ -77.051302, 38.907596 ], [ -77.050169, 38.907591 ], [ -77.050062, 38.90779 ], [ -77.049953, 38.90791 ], [ -77.049559, 38.908221 ], [ -77.049421, 38.908442 ], [ -77.049415, 38.909502 ], [ -77.049462, 38.909545 ], [ -77.049306, 38.909615 ], [ -77.049471, 38.909545 ] ], [ [ -77.044539, 38.927608 ], [ -77.044425, 38.927679 ], [ -77.044284, 38.92785 ], [ -77.044246, 38.928064 ], [ -77.045017, 38.928159 ], [ -77.045111, 38.928123 ], [ -77.045293, 38.927718 ], [ -77.045172, 38.927569 ], [ -77.045027, 38.927519 ], [ -77.044903, 38.927522 ], [ -77.044539, 38.927608 ] ] ], [ [ [ -77.058026, 38.903989 ], [ -77.058023, 38.903934 ], [ -77.057966, 38.903933 ], [ -77.057965, 38.903796 ], [ -77.057264, 38.903811 ], [ -77.057219, 38.903774 ], [ -77.057213, 38.903565 ], [ -77.057255, 38.90353 ], [ -77.057952, 38.903515 ], [ -77.057985, 38.902783 ], [ -77.058074, 38.902702 ], [ -77.058097, 38.903517 ], [ -77.058213, 38.903514 ], [ -77.058218, 38.903695 ], [ -77.058102, 38.903697 ], [ -77.058105, 38.903787 ], [ -77.05822, 38.903785 ], [ -77.058224, 38.903918 ], [ -77.058179, 38.903918 ], [ -77.058178, 38.903952 ], [ -77.058137, 38.903961 ], [ -77.05814, 38.904085 ], [ -77.058185, 38.904146 ], [ -77.058, 38.904149 ], [ -77.058008, 38.904419 ], [ -77.057975, 38.90442 ], [ -77.057969, 38.904212 ], [ -77.058026, 38.903989 ] ] ], [ [ [ -77.075348, 38.923116 ], [ -77.075257, 38.923116 ], [ -77.075281, 38.923264 ], [ -77.075347, 38.923264 ], [ -77.07527, 38.923305 ], [ -77.074725, 38.923315 ], [ -77.074725, 38.923293 ], [ -77.074586, 38.923293 ], [ -77.074582, 38.923137 ], [ -77.074466, 38.923139 ], [ -77.074469, 38.923229 ], [ -77.074354, 38.923231 ], [ -77.074356, 38.923293 ], [ -77.074042, 38.923293 ], [ -77.074042, 38.923384 ], [ -77.073878, 38.92332 ], [ -77.073777, 38.92336 ], [ -77.073759, 38.923542 ], [ -77.073693, 38.923585 ], [ -77.073424, 38.924122 ], [ -77.073391, 38.924318 ], [ -77.073465, 38.924378 ], [ -77.073464, 38.924509 ], [ -77.073344, 38.924562 ], [ -77.073335, 38.924762 ], [ -77.073298, 38.924736 ], [ -77.073189, 38.924795 ], [ -77.073176, 38.923168 ], [ -77.073111, 38.922889 ], [ -77.072916, 38.922561 ], [ -77.0727, 38.92249 ], [ -77.072615, 38.922431 ], [ -77.072599, 38.922288 ], [ -77.071606, 38.920644 ], [ -77.071263, 38.92015 ], [ -77.071187, 38.92017 ], [ -77.071117, 38.920005 ], [ -77.070977, 38.920041 ], [ -77.070791, 38.919603 ], [ -77.070299, 38.919731 ], [ -77.07033, 38.919804 ], [ -77.070237, 38.919828 ], [ -77.070096, 38.91978 ], [ -77.070024, 38.919675 ], [ -77.07061, 38.919363 ], [ -77.069189, 38.917692 ], [ -77.069199, 38.917657 ], [ -77.069354, 38.917694 ], [ -77.068748, 38.916969 ], [ -77.06856, 38.916952 ], [ -77.06846, 38.916912 ], [ -77.068, 38.916336 ], [ -77.068046, 38.916314 ], [ -77.067621, 38.915804 ], [ -77.067646, 38.91579 ], [ -77.0676, 38.915727 ], [ -77.066536, 38.916229 ], [ -77.066458, 38.916145 ], [ -77.067577, 38.91565 ], [ -77.0672, 38.91492 ], [ -77.066874, 38.91503 ], [ -77.066801, 38.914802 ], [ -77.065878, 38.914804 ], [ -77.064334, 38.914749 ], [ -77.064217, 38.914666 ], [ -77.064217, 38.914628 ], [ -77.064155, 38.914657 ], [ -77.064105, 38.914621 ], [ -77.064139, 38.914222 ], [ -77.064634, 38.914213 ], [ -77.064631, 38.914123 ], [ -77.065323, 38.914111 ], [ -77.065321, 38.914021 ], [ -77.065551, 38.914017 ], [ -77.065548, 38.913927 ], [ -77.065664, 38.913925 ], [ -77.065666, 38.914015 ], [ -77.066012, 38.914009 ], [ -77.06601, 38.913919 ], [ -77.066125, 38.913917 ], [ -77.066127, 38.914007 ], [ -77.066243, 38.914005 ], [ -77.06624, 38.913915 ], [ -77.066355, 38.913913 ], [ -77.066353, 38.913823 ], [ -77.066929, 38.913812 ], [ -77.066926, 38.913722 ], [ -77.067042, 38.91372 ], [ -77.067034, 38.91345 ], [ -77.066919, 38.913452 ], [ -77.066916, 38.913362 ], [ -77.067492, 38.913352 ], [ -77.067495, 38.913442 ], [ -77.06761, 38.91344 ], [ -77.067615, 38.91362 ], [ -77.067731, 38.913618 ], [ -77.067733, 38.913708 ], [ -77.068194, 38.9137 ], [ -77.068197, 38.91379 ], [ -77.068543, 38.913784 ], [ -77.068545, 38.913874 ], [ -77.068661, 38.913872 ], [ -77.068663, 38.913962 ], [ -77.068894, 38.913958 ], [ -77.068896, 38.914048 ], [ -77.069012, 38.914046 ], [ -77.06902, 38.914316 ], [ -77.069135, 38.914314 ], [ -77.069145, 38.914674 ], [ -77.069261, 38.914672 ], [ -77.069271, 38.915032 ], [ -77.069386, 38.91503 ], [ -77.069423, 38.916291 ], [ -77.069538, 38.916289 ], [ -77.069543, 38.916469 ], [ -77.069659, 38.916467 ], [ -77.069667, 38.916737 ], [ -77.069782, 38.916735 ], [ -77.069784, 38.916825 ], [ -77.0699, 38.916823 ], [ -77.069905, 38.917003 ], [ -77.07002, 38.917001 ], [ -77.070023, 38.917091 ], [ -77.070138, 38.917089 ], [ -77.070141, 38.917179 ], [ -77.070256, 38.917177 ], [ -77.070261, 38.917357 ], [ -77.070377, 38.917355 ], [ -77.070379, 38.917445 ], [ -77.070494, 38.917443 ], [ -77.070497, 38.917533 ], [ -77.070843, 38.917527 ], [ -77.070846, 38.917617 ], [ -77.070961, 38.917615 ], [ -77.070963, 38.917705 ], [ -77.071079, 38.917703 ], [ -77.071084, 38.917883 ], [ -77.071199, 38.917881 ], [ -77.071204, 38.918061 ], [ -77.071089, 38.918063 ], [ -77.071094, 38.918244 ], [ -77.07121, 38.918242 ], [ -77.071218, 38.918512 ], [ -77.071333, 38.91851 ], [ -77.071346, 38.91896 ], [ -77.071461, 38.918958 ], [ -77.071464, 38.919048 ], [ -77.071694, 38.919044 ], [ -77.071705, 38.919404 ], [ -77.07182, 38.919402 ], [ -77.071825, 38.919582 ], [ -77.071941, 38.91958 ], [ -77.071946, 38.91976 ], [ -77.072176, 38.919756 ], [ -77.072182, 38.919936 ], [ -77.072297, 38.919934 ], [ -77.072307, 38.920294 ], [ -77.072192, 38.920296 ], [ -77.072208, 38.920837 ], [ -77.072323, 38.920835 ], [ -77.072328, 38.921015 ], [ -77.072559, 38.921011 ], [ -77.072562, 38.921101 ], [ -77.072677, 38.921099 ], [ -77.072682, 38.921279 ], [ -77.072797, 38.921277 ], [ -77.072805, 38.921547 ], [ -77.072921, 38.921545 ], [ -77.072926, 38.921725 ], [ -77.073041, 38.921723 ], [ -77.073049, 38.921993 ], [ -77.073164, 38.921991 ], [ -77.073167, 38.922081 ], [ -77.073282, 38.922079 ], [ -77.073285, 38.922169 ], [ -77.0734, 38.922167 ], [ -77.073403, 38.922257 ], [ -77.073518, 38.922255 ], [ -77.073521, 38.922345 ], [ -77.073636, 38.922343 ], [ -77.073638, 38.922433 ], [ -77.074445, 38.922419 ], [ -77.074448, 38.922509 ], [ -77.074563, 38.922507 ], [ -77.074566, 38.922597 ], [ -77.074681, 38.922595 ], [ -77.074684, 38.922685 ], [ -77.074799, 38.922683 ], [ -77.074802, 38.922773 ], [ -77.075032, 38.922769 ], [ -77.07503, 38.922679 ], [ -77.075145, 38.922677 ], [ -77.075148, 38.922767 ], [ -77.075263, 38.922765 ], [ -77.07526, 38.922675 ], [ -77.075376, 38.922673 ], [ -77.075378, 38.922763 ], [ -77.075493, 38.922761 ], [ -77.075496, 38.922851 ], [ -77.075611, 38.922849 ], [ -77.075614, 38.922939 ], [ -77.075499, 38.922941 ], [ -77.075504, 38.923121 ], [ -77.075348, 38.923137 ], [ -77.075348, 38.923116 ] ] ], [ [ [ -77.063696, 38.91405 ], [ -77.063707, 38.91405 ], [ -77.063697, 38.914089 ], [ -77.063696, 38.91405 ] ] ], [ [ [ -77.063227, 38.914062 ], [ -77.06307, 38.913777 ], [ -77.063081, 38.913399 ], [ -77.062131, 38.913137 ], [ -77.061439, 38.913008 ], [ -77.061601, 38.913006 ], [ -77.061598, 38.912915 ], [ -77.061829, 38.912911 ], [ -77.061831, 38.913001 ], [ -77.061946, 38.912999 ], [ -77.061944, 38.912909 ], [ -77.062059, 38.912907 ], [ -77.062062, 38.912997 ], [ -77.062523, 38.912989 ], [ -77.062525, 38.913079 ], [ -77.062641, 38.913077 ], [ -77.062638, 38.912987 ], [ -77.062753, 38.912985 ], [ -77.062756, 38.913075 ], [ -77.062871, 38.913073 ], [ -77.062874, 38.913163 ], [ -77.062989, 38.913161 ], [ -77.062994, 38.913341 ], [ -77.06311, 38.913339 ], [ -77.063115, 38.913519 ], [ -77.06323, 38.913517 ], [ -77.063233, 38.913607 ], [ -77.063348, 38.913605 ], [ -77.06335, 38.913695 ], [ -77.063466, 38.913693 ], [ -77.063468, 38.913783 ], [ -77.063699, 38.913779 ], [ -77.063704, 38.91396 ], [ -77.063589, 38.913962 ], [ -77.063591, 38.914052 ], [ -77.063696, 38.91405 ], [ -77.063227, 38.914062 ] ] ], [ [ [ -77.060673, 38.912842 ], [ -77.060674, 38.91286 ], [ -77.060587, 38.912843 ], [ -77.060673, 38.912842 ] ] ], [ [ [ -77.059784, 38.91271 ], [ -77.059637, 38.91268 ], [ -77.060553, 38.912664 ], [ -77.060558, 38.912838 ], [ -77.059794, 38.912687 ], [ -77.059784, 38.91271 ] ] ], [ [ [ -77.022581, 38.974598 ], [ -77.022525, 38.974599 ], [ -77.022522, 38.974525 ], [ -77.0226, 38.974554 ], [ -77.022581, 38.974598 ] ] ], [ [ [ -77.021965, 38.975234 ], [ -77.021963, 38.975149 ], [ -77.022207, 38.975145 ], [ -77.021965, 38.975234 ] ] ], [ [ [ -77.021851, 38.975267 ], [ -77.02185, 38.975241 ], [ -77.021945, 38.975239 ], [ -77.021851, 38.975267 ] ] ], [ [ [ -77.021509, 38.975427 ], [ -77.021574, 38.975426 ], [ -77.021511, 38.975491 ], [ -77.021509, 38.975427 ] ] ], [ [ [ -77.008343, 38.954751 ], [ -77.008433, 38.954749 ], [ -77.008344, 38.954769 ], [ -77.008343, 38.954751 ] ] ], [ [ [ -77.043176, 38.940709 ], [ -77.043218, 38.94069 ], [ -77.043218, 38.940641 ], [ -77.043286, 38.940641 ], [ -77.043287, 38.94069 ], [ -77.043363, 38.940689 ], [ -77.043479, 38.940784 ], [ -77.043451, 38.940821 ], [ -77.043472, 38.940873 ], [ -77.042862, 38.940878 ], [ -77.042856, 38.940706 ], [ -77.042997, 38.940726 ], [ -77.043176, 38.940709 ] ] ], [ [ [ -77.038717, 38.943362 ], [ -77.038659, 38.943259 ], [ -77.038661, 38.943104 ], [ -77.038771, 38.943029 ], [ -77.03882, 38.943045 ], [ -77.038814, 38.942949 ], [ -77.038738, 38.942899 ], [ -77.038576, 38.942617 ], [ -77.038314, 38.942357 ], [ -77.038178, 38.942356 ], [ -77.038009, 38.942249 ], [ -77.037875, 38.942205 ], [ -77.037838, 38.942109 ], [ -77.037738, 38.942108 ], [ -77.0376, 38.941711 ], [ -77.037601, 38.941626 ], [ -77.037737, 38.941627 ], [ -77.03777, 38.941566 ], [ -77.037834, 38.941534 ], [ -77.037851, 38.941296 ], [ -77.037933, 38.941252 ], [ -77.037996, 38.941253 ], [ -77.038139, 38.941024 ], [ -77.038127, 38.940974 ], [ -77.038263, 38.940913 ], [ -77.038321, 38.940926 ], [ -77.038289, 38.940821 ], [ -77.038146, 38.94082 ], [ -77.038074, 38.940622 ], [ -77.037689, 38.940637 ], [ -77.037671, 38.940552 ], [ -77.037329, 38.940323 ], [ -77.037328, 38.940246 ], [ -77.037395, 38.94014 ], [ -77.037486, 38.940129 ], [ -77.03753, 38.939991 ], [ -77.037395, 38.939798 ], [ -77.037378, 38.939567 ], [ -77.037349, 38.939567 ], [ -77.037348, 38.939534 ], [ -77.037275, 38.939533 ], [ -77.037205, 38.939464 ], [ -77.036994, 38.939592 ], [ -77.036994, 38.939642 ], [ -77.036709, 38.939641 ], [ -77.036709, 38.939508 ], [ -77.036843, 38.939509 ], [ -77.036996, 38.939407 ], [ -77.036749, 38.939372 ], [ -77.03676, 38.939325 ], [ -77.036972, 38.939355 ], [ -77.037028, 38.939298 ], [ -77.036879, 38.939154 ], [ -77.036714, 38.939154 ], [ -77.036713, 38.939021 ], [ -77.037055, 38.939009 ], [ -77.037046, 38.939088 ], [ -77.037197, 38.939237 ], [ -77.037275, 38.939207 ], [ -77.037471, 38.939035 ], [ -77.037489, 38.939052 ], [ -77.037557, 38.939009 ], [ -77.037684, 38.939011 ], [ -77.037704, 38.939086 ], [ -77.03751, 38.939214 ], [ -77.037511, 38.939251 ], [ -77.037687, 38.939416 ], [ -77.037782, 38.9394 ], [ -77.03779, 38.939429 ], [ -77.03801, 38.93945 ], [ -77.038059, 38.939656 ], [ -77.038279, 38.939623 ], [ -77.038281, 38.939586 ], [ -77.038413, 38.939588 ], [ -77.038414, 38.939494 ], [ -77.038507, 38.939497 ], [ -77.038536, 38.939573 ], [ -77.038812, 38.939564 ], [ -77.039105, 38.939597 ], [ -77.03917, 38.939537 ], [ -77.039199, 38.939445 ], [ -77.039252, 38.938855 ], [ -77.039304, 38.938722 ], [ -77.039398, 38.938608 ], [ -77.039659, 38.938457 ], [ -77.039792, 38.938426 ], [ -77.040153, 38.938422 ], [ -77.040507, 38.938623 ], [ -77.040801, 38.938958 ], [ -77.040964, 38.939062 ], [ -77.041153, 38.939434 ], [ -77.04131, 38.939486 ], [ -77.041401, 38.939449 ], [ -77.041451, 38.939459 ], [ -77.041487, 38.939486 ], [ -77.041486, 38.939565 ], [ -77.041541, 38.939671 ], [ -77.041598, 38.93964 ], [ -77.041652, 38.939684 ], [ -77.041757, 38.939637 ], [ -77.04171, 38.939721 ], [ -77.041731, 38.939762 ], [ -77.041412, 38.939762 ], [ -77.041377, 38.939809 ], [ -77.041432, 38.939877 ], [ -77.041221, 38.93984 ], [ -77.041108, 38.939906 ], [ -77.041075, 38.94057 ], [ -77.041019, 38.940571 ], [ -77.041019, 38.940681 ], [ -77.041074, 38.94068 ], [ -77.041288, 38.940825 ], [ -77.041287, 38.940935 ], [ -77.041223, 38.940908 ], [ -77.041124, 38.940943 ], [ -77.041113, 38.941779 ], [ -77.041277, 38.941886 ], [ -77.04128, 38.941985 ], [ -77.041224, 38.941965 ], [ -77.041081, 38.942009 ], [ -77.040966, 38.942095 ], [ -77.040872, 38.942285 ], [ -77.040887, 38.942612 ], [ -77.040932, 38.942836 ], [ -77.041142, 38.942838 ], [ -77.041274, 38.942945 ], [ -77.041276, 38.943442 ], [ -77.041196, 38.943442 ], [ -77.041115, 38.943402 ], [ -77.041085, 38.943436 ], [ -77.041026, 38.943435 ], [ -77.040988, 38.943389 ], [ -77.040673, 38.943312 ], [ -77.04065, 38.943648 ], [ -77.040453, 38.943687 ], [ -77.040349, 38.943745 ], [ -77.040311, 38.94397 ], [ -77.04013, 38.944178 ], [ -77.039369, 38.944181 ], [ -77.039368, 38.944284 ], [ -77.039196, 38.94471 ], [ -77.03904, 38.944823 ], [ -77.039029, 38.944946 ], [ -77.038816, 38.945076 ], [ -77.038817, 38.944015 ], [ -77.038697, 38.943876 ], [ -77.038717, 38.943362 ] ] ], [ [ [ -77.039781, 38.924291 ], [ -77.039778, 38.924201 ], [ -77.039894, 38.924199 ], [ -77.039896, 38.924289 ], [ -77.039781, 38.924291 ] ] ], [ [ [ -77.040011, 38.924287 ], [ -77.040014, 38.924377 ], [ -77.039899, 38.924379 ], [ -77.039896, 38.924289 ], [ -77.040011, 38.924287 ] ] ] ] } }
]
}
