{
"type": "FeatureCollection",
"name": "watershed_boundary",
"crs": { "type": "name", "properties": { "name": "urn:ogc:def:crs:OGC:1.3:CRS84" } },
"xy_coordinate_resolution": 1e-06,
"features": [
{ "type": "Feature", "properties": { }, "geometry": { "type": "MultiPolygon", "coordinates": [ [ [ [ -77.039781, 38.924291 ], [ -77.039894, 38.924199 ], [ -77.039896, 38.924289 ], [ -77.039781, 38.924291 ] ] ], [ [ [ -77.039896, 38.924289 ], [ -77.040014, 38.924377 ], [ -77.039899, 38.924379 ], [ -77.039896, 38.924289 ] ] ], [ [ [ -77.109431, 38.989818 ], [ -77.109549, 38.989906 ], [ -77.109434, 38.989908 ], [ -77.109431, 38.989818 ] ] ], [ [ [ -77.109319, 38.98991 ], [ -77.109437, 38.989998 ], [ -77.109321, 38.99 ], [ -77.109319, 38.98991 ] ] ], [ [ [ -77.094419, 38.985764 ], [ -77.094663, 38.98621 ], [ -77.095127, 38.986292 ], [ -77.094907, 38.986656 ], [ -77.095046, 38.987465 ], [ -77.095508, 38.987456 ], [ -77.096106, 38.988166 ], [ -77.096326, 38.987802 ], [ -77.097252, 38.987875 ], [ -77.098169, 38.987679 ], [ -77.098271, 38.987226 ], [ -77.098508, 38.987402 ], [ -77.098964, 38.987214 ], [ -77.099195, 38.98721 ], [ -77.099315, 38.987388 ], [ -77.101274, 38.987262 ], [ -77.101497, 38.986988 ], [ -77.101961, 38.98707 ], [ -77.102305, 38.986974 ], [ -77.102299, 38.986793 ], [ -77.102986, 38.986601 ], [ -77.103091, 38.986239 ], [ -77.103555, 38.98632 ], [ -77.103665, 38.986138 ], [ -77.104242, 38.986128 ], [ -77.104484, 38.986484 ], [ -77.104948, 38.986565 ], [ -77.104961, 38.987016 ], [ -77.105192, 38.987012 ], [ -77.105315, 38.98728 ], [ -77.105664, 38.987363 ], [ -77.105672, 38.987634 ], [ -77.106024, 38.987807 ], [ -77.106037, 38.988258 ], [ -77.10627, 38.988344 ], [ -77.106399, 38.988792 ], [ -77.106405, 38.988972 ], [ -77.106174, 38.988976 ], [ -77.106064, 38.989158 ], [ -77.106536, 38.98951 ], [ -77.106767, 38.989506 ], [ -77.106772, 38.989686 ], [ -77.107352, 38.989766 ], [ -77.107475, 38.990034 ], [ -77.108629, 38.990013 ], [ -77.10875, 38.990191 ], [ -77.109096, 38.990185 ], [ -77.109321, 38.99 ], [ -77.109332, 38.990361 ], [ -77.108989, 38.990457 ], [ -77.109128, 38.991265 ], [ -77.108326, 38.99146 ], [ -77.108218, 38.991732 ], [ -77.108342, 38.992 ], [ -77.108688, 38.991994 ], [ -77.108924, 38.99217 ], [ -77.109176, 38.992886 ], [ -77.109525, 38.99297 ], [ -77.109318, 38.993785 ], [ -77.109087, 38.993789 ], [ -77.109095, 38.994059 ], [ -77.108867, 38.994153 ], [ -77.108886, 38.994784 ], [ -77.109012, 38.995142 ], [ -77.109243, 38.995138 ], [ -77.109136, 38.99541 ], [ -77.109603, 38.995582 ], [ -77.109624, 38.996302 ], [ -77.109865, 38.996658 ], [ -77.109758, 38.99693 ], [ -77.110233, 38.997372 ], [ -77.110931, 38.99754 ], [ -77.110939, 38.99781 ], [ -77.110593, 38.997816 ], [ -77.110485, 38.998088 ], [ -77.110142, 38.998185 ], [ -77.109329, 38.998019 ], [ -77.109232, 38.998652 ], [ -77.10866, 38.998842 ], [ -77.108553, 38.999114 ], [ -77.108207, 38.999121 ], [ -77.108212, 38.999301 ], [ -77.107638, 38.999401 ], [ -77.107766, 38.999849 ], [ -77.108, 38.999935 ], [ -77.108005, 39.000115 ], [ -77.108354, 39.000199 ], [ -77.108265, 39.001102 ], [ -77.108622, 39.001456 ], [ -77.108853, 39.001452 ], [ -77.109677, 39.001977 ], [ -77.109924, 39.002513 ], [ -77.109825, 39.003056 ], [ -77.110182, 39.00341 ], [ -77.110576, 39.005025 ], [ -77.110928, 39.005198 ], [ -77.110936, 39.005469 ], [ -77.111282, 39.005462 ], [ -77.111523, 39.005818 ], [ -77.11199, 39.00599 ], [ -77.112798, 39.005975 ], [ -77.112932, 39.006604 ], [ -77.113397, 39.006685 ], [ -77.113408, 39.007046 ], [ -77.113638, 39.007041 ], [ -77.113759, 39.007219 ], [ -77.114336, 39.007209 ], [ -77.114575, 39.007475 ], [ -77.114924, 39.007559 ], [ -77.115061, 39.008277 ], [ -77.114607, 39.008556 ], [ -77.114742, 39.009184 ], [ -77.114975, 39.00927 ], [ -77.11498, 39.00945 ], [ -77.115329, 39.009534 ], [ -77.115807, 39.010065 ], [ -77.116964, 39.010135 ], [ -77.117536, 39.009944 ], [ -77.118, 39.010026 ], [ -77.118124, 39.010294 ], [ -77.118585, 39.010285 ], [ -77.118591, 39.010465 ], [ -77.118137, 39.010744 ], [ -77.118038, 39.011286 ], [ -77.117353, 39.011569 ], [ -77.117364, 39.011929 ], [ -77.117603, 39.012195 ], [ -77.117399, 39.0131 ], [ -77.117866, 39.013272 ], [ -77.117992, 39.01363 ], [ -77.117761, 39.013634 ], [ -77.117654, 39.013906 ], [ -77.117305, 39.013822 ], [ -77.117101, 39.014727 ], [ -77.117917, 39.014983 ], [ -77.118046, 39.015431 ], [ -77.118277, 39.015427 ], [ -77.1184, 39.015695 ], [ -77.118752, 39.015869 ], [ -77.118897, 39.016857 ], [ -77.119249, 39.017031 ], [ -77.119383, 39.017659 ], [ -77.119732, 39.017743 ], [ -77.120215, 39.018455 ], [ -77.121026, 39.01853 ], [ -77.121136, 39.018348 ], [ -77.121829, 39.018335 ], [ -77.122556, 39.019493 ], [ -77.122903, 39.019487 ], [ -77.122908, 39.019667 ], [ -77.123499, 39.020107 ], [ -77.12352, 39.020827 ], [ -77.123751, 39.020823 ], [ -77.124116, 39.021447 ], [ -77.125169, 39.021879 ], [ -77.125188, 39.022509 ], [ -77.126221, 39.02231 ], [ -77.126232, 39.02267 ], [ -77.126812, 39.02275 ], [ -77.12671, 39.023202 ], [ -77.126943, 39.023288 ], [ -77.126952, 39.023558 ], [ -77.126492, 39.023656 ], [ -77.126503, 39.024017 ], [ -77.126852, 39.0241 ], [ -77.126979, 39.024458 ], [ -77.127328, 39.024542 ], [ -77.127242, 39.025535 ], [ -77.127475, 39.025621 ], [ -77.127255, 39.025985 ], [ -77.127486, 39.025981 ], [ -77.127615, 39.026429 ], [ -77.126708, 39.026986 ], [ -77.127062, 39.02725 ], [ -77.126952, 39.027432 ], [ -77.127419, 39.027604 ], [ -77.127433, 39.028054 ], [ -77.126858, 39.028155 ], [ -77.126877, 39.028785 ], [ -77.126652, 39.028969 ], [ -77.126915, 39.030046 ], [ -77.126456, 39.030144 ], [ -77.126335, 39.029966 ], [ -77.125296, 39.029985 ], [ -77.125213, 39.031068 ], [ -77.124985, 39.031162 ], [ -77.124993, 39.031432 ], [ -77.125347, 39.031696 ], [ -77.125353, 39.031876 ], [ -77.126164, 39.031952 ], [ -77.12597, 39.033217 ], [ -77.126091, 39.033395 ], [ -77.126438, 39.033388 ], [ -77.126567, 39.033836 ], [ -77.126336, 39.033841 ], [ -77.126228, 39.034113 ], [ -77.125882, 39.034119 ], [ -77.125775, 39.034391 ], [ -77.125082, 39.034404 ], [ -77.125087, 39.034584 ], [ -77.124859, 39.034678 ], [ -77.12487, 39.035039 ], [ -77.124639, 39.035043 ], [ -77.124644, 39.035223 ], [ -77.124416, 39.035317 ], [ -77.124182, 39.035231 ], [ -77.124177, 39.035051 ], [ -77.123361, 39.034796 ], [ -77.123157, 39.035701 ], [ -77.122816, 39.035887 ], [ -77.122945, 39.036335 ], [ -77.123296, 39.036509 ], [ -77.123192, 39.036871 ], [ -77.122386, 39.036976 ], [ -77.122521, 39.037604 ], [ -77.122064, 39.037793 ], [ -77.122107, 39.039234 ], [ -77.121882, 39.039418 ], [ -77.121535, 39.039424 ], [ -77.121428, 39.039696 ], [ -77.120971, 39.039885 ], [ -77.120988, 39.040425 ], [ -77.120759, 39.040519 ], [ -77.120767, 39.04079 ], [ -77.121001, 39.040875 ], [ -77.121165, 39.042494 ], [ -77.120711, 39.042773 ], [ -77.120717, 39.042953 ], [ -77.120373, 39.043049 ], [ -77.120265, 39.043322 ], [ -77.119352, 39.043699 ], [ -77.11936, 39.043969 ], [ -77.119704, 39.043872 ], [ -77.119951, 39.044408 ], [ -77.118802, 39.04461 ], [ -77.118829, 39.04551 ], [ -77.118144, 39.045793 ], [ -77.118157, 39.046243 ], [ -77.116315, 39.046457 ], [ -77.11621, 39.046819 ], [ -77.115402, 39.046834 ], [ -77.115295, 39.047106 ], [ -77.115064, 39.04711 ], [ -77.114819, 39.046664 ], [ -77.11447, 39.04658 ], [ -77.114451, 39.04595 ], [ -77.11422, 39.045954 ], [ -77.113981, 39.045688 ], [ -77.113635, 39.045694 ], [ -77.113181, 39.045973 ], [ -77.113082, 39.046515 ], [ -77.112383, 39.046348 ], [ -77.112378, 39.046168 ], [ -77.111567, 39.046092 ], [ -77.11158, 39.046543 ], [ -77.111814, 39.046628 ], [ -77.111946, 39.047167 ], [ -77.112177, 39.047162 ], [ -77.112534, 39.047516 ], [ -77.112996, 39.047508 ], [ -77.113245, 39.048134 ], [ -77.113597, 39.048308 ], [ -77.113745, 39.049387 ], [ -77.113291, 39.049665 ], [ -77.113299, 39.049935 ], [ -77.112843, 39.050124 ], [ -77.112625, 39.050578 ], [ -77.113546, 39.050471 ], [ -77.113552, 39.050651 ], [ -77.113783, 39.050647 ], [ -77.113791, 39.050917 ], [ -77.11356, 39.050922 ], [ -77.113452, 39.051194 ], [ -77.114148, 39.051271 ], [ -77.114271, 39.051539 ], [ -77.114618, 39.051533 ], [ -77.114626, 39.051803 ], [ -77.114978, 39.051977 ], [ -77.114997, 39.052607 ], [ -77.114535, 39.052616 ], [ -77.11454, 39.052796 ], [ -77.114312, 39.05289 ], [ -77.114441, 39.053338 ], [ -77.114677, 39.053514 ], [ -77.115714, 39.053405 ], [ -77.116066, 39.053579 ], [ -77.116643, 39.053569 ], [ -77.116772, 39.054017 ], [ -77.117124, 39.054191 ], [ -77.117247, 39.054459 ], [ -77.117024, 39.054733 ], [ -77.117261, 39.054909 ], [ -77.117838, 39.054898 ], [ -77.118429, 39.055338 ], [ -77.118776, 39.055332 ], [ -77.119039, 39.056408 ], [ -77.118932, 39.056681 ], [ -77.118585, 39.056687 ], [ -77.118593, 39.056957 ], [ -77.118362, 39.056961 ], [ -77.118494, 39.057499 ], [ -77.119431, 39.057933 ], [ -77.119893, 39.057925 ], [ -77.120014, 39.058103 ], [ -77.120479, 39.058184 ], [ -77.12107, 39.058624 ], [ -77.121301, 39.05862 ], [ -77.122026, 39.059688 ], [ -77.122378, 39.059862 ], [ -77.122625, 39.060398 ], [ -77.123087, 39.060389 ], [ -77.124038, 39.061273 ], [ -77.124057, 39.061903 ], [ -77.124291, 39.061989 ], [ -77.123955, 39.062356 ], [ -77.124197, 39.062712 ], [ -77.12409, 39.062984 ], [ -77.124326, 39.06316 ], [ -77.124788, 39.063151 ], [ -77.124573, 39.063696 ], [ -77.125041, 39.063867 ], [ -77.125052, 39.064228 ], [ -77.12564, 39.064577 ], [ -77.125543, 39.06521 ], [ -77.125901, 39.065564 ], [ -77.125557, 39.06566 ], [ -77.125455, 39.066112 ], [ -77.125578, 39.06638 ], [ -77.125809, 39.066376 ], [ -77.125815, 39.066556 ], [ -77.126049, 39.066642 ], [ -77.126065, 39.067183 ], [ -77.125834, 39.067187 ], [ -77.125839, 39.067367 ], [ -77.126774, 39.06771 ], [ -77.127365, 39.06815 ], [ -77.127731, 39.068774 ], [ -77.128432, 39.069031 ], [ -77.128913, 39.069653 ], [ -77.12984, 39.069726 ], [ -77.129875, 39.070897 ], [ -77.13034, 39.070979 ], [ -77.130463, 39.071247 ], [ -77.131283, 39.071592 ], [ -77.131525, 39.071948 ], [ -77.131756, 39.071944 ], [ -77.13235, 39.072474 ], [ -77.132696, 39.072467 ], [ -77.132691, 39.072287 ], [ -77.132922, 39.072283 ], [ -77.133045, 39.072551 ], [ -77.133277, 39.072547 ], [ -77.133285, 39.072817 ], [ -77.133634, 39.072901 ], [ -77.133639, 39.073081 ], [ -77.133991, 39.073255 ], [ -77.133997, 39.073435 ], [ -77.134698, 39.073692 ], [ -77.135069, 39.074496 ], [ -77.135776, 39.074934 ], [ -77.135781, 39.075114 ], [ -77.136012, 39.07511 ], [ -77.136606, 39.075639 ], [ -77.137074, 39.075811 ], [ -77.136975, 39.076353 ], [ -77.13547, 39.076291 ], [ -77.135019, 39.076659 ], [ -77.135145, 39.077018 ], [ -77.135379, 39.077103 ], [ -77.135156, 39.077378 ], [ -77.135409, 39.078094 ], [ -77.135301, 39.078366 ], [ -77.134624, 39.078919 ], [ -77.134649, 39.07973 ], [ -77.13535, 39.079987 ], [ -77.135579, 39.079893 ], [ -77.136877, 39.08077 ], [ -77.138263, 39.080745 ], [ -77.138269, 39.080925 ], [ -77.1385, 39.08092 ], [ -77.138505, 39.081101 ], [ -77.138736, 39.081096 ], [ -77.139091, 39.08136 ], [ -77.139462, 39.082164 ], [ -77.140736, 39.082231 ], [ -77.140843, 39.081959 ], [ -77.141539, 39.082036 ], [ -77.141993, 39.081757 ], [ -77.142455, 39.081749 ], [ -77.142923, 39.08192 ], [ -77.142928, 39.0821 ], [ -77.143401, 39.082452 ], [ -77.1441, 39.08262 ], [ -77.144664, 39.082159 ], [ -77.144537, 39.081801 ], [ -77.144881, 39.081704 ], [ -77.145464, 39.081874 ], [ -77.145481, 39.082414 ], [ -77.145712, 39.08241 ], [ -77.146185, 39.082761 ], [ -77.146322, 39.08348 ], [ -77.146784, 39.083471 ], [ -77.147005, 39.083107 ], [ -77.147695, 39.083004 ], [ -77.147934, 39.08327 ], [ -77.148163, 39.083175 ], [ -77.148399, 39.083351 ], [ -77.148746, 39.083345 ], [ -77.149109, 39.083879 ], [ -77.149802, 39.083866 ], [ -77.149808, 39.084046 ], [ -77.150157, 39.08413 ], [ -77.151194, 39.084021 ], [ -77.151417, 39.083746 ], [ -77.152116, 39.083913 ], [ -77.152237, 39.084091 ], [ -77.153048, 39.084166 ], [ -77.153285, 39.084342 ], [ -77.154316, 39.084053 ], [ -77.154798, 39.084675 ], [ -77.155609, 39.08475 ], [ -77.155733, 39.085018 ], [ -77.156319, 39.085277 ], [ -77.157356, 39.085168 ], [ -77.157595, 39.085434 ], [ -77.157945, 39.085517 ], [ -77.158429, 39.086229 ], [ -77.158776, 39.086223 ], [ -77.158454, 39.08704 ], [ -77.157417, 39.087149 ], [ -77.157199, 39.087604 ], [ -77.15685, 39.08752 ], [ -77.156624, 39.087704 ], [ -77.156415, 39.088429 ], [ -77.156536, 39.088607 ], [ -77.156426, 39.088789 ], [ -77.155964, 39.088798 ], [ -77.155856, 39.08907 ], [ -77.155892, 39.090241 ], [ -77.157078, 39.09121 ], [ -77.157086, 39.09148 ], [ -77.156858, 39.091574 ], [ -77.156863, 39.091754 ], [ -77.156517, 39.091761 ], [ -77.156522, 39.091941 ], [ -77.155732, 39.092586 ], [ -77.155388, 39.092683 ], [ -77.155171, 39.093137 ], [ -77.154013, 39.093068 ], [ -77.153905, 39.093341 ], [ -77.152863, 39.09327 ], [ -77.152766, 39.093902 ], [ -77.153014, 39.094438 ], [ -77.152554, 39.094537 ], [ -77.15256, 39.094717 ], [ -77.152824, 39.095793 ], [ -77.153058, 39.095879 ], [ -77.153333, 39.097316 ], [ -77.15369, 39.097669 ], [ -77.153836, 39.098658 ], [ -77.153957, 39.098836 ], [ -77.154188, 39.098832 ], [ -77.154312, 39.0991 ], [ -77.154543, 39.099095 ], [ -77.154914, 39.099899 ], [ -77.155955, 39.09988 ], [ -77.155935, 39.09925 ], [ -77.156285, 39.099333 ], [ -77.156532, 39.099869 ], [ -77.156436, 39.100502 ], [ -77.156557, 39.10068 ], [ -77.156788, 39.100676 ], [ -77.156582, 39.10149 ], [ -77.157286, 39.101838 ], [ -77.157537, 39.102464 ], [ -77.157886, 39.102547 ], [ -77.158018, 39.103085 ], [ -77.158494, 39.103527 ], [ -77.158502, 39.103797 ], [ -77.158736, 39.103883 ], [ -77.157842, 39.104891 ], [ -77.157856, 39.105341 ], [ -77.158219, 39.105875 ], [ -77.158109, 39.106057 ], [ -77.15834, 39.106053 ], [ -77.158813, 39.106404 ], [ -77.159058, 39.10685 ], [ -77.159405, 39.106844 ], [ -77.159537, 39.107382 ], [ -77.159884, 39.107376 ], [ -77.160709, 39.107901 ], [ -77.161056, 39.107894 ], [ -77.161303, 39.10843 ], [ -77.161535, 39.108426 ], [ -77.161557, 39.109147 ], [ -77.161213, 39.109243 ], [ -77.161114, 39.109785 ], [ -77.160882, 39.10979 ], [ -77.160888, 39.10997 ], [ -77.160431, 39.110159 ], [ -77.160665, 39.110244 ], [ -77.160456, 39.110969 ], [ -77.160924, 39.11114 ], [ -77.161048, 39.111408 ], [ -77.161056, 39.111679 ], [ -77.160709, 39.111685 ], [ -77.160607, 39.112137 ], [ -77.160838, 39.112133 ], [ -77.160962, 39.112401 ], [ -77.161312, 39.112485 ], [ -77.161103, 39.113209 ], [ -77.161356, 39.113926 ], [ -77.161587, 39.113921 ], [ -77.161592, 39.114101 ], [ -77.16206, 39.114273 ], [ -77.162184, 39.114541 ], [ -77.163568, 39.114425 ], [ -77.164163, 39.114955 ], [ -77.164746, 39.115124 ], [ -77.165101, 39.115388 ], [ -77.164991, 39.11557 ], [ -77.165467, 39.116012 ], [ -77.165126, 39.116198 ], [ -77.165135, 39.116468 ], [ -77.165605, 39.11673 ], [ -77.165707, 39.116277 ], [ -77.166054, 39.116271 ], [ -77.166164, 39.116089 ], [ -77.167089, 39.116071 ], [ -77.167559, 39.116333 ], [ -77.168137, 39.116322 ], [ -77.168476, 39.116046 ], [ -77.169054, 39.116035 ], [ -77.169645, 39.116474 ], [ -77.17011, 39.116556 ], [ -77.170116, 39.116736 ], [ -77.170589, 39.117088 ], [ -77.170612, 39.117808 ], [ -77.170843, 39.117804 ], [ -77.171066, 39.117529 ], [ -77.171412, 39.117523 ], [ -77.172238, 39.118048 ], [ -77.172932, 39.118035 ], [ -77.173262, 39.117488 ], [ -77.173834, 39.117297 ], [ -77.174206, 39.118101 ], [ -77.174556, 39.118185 ], [ -77.174666, 39.118003 ], [ -77.175472, 39.117897 ], [ -77.175466, 39.117717 ], [ -77.175923, 39.117529 ], [ -77.176386, 39.11752 ], [ -77.176622, 39.117696 ], [ -77.1772, 39.117685 ], [ -77.177321, 39.117863 ], [ -77.178018, 39.11794 ], [ -77.17826, 39.118296 ], [ -77.178491, 39.118292 ], [ -77.178612, 39.118469 ], [ -77.179188, 39.118369 ], [ -77.179179, 39.118098 ], [ -77.17941, 39.118094 ], [ -77.179518, 39.117822 ], [ -77.180211, 39.117809 ], [ -77.180685, 39.11816 ], [ -77.180707, 39.118881 ], [ -77.180245, 39.118889 ], [ -77.17946, 39.119715 ], [ -77.17866, 39.12 ], [ -77.178783, 39.120268 ], [ -77.179251, 39.12044 ], [ -77.179499, 39.120976 ], [ -77.179849, 39.121059 ], [ -77.179863, 39.121509 ], [ -77.179519, 39.121606 ], [ -77.179527, 39.121876 ], [ -77.179183, 39.121973 ], [ -77.178743, 39.122702 ], [ -77.178168, 39.122802 ], [ -77.177513, 39.124076 ], [ -77.176497, 39.124906 ], [ -77.176283, 39.125451 ], [ -77.17571, 39.125641 ], [ -77.175721, 39.126002 ], [ -77.175377, 39.126098 ], [ -77.175042, 39.126465 ], [ -77.175281, 39.126731 ], [ -77.175744, 39.126722 ], [ -77.176085, 39.126535 ], [ -77.177125, 39.126516 ], [ -77.177483, 39.12687 ], [ -77.17726, 39.127144 ], [ -77.177029, 39.127148 ], [ -77.177051, 39.127869 ], [ -77.177282, 39.127865 ], [ -77.177525, 39.12822 ], [ -77.177178, 39.128227 ], [ -77.177068, 39.128409 ], [ -77.176721, 39.128416 ], [ -77.176383, 39.128692 ], [ -77.176151, 39.128697 ], [ -77.176281, 39.129145 ], [ -77.176515, 39.12923 ], [ -77.176421, 39.129953 ], [ -77.175152, 39.130067 ], [ -77.175059, 39.130789 ], [ -77.174828, 39.130794 ], [ -77.174836, 39.131064 ], [ -77.17507, 39.131149 ], [ -77.175216, 39.132138 ], [ -77.175687, 39.132399 ], [ -77.175811, 39.132667 ], [ -77.176386, 39.132566 ], [ -77.176631, 39.133012 ], [ -77.177097, 39.133094 ], [ -77.177105, 39.133364 ], [ -77.177336, 39.13336 ], [ -77.177344, 39.13363 ], [ -77.177702, 39.133983 ], [ -77.177009, 39.133996 ], [ -77.176786, 39.134271 ], [ -77.176554, 39.134275 ], [ -77.17656, 39.134455 ], [ -77.175751, 39.13447 ], [ -77.175547, 39.135375 ], [ -77.174862, 39.135658 ], [ -77.174881, 39.136289 ], [ -77.175112, 39.136284 ], [ -77.175126, 39.136734 ], [ -77.175707, 39.136814 ], [ -77.175831, 39.137082 ], [ -77.176178, 39.137075 ], [ -77.176299, 39.137253 ], [ -77.17653, 39.137249 ], [ -77.17664, 39.137067 ], [ -77.177351, 39.137594 ], [ -77.177478, 39.137952 ], [ -77.176451, 39.138422 ], [ -77.176479, 39.139322 ], [ -77.175793, 39.139605 ], [ -77.175587, 39.14042 ], [ -77.175127, 39.140519 ], [ -77.17502, 39.140791 ], [ -77.174673, 39.140797 ], [ -77.174689, 39.141338 ], [ -77.174472, 39.141792 ], [ -77.174241, 39.141796 ], [ -77.173679, 39.142348 ], [ -77.173335, 39.142444 ], [ -77.173341, 39.142624 ], [ -77.172889, 39.142993 ], [ -77.172658, 39.142997 ], [ -77.172664, 39.143177 ], [ -77.172319, 39.143274 ], [ -77.172339, 39.143904 ], [ -77.17211, 39.143999 ], [ -77.172116, 39.144179 ], [ -77.171772, 39.144275 ], [ -77.171898, 39.144633 ], [ -77.171678, 39.144998 ], [ -77.171926, 39.145534 ], [ -77.171819, 39.145806 ], [ -77.171362, 39.145995 ], [ -77.171263, 39.146537 ], [ -77.170916, 39.146544 ], [ -77.170808, 39.146816 ], [ -77.170464, 39.146912 ], [ -77.170357, 39.147185 ], [ -77.170126, 39.147189 ], [ -77.170131, 39.147369 ], [ -77.169781, 39.147285 ], [ -77.169556, 39.14747 ], [ -77.169564, 39.14774 ], [ -77.169335, 39.147834 ], [ -77.169457, 39.148012 ], [ -77.169, 39.148201 ], [ -77.169008, 39.148471 ], [ -77.168667, 39.148658 ], [ -77.168672, 39.148838 ], [ -77.168212, 39.148936 ], [ -77.168218, 39.149117 ], [ -77.167871, 39.149123 ], [ -77.167761, 39.149305 ], [ -77.167295, 39.149224 ], [ -77.166425, 39.151042 ], [ -77.165847, 39.151053 ], [ -77.165511, 39.151419 ], [ -77.16528, 39.151424 ], [ -77.165175, 39.151786 ], [ -77.164947, 39.15188 ], [ -77.164961, 39.152331 ], [ -77.165197, 39.152506 ], [ -77.165222, 39.153317 ], [ -77.164873, 39.153233 ], [ -77.164193, 39.153696 ], [ -77.163986, 39.154511 ], [ -77.16365, 39.154878 ], [ -77.163892, 39.155234 ], [ -77.163086, 39.155339 ], [ -77.162518, 39.15571 ], [ -77.162411, 39.155982 ], [ -77.161607, 39.156177 ], [ -77.160913, 39.15619 ], [ -77.160092, 39.155845 ], [ -77.159522, 39.156126 ], [ -77.159531, 39.156396 ], [ -77.159181, 39.156312 ], [ -77.159057, 39.156044 ], [ -77.158713, 39.156141 ], [ -77.158864, 39.157309 ], [ -77.15841, 39.157588 ], [ -77.158418, 39.157858 ], [ -77.158074, 39.157954 ], [ -77.158079, 39.158134 ], [ -77.158426, 39.158128 ], [ -77.158437, 39.158488 ], [ -77.158669, 39.158484 ], [ -77.158674, 39.158664 ], [ -77.159142, 39.158836 ], [ -77.1595, 39.159189 ], [ -77.159401, 39.159732 ], [ -77.159635, 39.159817 ], [ -77.159655, 39.160448 ], [ -77.160004, 39.160531 ], [ -77.159916, 39.161434 ], [ -77.160387, 39.161696 ], [ -77.160519, 39.162234 ], [ -77.160877, 39.162587 ], [ -77.16031, 39.162958 ], [ -77.160208, 39.163411 ], [ -77.15801, 39.163451 ], [ -77.157685, 39.164178 ], [ -77.157809, 39.164446 ], [ -77.157118, 39.164549 ], [ -77.156788, 39.165096 ], [ -77.155752, 39.165295 ], [ -77.155165, 39.165036 ], [ -77.154937, 39.16513 ], [ -77.155298, 39.165574 ], [ -77.155083, 39.166119 ], [ -77.155672, 39.166468 ], [ -77.155578, 39.167191 ], [ -77.156041, 39.167182 ], [ -77.156278, 39.167358 ], [ -77.156179, 39.1679 ], [ -77.156647, 39.168072 ], [ -77.156661, 39.168522 ], [ -77.156319, 39.168708 ], [ -77.156212, 39.168981 ], [ -77.156584, 39.169785 ], [ -77.156242, 39.169971 ], [ -77.156253, 39.170331 ], [ -77.155801, 39.1707 ], [ -77.155587, 39.171245 ], [ -77.154895, 39.171348 ], [ -77.15479, 39.17171 ], [ -77.154336, 39.171989 ], [ -77.154341, 39.172169 ], [ -77.153994, 39.172175 ], [ -77.153774, 39.17254 ], [ -77.153207, 39.172911 ], [ -77.153212, 39.173091 ], [ -77.152981, 39.173095 ], [ -77.152986, 39.173275 ], [ -77.152755, 39.173279 ], [ -77.152532, 39.173554 ], [ -77.151835, 39.173476 ], [ -77.151738, 39.174109 ], [ -77.151298, 39.174838 ], [ -77.151309, 39.175198 ], [ -77.150846, 39.175207 ], [ -77.150744, 39.175659 ], [ -77.151105, 39.176103 ], [ -77.151129, 39.176913 ], [ -77.150904, 39.177098 ], [ -77.150802, 39.17755 ], [ -77.15046, 39.177736 ], [ -77.150471, 39.178097 ], [ -77.15024, 39.178101 ], [ -77.150361, 39.178279 ], [ -77.150138, 39.178553 ], [ -77.150146, 39.178823 ], [ -77.150383, 39.178999 ], [ -77.150537, 39.180258 ], [ -77.150663, 39.1844 ], [ -77.151247, 39.184569 ], [ -77.151258, 39.18493 ], [ -77.151492, 39.185015 ], [ -77.151299, 39.18628 ], [ -77.151192, 39.186553 ], [ -77.150847, 39.186649 ], [ -77.151233, 39.187903 ], [ -77.150889, 39.188 ], [ -77.151026, 39.188718 ], [ -77.151263, 39.188894 ], [ -77.151285, 39.189614 ], [ -77.151054, 39.189618 ], [ -77.150376, 39.190172 ], [ -77.1505, 39.19044 ], [ -77.150963, 39.190431 ], [ -77.150971, 39.190701 ], [ -77.150864, 39.190973 ], [ -77.150293, 39.191254 ], [ -77.150458, 39.192873 ], [ -77.150227, 39.192877 ], [ -77.150119, 39.193149 ], [ -77.150133, 39.1936 ], [ -77.149805, 39.194236 ], [ -77.14972, 39.195229 ], [ -77.149499, 39.195594 ], [ -77.14962, 39.195772 ], [ -77.149279, 39.195958 ], [ -77.14919, 39.196861 ], [ -77.14873, 39.196959 ], [ -77.14862, 39.197141 ], [ -77.148273, 39.197148 ], [ -77.148163, 39.19733 ], [ -77.147815, 39.197337 ], [ -77.147482, 39.197793 ], [ -77.147011, 39.197532 ], [ -77.146779, 39.197536 ], [ -77.146785, 39.197716 ], [ -77.146091, 39.197729 ], [ -77.145506, 39.197559 ], [ -77.144118, 39.197585 ], [ -77.144007, 39.197767 ], [ -77.143776, 39.197771 ], [ -77.143787, 39.198132 ], [ -77.143556, 39.198136 ], [ -77.143338, 39.19859 ], [ -77.142657, 39.199053 ], [ -77.142566, 39.199866 ], [ -77.142335, 39.19987 ], [ -77.142345, 39.20023 ], [ -77.142114, 39.200235 ], [ -77.142122, 39.200505 ], [ -77.141893, 39.200599 ], [ -77.1418, 39.201321 ], [ -77.141458, 39.201508 ], [ -77.14135, 39.20178 ], [ -77.141003, 39.201787 ], [ -77.140764, 39.201521 ], [ -77.140659, 39.201883 ], [ -77.14089, 39.201879 ], [ -77.140898, 39.202149 ], [ -77.140438, 39.202248 ], [ -77.140444, 39.202428 ], [ -77.139981, 39.202436 ], [ -77.139994, 39.202886 ], [ -77.139647, 39.202893 ], [ -77.139424, 39.203167 ], [ -77.139074, 39.203083 ], [ -77.138713, 39.20264 ], [ -77.138134, 39.20265 ], [ -77.138129, 39.20247 ], [ -77.137426, 39.202213 ], [ -77.137421, 39.202033 ], [ -77.13671, 39.201505 ], [ -77.136247, 39.201514 ], [ -77.135652, 39.200984 ], [ -77.135647, 39.200804 ], [ -77.135181, 39.200722 ], [ -77.134826, 39.200458 ], [ -77.13482, 39.200278 ], [ -77.13447, 39.200195 ], [ -77.134465, 39.200015 ], [ -77.133991, 39.199663 ], [ -77.133969, 39.198943 ], [ -77.13293, 39.199052 ], [ -77.132691, 39.198786 ], [ -77.132341, 39.198702 ], [ -77.132005, 39.199069 ], [ -77.131902, 39.199521 ], [ -77.131214, 39.199714 ], [ -77.130858, 39.19945 ], [ -77.130729, 39.199002 ], [ -77.129913, 39.198837 ], [ -77.129902, 39.198476 ], [ -77.129663, 39.19821 ], [ -77.129316, 39.198217 ], [ -77.129192, 39.197949 ], [ -77.128726, 39.197867 ], [ -77.128718, 39.197597 ], [ -77.128137, 39.197518 ], [ -77.128005, 39.196979 ], [ -77.127539, 39.196898 ], [ -77.127181, 39.196544 ], [ -77.12601, 39.196115 ], [ -77.125087, 39.196222 ], [ -77.124732, 39.195958 ], [ -77.1245, 39.195962 ], [ -77.124702, 39.194967 ], [ -77.124925, 39.194693 ], [ -77.125157, 39.194689 ], [ -77.125148, 39.194419 ], [ -77.125374, 39.194234 ], [ -77.124545, 39.193619 ], [ -77.123961, 39.193449 ], [ -77.123835, 39.193091 ], [ -77.123601, 39.193005 ], [ -77.123237, 39.192471 ], [ -77.123348, 39.192289 ], [ -77.123116, 39.192293 ], [ -77.122995, 39.192115 ], [ -77.123103, 39.191843 ], [ -77.122739, 39.191309 ], [ -77.122723, 39.190769 ], [ -77.122491, 39.190773 ], [ -77.122246, 39.190327 ], [ -77.121775, 39.190065 ], [ -77.12177, 39.189885 ], [ -77.121539, 39.18989 ], [ -77.12153, 39.189619 ], [ -77.121299, 39.189624 ], [ -77.121178, 39.189446 ], [ -77.120833, 39.189542 ], [ -77.120594, 39.189276 ], [ -77.120362, 39.18928 ], [ -77.120252, 39.189462 ], [ -77.119555, 39.189385 ], [ -77.11955, 39.189205 ], [ -77.119318, 39.189209 ], [ -77.119076, 39.188853 ], [ -77.118495, 39.188774 ], [ -77.118374, 39.188596 ], [ -77.117798, 39.188696 ], [ -77.117792, 39.188516 ], [ -77.117445, 39.188522 ], [ -77.117655, 39.187798 ], [ -77.117421, 39.187712 ], [ -77.117407, 39.187262 ], [ -77.116931, 39.18682 ], [ -77.117041, 39.186638 ], [ -77.116347, 39.18665 ], [ -77.116334, 39.1862 ], [ -77.115279, 39.185769 ], [ -77.115483, 39.184864 ], [ -77.115712, 39.18477 ], [ -77.115677, 39.183599 ], [ -77.115445, 39.183603 ], [ -77.115225, 39.183968 ], [ -77.114183, 39.183987 ], [ -77.113586, 39.183367 ], [ -77.112542, 39.183296 ], [ -77.11184, 39.183038 ], [ -77.111495, 39.183134 ], [ -77.110906, 39.182785 ], [ -77.11044, 39.182703 ], [ -77.110257, 39.184328 ], [ -77.109216, 39.184347 ], [ -77.108759, 39.184536 ], [ -77.106558, 39.184485 ], [ -77.106453, 39.184848 ], [ -77.10599, 39.184856 ], [ -77.105879, 39.185038 ], [ -77.105188, 39.185141 ], [ -77.104507, 39.185604 ], [ -77.104265, 39.185248 ], [ -77.103799, 39.185166 ], [ -77.103444, 39.184902 ], [ -77.101822, 39.184841 ], [ -77.101816, 39.184661 ], [ -77.101109, 39.184223 ], [ -77.101103, 39.184043 ], [ -77.100751, 39.183869 ], [ -77.100387, 39.183335 ], [ -77.099346, 39.183354 ], [ -77.098873, 39.183002 ], [ -77.098525, 39.183009 ], [ -77.098517, 39.182738 ], [ -77.098862, 39.182642 ], [ -77.098967, 39.18228 ], [ -77.098951, 39.181739 ], [ -77.09859, 39.181295 ], [ -77.098577, 39.180845 ], [ -77.098921, 39.180749 ], [ -77.099258, 39.180382 ], [ -77.099605, 39.180376 ], [ -77.10006, 39.180098 ], [ -77.100148, 39.179195 ], [ -77.099912, 39.179019 ], [ -77.100135, 39.178745 ], [ -77.09954, 39.178215 ], [ -77.098607, 39.177962 ], [ -77.098012, 39.177432 ], [ -77.097878, 39.176803 ], [ -77.097399, 39.176271 ], [ -77.097493, 39.175549 ], [ -77.097138, 39.175285 ], [ -77.096791, 39.175291 ], [ -77.096436, 39.175027 ], [ -77.096431, 39.174847 ], [ -77.096199, 39.174851 ], [ -77.096194, 39.174671 ], [ -77.095729, 39.17459 ], [ -77.095597, 39.174051 ], [ -77.095242, 39.173787 ], [ -77.095457, 39.173243 ], [ -77.095102, 39.172979 ], [ -77.094871, 39.172983 ], [ -77.094865, 39.172803 ], [ -77.094287, 39.172814 ], [ -77.093816, 39.172552 ], [ -77.093587, 39.172646 ], [ -77.093103, 39.171934 ], [ -77.093321, 39.171479 ], [ -77.092624, 39.171402 ], [ -77.092154, 39.17114 ], [ -77.091575, 39.17115 ], [ -77.09147, 39.171513 ], [ -77.091128, 39.171699 ], [ -77.091139, 39.172059 ], [ -77.090792, 39.172065 ], [ -77.090203, 39.171716 ], [ -77.089046, 39.171736 ], [ -77.08882, 39.171921 ], [ -77.08698, 39.172314 ], [ -77.086385, 39.171784 ], [ -77.085807, 39.171794 ], [ -77.085912, 39.171432 ], [ -77.086372, 39.171334 ], [ -77.086361, 39.170974 ], [ -77.086125, 39.170798 ], [ -77.085996, 39.170349 ], [ -77.085764, 39.170354 ], [ -77.085754, 39.169993 ], [ -77.085049, 39.169646 ], [ -77.084799, 39.169019 ], [ -77.083763, 39.169218 ], [ -77.083981, 39.168764 ], [ -77.084212, 39.16876 ], [ -77.084207, 39.16858 ], [ -77.084439, 39.168575 ], [ -77.084549, 39.168393 ], [ -77.084299, 39.167767 ], [ -77.084517, 39.167313 ], [ -77.084864, 39.167306 ], [ -77.084966, 39.166854 ], [ -77.08403, 39.16651 ], [ -77.084127, 39.165878 ], [ -77.083877, 39.165252 ], [ -77.084208, 39.164705 ], [ -77.084082, 39.164347 ], [ -77.08373, 39.164173 ], [ -77.083722, 39.163903 ], [ -77.083375, 39.163909 ], [ -77.08337, 39.163729 ], [ -77.08302, 39.163645 ], [ -77.08266, 39.163201 ], [ -77.082431, 39.163295 ], [ -77.082192, 39.163029 ], [ -77.081729, 39.163038 ], [ -77.0816, 39.16259 ], [ -77.081242, 39.162236 ], [ -77.080088, 39.162346 ], [ -77.079612, 39.161904 ], [ -77.079034, 39.161915 ], [ -77.078797, 39.161739 ], [ -77.078571, 39.161923 ], [ -77.07849, 39.163096 ], [ -77.076526, 39.163221 ], [ -77.076531, 39.163401 ], [ -77.076184, 39.163407 ], [ -77.07619, 39.163587 ], [ -77.075157, 39.163876 ], [ -77.074899, 39.162979 ], [ -77.07513, 39.162975 ], [ -77.075238, 39.162703 ], [ -77.076034, 39.162238 ], [ -77.076024, 39.161878 ], [ -77.075671, 39.161704 ], [ -77.075666, 39.161524 ], [ -77.075203, 39.161532 ], [ -77.075072, 39.160994 ], [ -77.074725, 39.161 ], [ -77.074488, 39.160824 ], [ -77.074028, 39.160923 ], [ -77.073905, 39.160655 ], [ -77.073552, 39.160481 ], [ -77.072869, 39.160853 ], [ -77.072864, 39.160673 ], [ -77.072632, 39.160677 ], [ -77.072393, 39.160411 ], [ -77.072046, 39.160417 ], [ -77.071922, 39.160149 ], [ -77.072135, 39.159515 ], [ -77.071893, 39.159159 ], [ -77.07188, 39.158708 ], [ -77.07153, 39.158624 ], [ -77.071402, 39.158176 ], [ -77.070823, 39.158187 ], [ -77.070587, 39.158011 ], [ -77.070358, 39.158105 ], [ -77.069656, 39.157847 ], [ -77.069645, 39.157487 ], [ -77.070103, 39.157298 ], [ -77.070095, 39.157028 ], [ -77.069393, 39.15677 ], [ -77.06938, 39.15632 ], [ -77.069033, 39.156326 ], [ -77.068796, 39.15615 ], [ -77.06822, 39.156251 ], [ -77.068213, 39.15598 ], [ -77.067981, 39.155985 ], [ -77.067958, 39.155174 ], [ -77.068068, 39.154992 ], [ -77.068299, 39.154988 ], [ -77.068407, 39.154716 ], [ -77.068281, 39.154357 ], [ -77.068047, 39.154272 ], [ -77.068036, 39.153911 ], [ -77.068262, 39.153727 ], [ -77.067786, 39.153285 ], [ -77.067203, 39.153115 ], [ -77.067187, 39.152575 ], [ -77.067534, 39.152569 ], [ -77.067529, 39.152389 ], [ -77.06776, 39.152385 ], [ -77.067852, 39.151572 ], [ -77.068188, 39.151206 ], [ -77.068181, 39.150935 ], [ -77.067949, 39.15094 ], [ -77.067826, 39.150671 ], [ -77.067476, 39.150588 ], [ -77.067471, 39.150407 ], [ -77.067, 39.150146 ], [ -77.067108, 39.149873 ], [ -77.066874, 39.149787 ], [ -77.066735, 39.148979 ], [ -77.065925, 39.148993 ], [ -77.065912, 39.148543 ], [ -77.066259, 39.148537 ], [ -77.06648, 39.148173 ], [ -77.066359, 39.147995 ], [ -77.067034, 39.147352 ], [ -77.066761, 39.145915 ], [ -77.066527, 39.145829 ], [ -77.0666, 39.144386 ], [ -77.066364, 39.14421 ], [ -77.066474, 39.144028 ], [ -77.066821, 39.144022 ], [ -77.066813, 39.143752 ], [ -77.067039, 39.143568 ], [ -77.067005, 39.142397 ], [ -77.067231, 39.142213 ], [ -77.067578, 39.142207 ], [ -77.06803, 39.141838 ], [ -77.068022, 39.141568 ], [ -77.068364, 39.141382 ], [ -77.068584, 39.141017 ], [ -77.06845, 39.140389 ], [ -77.067977, 39.140037 ], [ -77.067972, 39.139857 ], [ -77.068201, 39.139763 ], [ -77.067835, 39.139139 ], [ -77.067932, 39.138506 ], [ -77.067811, 39.138328 ], [ -77.06758, 39.138332 ], [ -77.06768, 39.13779 ], [ -77.067911, 39.137786 ], [ -77.068014, 39.137333 ], [ -77.068009, 39.137153 ], [ -77.067777, 39.137157 ], [ -77.067767, 39.136797 ], [ -77.068221, 39.136519 ], [ -77.067972, 39.135893 ], [ -77.068431, 39.135794 ], [ -77.069225, 39.13524 ], [ -77.069924, 39.135407 ], [ -77.069916, 39.135137 ], [ -77.069685, 39.135141 ], [ -77.069561, 39.134873 ], [ -77.069669, 39.134601 ], [ -77.0699, 39.134597 ], [ -77.069777, 39.134329 ], [ -77.070095, 39.133332 ], [ -77.06963, 39.13325 ], [ -77.069729, 39.132708 ], [ -77.069498, 39.132712 ], [ -77.069485, 39.132262 ], [ -77.069138, 39.132268 ], [ -77.069017, 39.13209 ], [ -77.068552, 39.132008 ], [ -77.068778, 39.131824 ], [ -77.068754, 39.131013 ], [ -77.068515, 39.130747 ], [ -77.068284, 39.130751 ], [ -77.068279, 39.130571 ], [ -77.06851, 39.130567 ], [ -77.068957, 39.130019 ], [ -77.069303, 39.130012 ], [ -77.069298, 39.129832 ], [ -77.069755, 39.129644 ], [ -77.069745, 39.129284 ], [ -77.070783, 39.129175 ], [ -77.071009, 39.128991 ], [ -77.071108, 39.128449 ], [ -77.071566, 39.12826 ], [ -77.071442, 39.127992 ], [ -77.071905, 39.127984 ], [ -77.072244, 39.127708 ], [ -77.072475, 39.127704 ], [ -77.07258, 39.127341 ], [ -77.072816, 39.127517 ], [ -77.073279, 39.127509 ], [ -77.073389, 39.127327 ], [ -77.073965, 39.127227 ], [ -77.073959, 39.127047 ], [ -77.074416, 39.126858 ], [ -77.07557, 39.126748 ], [ -77.075565, 39.126567 ], [ -77.076143, 39.126557 ], [ -77.076137, 39.126377 ], [ -77.076713, 39.126277 ], [ -77.076815, 39.125824 ], [ -77.077041, 39.12564 ], [ -77.077025, 39.1251 ], [ -77.076308, 39.124302 ], [ -77.0764, 39.123489 ], [ -77.075128, 39.123512 ], [ -77.074881, 39.122976 ], [ -77.074981, 39.122433 ], [ -77.074634, 39.122439 ], [ -77.074397, 39.122263 ], [ -77.074618, 39.121899 ], [ -77.074387, 39.121903 ], [ -77.074266, 39.121725 ], [ -77.074726, 39.121627 ], [ -77.074831, 39.121265 ], [ -77.075062, 39.121261 ], [ -77.075514, 39.120892 ], [ -77.076546, 39.120603 ], [ -77.076423, 39.120335 ], [ -77.076762, 39.120059 ], [ -77.077224, 39.120051 ], [ -77.077334, 39.119869 ], [ -77.077566, 39.119864 ], [ -77.077434, 39.119326 ], [ -77.078593, 39.119396 ], [ -77.078587, 39.119215 ], [ -77.079047, 39.119117 ], [ -77.079039, 39.118847 ], [ -77.079268, 39.118753 ], [ -77.078556, 39.118135 ], [ -77.077741, 39.117969 ], [ -77.077615, 39.117611 ], [ -77.076811, 39.117806 ], [ -77.076806, 39.117625 ], [ -77.075994, 39.11755 ], [ -77.07575, 39.117104 ], [ -77.075174, 39.117204 ], [ -77.07519, 39.117744 ], [ -77.074959, 39.117748 ], [ -77.074938, 39.117028 ], [ -77.074809, 39.11658 ], [ -77.074452, 39.116226 ], [ -77.074312, 39.115417 ], [ -77.07396, 39.115243 ], [ -77.073955, 39.115063 ], [ -77.073253, 39.114806 ], [ -77.072888, 39.114181 ], [ -77.072426, 39.11419 ], [ -77.072179, 39.113653 ], [ -77.071601, 39.113664 ], [ -77.071593, 39.113393 ], [ -77.071926, 39.112937 ], [ -77.072504, 39.112927 ], [ -77.072728, 39.112653 ], [ -77.073193, 39.112734 ], [ -77.073187, 39.112554 ], [ -77.073647, 39.112456 ], [ -77.073615, 39.111375 ], [ -77.073949, 39.110919 ], [ -77.073941, 39.110649 ], [ -77.074514, 39.110458 ], [ -77.074737, 39.110184 ], [ -77.075197, 39.110086 ], [ -77.075874, 39.109533 ], [ -77.076342, 39.109705 ], [ -77.076681, 39.109429 ], [ -77.079455, 39.109379 ], [ -77.079565, 39.109197 ], [ -77.079915, 39.109281 ], [ -77.079909, 39.109101 ], [ -77.080256, 39.109095 ], [ -77.080364, 39.108822 ], [ -77.080009, 39.108558 ], [ -77.079778, 39.108563 ], [ -77.079649, 39.108114 ], [ -77.08034, 39.108012 ], [ -77.080442, 39.10756 ], [ -77.07998, 39.107568 ], [ -77.079735, 39.107122 ], [ -77.079843, 39.106849 ], [ -77.079609, 39.106764 ], [ -77.079604, 39.106583 ], [ -77.079373, 39.106588 ], [ -77.079367, 39.106407 ], [ -77.0789, 39.106236 ], [ -77.078895, 39.106055 ], [ -77.07854, 39.105792 ], [ -77.078642, 39.105339 ], [ -77.078871, 39.105245 ], [ -77.078613, 39.104349 ], [ -77.078718, 39.103986 ], [ -77.07906, 39.1038 ], [ -77.07903, 39.102809 ], [ -77.078681, 39.102726 ], [ -77.078431, 39.102099 ], [ -77.077969, 39.102108 ], [ -77.077142, 39.101492 ], [ -77.076798, 39.101588 ], [ -77.076776, 39.100867 ], [ -77.077207, 39.099779 ], [ -77.077075, 39.09924 ], [ -77.077291, 39.098696 ], [ -77.076933, 39.098342 ], [ -77.076584, 39.098258 ], [ -77.076568, 39.097718 ], [ -77.076327, 39.097362 ], [ -77.074924, 39.096846 ], [ -77.074462, 39.096854 ], [ -77.074456, 39.096674 ], [ -77.07411, 39.09668 ], [ -77.073986, 39.096412 ], [ -77.073288, 39.096244 ], [ -77.07293, 39.09589 ], [ -77.072237, 39.095903 ], [ -77.072011, 39.096087 ], [ -77.071654, 39.095733 ], [ -77.069802, 39.095676 ], [ -77.069332, 39.095414 ], [ -77.068872, 39.095512 ], [ -77.068631, 39.095156 ], [ -77.068281, 39.095072 ], [ -77.067354, 39.094998 ], [ -77.067247, 39.09527 ], [ -77.06622, 39.095739 ], [ -77.065883, 39.096106 ], [ -77.065419, 39.096024 ], [ -77.06519, 39.096118 ], [ -77.065195, 39.096298 ], [ -77.064849, 39.096304 ], [ -77.064843, 39.096124 ], [ -77.064147, 39.096046 ], [ -77.063911, 39.09587 ], [ -77.063451, 39.095968 ], [ -77.063443, 39.095698 ], [ -77.063204, 39.095432 ], [ -77.062973, 39.095436 ], [ -77.062965, 39.095166 ], [ -77.062619, 39.095172 ], [ -77.062608, 39.094812 ], [ -77.063068, 39.094714 ], [ -77.063063, 39.094534 ], [ -77.062708, 39.09427 ], [ -77.062361, 39.094276 ], [ -77.062241, 39.094098 ], [ -77.062227, 39.093648 ], [ -77.062566, 39.093371 ], [ -77.062553, 39.092921 ], [ -77.062319, 39.092835 ], [ -77.062291, 39.091844 ], [ -77.062635, 39.091748 ], [ -77.062627, 39.091478 ], [ -77.062046, 39.091398 ], [ -77.062041, 39.091218 ], [ -77.061689, 39.091044 ], [ -77.061681, 39.090774 ], [ -77.061329, 39.0906 ], [ -77.061427, 39.089968 ], [ -77.061537, 39.089785 ], [ -77.061883, 39.089779 ], [ -77.061876, 39.089509 ], [ -77.061752, 39.089241 ], [ -77.061282, 39.088979 ], [ -77.061385, 39.088527 ], [ -77.061153, 39.088531 ], [ -77.061138, 39.08799 ], [ -77.060788, 39.087907 ], [ -77.060778, 39.087546 ], [ -77.060429, 39.087462 ], [ -77.060418, 39.087102 ], [ -77.05972, 39.086934 ], [ -77.059678, 39.085493 ], [ -77.059447, 39.085498 ], [ -77.059434, 39.085047 ], [ -77.059084, 39.084963 ], [ -77.059276, 39.083608 ], [ -77.058696, 39.083529 ], [ -77.058688, 39.083258 ], [ -77.059266, 39.083248 ], [ -77.059376, 39.083066 ], [ -77.059363, 39.082616 ], [ -77.059, 39.082082 ], [ -77.059457, 39.081893 ], [ -77.059203, 39.081087 ], [ -77.059431, 39.080993 ], [ -77.059423, 39.080723 ], [ -77.059762, 39.080446 ], [ -77.059849, 39.079454 ], [ -77.060072, 39.07918 ], [ -77.059951, 39.079001 ], [ -77.060403, 39.078633 ], [ -77.06075, 39.078627 ], [ -77.061086, 39.078261 ], [ -77.061317, 39.078256 ], [ -77.061293, 39.077446 ], [ -77.061524, 39.077442 ], [ -77.061516, 39.077172 ], [ -77.061283, 39.077086 ], [ -77.061264, 39.076455 ], [ -77.060453, 39.07638 ], [ -77.060214, 39.076114 ], [ -77.06055, 39.075747 ], [ -77.06054, 39.075387 ], [ -77.060771, 39.075383 ], [ -77.060765, 39.075203 ], [ -77.060997, 39.075199 ], [ -77.060991, 39.075019 ], [ -77.061222, 39.075015 ], [ -77.06133, 39.074742 ], [ -77.061674, 39.074646 ], [ -77.061438, 39.07447 ], [ -77.061304, 39.073842 ], [ -77.06164, 39.073475 ], [ -77.061871, 39.073471 ], [ -77.061866, 39.073291 ], [ -77.06221, 39.073195 ], [ -77.062317, 39.072923 ], [ -77.062073, 39.072477 ], [ -77.061842, 39.072481 ], [ -77.061837, 39.072301 ], [ -77.062181, 39.072204 ], [ -77.06217, 39.071844 ], [ -77.061937, 39.071758 ], [ -77.062029, 39.070946 ], [ -77.061787, 39.07059 ], [ -77.062249, 39.070581 ], [ -77.062226, 39.069771 ], [ -77.062454, 39.069677 ], [ -77.062325, 39.069229 ], [ -77.062675, 39.069313 ], [ -77.063126, 39.068944 ], [ -77.063121, 39.068764 ], [ -77.062656, 39.068682 ], [ -77.06206, 39.068062 ], [ -77.061483, 39.068072 ], [ -77.061236, 39.067536 ], [ -77.060889, 39.067542 ], [ -77.06065, 39.067276 ], [ -77.060188, 39.067284 ], [ -77.060194, 39.067464 ], [ -77.059734, 39.067563 ], [ -77.059501, 39.067477 ], [ -77.059375, 39.067118 ], [ -77.059718, 39.067022 ], [ -77.059713, 39.066842 ], [ -77.05948, 39.066756 ], [ -77.059464, 39.066216 ], [ -77.059803, 39.06594 ], [ -77.059669, 39.065311 ], [ -77.0599, 39.065307 ], [ -77.059889, 39.064947 ], [ -77.060225, 39.064581 ], [ -77.059412, 39.064415 ], [ -77.05917, 39.064059 ], [ -77.058708, 39.064067 ], [ -77.058482, 39.064251 ], [ -77.058136, 39.064257 ], [ -77.057899, 39.064081 ], [ -77.056051, 39.064114 ], [ -77.055815, 39.063938 ], [ -77.055923, 39.063665 ], [ -77.055689, 39.063579 ], [ -77.055442, 39.063043 ], [ -77.054631, 39.062967 ], [ -77.054508, 39.062699 ], [ -77.054043, 39.062617 ], [ -77.053796, 39.062081 ], [ -77.053324, 39.061729 ], [ -77.052741, 39.061559 ], [ -77.052266, 39.061117 ], [ -77.051576, 39.061219 ], [ -77.05147, 39.061581 ], [ -77.051011, 39.06168 ], [ -77.050539, 39.061328 ], [ -77.050413, 39.060969 ], [ -77.049948, 39.060887 ], [ -77.049827, 39.060709 ], [ -77.049132, 39.060631 ], [ -77.049121, 39.060271 ], [ -77.049347, 39.060087 ], [ -77.049208, 39.059279 ], [ -77.049662, 39.059 ], [ -77.049657, 39.05882 ], [ -77.049426, 39.058824 ], [ -77.049431, 39.059004 ], [ -77.048625, 39.059109 ], [ -77.048515, 39.059291 ], [ -77.047817, 39.059123 ], [ -77.047806, 39.058763 ], [ -77.048266, 39.058664 ], [ -77.049059, 39.05811 ], [ -77.049405, 39.058104 ], [ -77.0494, 39.057924 ], [ -77.049741, 39.057738 ], [ -77.049495, 39.057201 ], [ -77.049146, 39.057117 ], [ -77.049245, 39.056575 ], [ -77.049014, 39.056579 ], [ -77.049007, 39.056309 ], [ -77.049219, 39.055674 ], [ -77.049676, 39.055486 ], [ -77.049671, 39.055306 ], [ -77.050687, 39.054477 ], [ -77.050682, 39.054297 ], [ -77.051144, 39.054289 ], [ -77.051126, 39.053659 ], [ -77.050771, 39.053395 ], [ -77.050874, 39.052942 ], [ -77.050643, 39.052946 ], [ -77.050383, 39.05196 ], [ -77.050262, 39.051782 ], [ -77.050031, 39.051786 ], [ -77.050021, 39.051426 ], [ -77.050475, 39.051147 ], [ -77.050454, 39.050427 ], [ -77.050683, 39.050333 ], [ -77.050788, 39.04997 ], [ -77.051016, 39.049876 ], [ -77.051011, 39.049696 ], [ -77.051357, 39.04969 ], [ -77.051216, 39.048792 ], [ -77.05156, 39.048695 ], [ -77.051531, 39.047705 ], [ -77.052095, 39.047244 ], [ -77.052085, 39.046884 ], [ -77.052431, 39.046878 ], [ -77.052539, 39.046606 ], [ -77.052411, 39.046158 ], [ -77.052639, 39.046064 ], [ -77.052631, 39.045793 ], [ -77.052015, 39.044453 ], [ -77.052122, 39.044181 ], [ -77.051886, 39.044004 ], [ -77.052345, 39.043906 ], [ -77.052456, 39.043724 ], [ -77.052432, 39.042914 ], [ -77.052658, 39.042729 ], [ -77.05265, 39.042459 ], [ -77.052881, 39.042455 ], [ -77.052989, 39.042183 ], [ -77.053335, 39.042177 ], [ -77.053327, 39.041907 ], [ -77.054012, 39.041624 ], [ -77.054102, 39.040722 ], [ -77.054446, 39.040626 ], [ -77.054194, 39.039909 ], [ -77.054761, 39.039539 ], [ -77.05475, 39.039179 ], [ -77.055094, 39.039083 ], [ -77.055315, 39.038718 ], [ -77.055546, 39.038714 ], [ -77.055761, 39.03817 ], [ -77.05563, 39.037631 ], [ -77.056086, 39.037443 ], [ -77.056076, 39.037083 ], [ -77.05653, 39.036805 ], [ -77.056525, 39.036625 ], [ -77.056294, 39.036629 ], [ -77.056173, 39.036451 ], [ -77.055478, 39.036373 ], [ -77.055459, 39.035742 ], [ -77.055688, 39.035648 ], [ -77.055538, 39.03448 ], [ -77.055761, 39.034205 ], [ -77.055043, 39.033317 ], [ -77.055032, 39.032957 ], [ -77.054683, 39.032873 ], [ -77.054673, 39.032513 ], [ -77.054891, 39.032058 ], [ -77.05535, 39.03196 ], [ -77.055224, 39.031602 ], [ -77.055439, 39.031057 ], [ -77.05567, 39.031053 ], [ -77.055549, 39.030875 ], [ -77.055775, 39.030691 ], [ -77.055872, 39.030059 ], [ -77.056103, 39.030055 ], [ -77.056098, 39.029875 ], [ -77.056555, 39.029686 ], [ -77.056426, 39.029238 ], [ -77.056534, 39.028966 ], [ -77.056765, 39.028962 ], [ -77.056754, 39.028602 ], [ -77.056518, 39.028425 ], [ -77.05651, 39.028155 ], [ -77.056048, 39.028163 ], [ -77.056041, 39.027893 ], [ -77.055689, 39.027719 ], [ -77.055684, 39.027539 ], [ -77.055458, 39.027723 ], [ -77.054881, 39.027734 ], [ -77.054899, 39.028364 ], [ -77.054666, 39.028278 ], [ -77.054555, 39.02846 ], [ -77.053981, 39.02856 ], [ -77.053624, 39.028206 ], [ -77.053613, 39.027846 ], [ -77.053034, 39.027766 ], [ -77.052797, 39.02759 ], [ -77.05279, 39.02732 ], [ -77.052317, 39.026968 ], [ -77.052304, 39.026518 ], [ -77.052073, 39.026522 ], [ -77.052063, 39.026161 ], [ -77.051829, 39.026075 ], [ -77.051935, 39.025713 ], [ -77.05158, 39.025449 ], [ -77.050767, 39.025283 ], [ -77.050541, 39.025467 ], [ -77.050079, 39.025475 ], [ -77.049956, 39.025207 ], [ -77.049612, 39.025303 ], [ -77.049487, 39.024945 ], [ -77.049256, 39.024949 ], [ -77.04902, 39.024773 ], [ -77.049012, 39.024503 ], [ -77.04866, 39.024329 ], [ -77.048647, 39.023879 ], [ -77.047949, 39.023711 ], [ -77.047708, 39.023355 ], [ -77.047246, 39.023363 ], [ -77.046864, 39.022108 ], [ -77.046168, 39.02203 ], [ -77.045825, 39.022126 ], [ -77.04583, 39.022306 ], [ -77.045601, 39.022401 ], [ -77.044329, 39.022333 ], [ -77.044303, 39.021432 ], [ -77.044059, 39.020986 ], [ -77.043713, 39.020992 ], [ -77.043353, 39.020548 ], [ -77.042776, 39.020558 ], [ -77.042986, 39.019833 ], [ -77.04296, 39.018933 ], [ -77.043986, 39.018464 ], [ -77.043861, 39.018106 ], [ -77.044089, 39.018012 ], [ -77.044071, 39.017382 ], [ -77.044645, 39.017282 ], [ -77.044874, 39.017187 ], [ -77.044868, 39.017007 ], [ -77.045099, 39.017003 ], [ -77.044037, 39.016211 ], [ -77.044024, 39.015761 ], [ -77.04447, 39.015212 ], [ -77.044455, 39.014672 ], [ -77.044686, 39.014668 ], [ -77.04467, 39.014128 ], [ -77.044203, 39.013956 ], [ -77.044193, 39.013595 ], [ -77.043962, 39.013599 ], [ -77.043841, 39.013421 ], [ -77.044295, 39.013143 ], [ -77.044398, 39.012691 ], [ -77.044626, 39.012597 ], [ -77.044718, 39.011784 ], [ -77.045172, 39.011506 ], [ -77.045634, 39.011498 ], [ -77.045623, 39.011137 ], [ -77.04597, 39.011131 ], [ -77.045964, 39.010951 ], [ -77.045618, 39.010957 ], [ -77.045497, 39.010779 ], [ -77.045033, 39.010697 ], [ -77.0449, 39.010069 ], [ -77.044669, 39.010073 ], [ -77.044546, 39.009805 ], [ -77.043732, 39.009639 ], [ -77.043727, 39.009459 ], [ -77.043496, 39.009463 ], [ -77.043142, 39.009199 ], [ -77.043352, 39.008474 ], [ -77.042765, 39.008124 ], [ -77.042972, 39.00731 ], [ -77.042962, 39.006949 ], [ -77.042726, 39.006773 ], [ -77.042495, 39.006777 ], [ -77.042257, 39.006511 ], [ -77.041915, 39.006697 ], [ -77.041441, 39.006255 ], [ -77.040982, 39.006353 ], [ -77.040874, 39.006626 ], [ -77.040174, 39.006367 ], [ -77.039953, 39.006732 ], [ -77.039607, 39.006738 ], [ -77.039366, 39.006382 ], [ -77.03807, 39.005503 ], [ -77.03806, 39.005143 ], [ -77.037483, 39.005153 ], [ -77.037242, 39.004797 ], [ -77.036893, 39.004713 ], [ -77.037113, 39.004349 ], [ -77.036877, 39.004173 ], [ -77.036972, 39.00345 ], [ -77.036387, 39.00319 ], [ -77.036136, 39.002474 ], [ -77.035428, 39.001945 ], [ -77.03542, 39.001675 ], [ -77.035756, 39.001309 ], [ -77.035635, 39.001131 ], [ -77.035976, 39.000945 ], [ -77.035971, 39.000765 ], [ -77.03574, 39.000769 ], [ -77.035379, 39.000234 ], [ -77.034912, 39.000062 ], [ -77.034425, 38.99917 ], [ -77.033155, 38.999192 ], [ -77.032911, 38.998746 ], [ -77.032562, 38.998662 ], [ -77.032555, 38.998391 ], [ -77.031857, 38.998223 ], [ -77.031731, 38.997865 ], [ -77.031501, 38.997869 ], [ -77.031144, 38.997515 ], [ -77.030336, 38.997529 ], [ -77.030226, 38.997711 ], [ -77.029995, 38.997715 ], [ -77.03, 38.997895 ], [ -77.029534, 38.997723 ], [ -77.029305, 38.997817 ], [ -77.028951, 38.997553 ], [ -77.027105, 38.997585 ], [ -77.026982, 38.997317 ], [ -77.02732, 38.997041 ], [ -77.027305, 38.996501 ], [ -77.026953, 38.996326 ], [ -77.026797, 38.994888 ], [ -77.026564, 38.994801 ], [ -77.026558, 38.994621 ], [ -77.026094, 38.994539 ], [ -77.026071, 38.993729 ], [ -77.026297, 38.993545 ], [ -77.027335, 38.993527 ], [ -77.02733, 38.993347 ], [ -77.026979, 38.993172 ], [ -77.027066, 38.99218 ], [ -77.02694, 38.991822 ], [ -77.025997, 38.991117 ], [ -77.025745, 38.990401 ], [ -77.025514, 38.990405 ], [ -77.025509, 38.990225 ], [ -77.025163, 38.990231 ], [ -77.025037, 38.989872 ], [ -77.024571, 38.9897 ], [ -77.024768, 38.988526 ], [ -77.025114, 38.98852 ], [ -77.025237, 38.988788 ], [ -77.025809, 38.988598 ], [ -77.026009, 38.987513 ], [ -77.025661, 38.987429 ], [ -77.025891, 38.987425 ], [ -77.025886, 38.987245 ], [ -77.026227, 38.987059 ], [ -77.026319, 38.986246 ], [ -77.026196, 38.985978 ], [ -77.02585, 38.985984 ], [ -77.025145, 38.985546 ], [ -77.024904, 38.985189 ], [ -77.025012, 38.984917 ], [ -77.02454, 38.984565 ], [ -77.024309, 38.984569 ], [ -77.024068, 38.984213 ], [ -77.023491, 38.984223 ], [ -77.023024, 38.984051 ], [ -77.022773, 38.983334 ], [ -77.022422, 38.98316 ], [ -77.022173, 38.982534 ], [ -77.02225, 38.981181 ], [ -77.022596, 38.981175 ], [ -77.022701, 38.980813 ], [ -77.022455, 38.980276 ], [ -77.022553, 38.979644 ], [ -77.022204, 38.97956 ], [ -77.022199, 38.97938 ], [ -77.022542, 38.979284 ], [ -77.022535, 38.979013 ], [ -77.022299, 38.978837 ], [ -77.022291, 38.978567 ], [ -77.02194, 38.978393 ], [ -77.021927, 38.977943 ], [ -77.021694, 38.977857 ], [ -77.021658, 38.976596 ], [ -77.021884, 38.976412 ], [ -77.021758, 38.976054 ], [ -77.021412, 38.97606 ], [ -77.021399, 38.975609 ], [ -77.021963, 38.975149 ], [ -77.022425, 38.975141 ], [ -77.02265, 38.974957 ], [ -77.022399, 38.97424 ], [ -77.022507, 38.973968 ], [ -77.022737, 38.973964 ], [ -77.022727, 38.973604 ], [ -77.022496, 38.973608 ], [ -77.022373, 38.97334 ], [ -77.022268, 38.973702 ], [ -77.021696, 38.973892 ], [ -77.021589, 38.974164 ], [ -77.021243, 38.97417 ], [ -77.021135, 38.974443 ], [ -77.019758, 38.974737 ], [ -77.019181, 38.974747 ], [ -77.019176, 38.974567 ], [ -77.018602, 38.974667 ], [ -77.018251, 38.974492 ], [ -77.017212, 38.97451 ], [ -77.017102, 38.974693 ], [ -77.016415, 38.974885 ], [ -77.016184, 38.974889 ], [ -77.016064, 38.97471 ], [ -77.015841, 38.974985 ], [ -77.015264, 38.974995 ], [ -77.015274, 38.975355 ], [ -77.0147, 38.975455 ], [ -77.014707, 38.975725 ], [ -77.014143, 38.976185 ], [ -77.012751, 38.975939 ], [ -77.012746, 38.975759 ], [ -77.012397, 38.975675 ], [ -77.012151, 38.975138 ], [ -77.012249, 38.974506 ], [ -77.012016, 38.97442 ], [ -77.012708, 38.974408 ], [ -77.012818, 38.974226 ], [ -77.012687, 38.973688 ], [ -77.013251, 38.973227 ], [ -77.013103, 38.972059 ], [ -77.012867, 38.971882 ], [ -77.01297, 38.97143 ], [ -77.012621, 38.971346 ], [ -77.012147, 38.970904 ], [ -77.011801, 38.97091 ], [ -77.011678, 38.970641 ], [ -77.011334, 38.970738 ], [ -77.011327, 38.970467 ], [ -77.011547, 38.970103 ], [ -77.011534, 38.969653 ], [ -77.011873, 38.969377 ], [ -77.012678, 38.969273 ], [ -77.012552, 38.968914 ], [ -77.012896, 38.968818 ], [ -77.012996, 38.968276 ], [ -77.014037, 38.968348 ], [ -77.014265, 38.968254 ], [ -77.01437, 38.967892 ], [ -77.014139, 38.967896 ], [ -77.014134, 38.967716 ], [ -77.01378, 38.967452 ], [ -77.01355, 38.967456 ], [ -77.013545, 38.967275 ], [ -77.013311, 38.967189 ], [ -77.013301, 38.966829 ], [ -77.012712, 38.966389 ], [ -77.012701, 38.966029 ], [ -77.012932, 38.966025 ], [ -77.012927, 38.965845 ], [ -77.013155, 38.96575 ], [ -77.013145, 38.96539 ], [ -77.012678, 38.965218 ], [ -77.012894, 38.964674 ], [ -77.011971, 38.96469 ], [ -77.011738, 38.964604 ], [ -77.01173, 38.964333 ], [ -77.011258, 38.963981 ], [ -77.011028, 38.963985 ], [ -77.01102, 38.963715 ], [ -77.010789, 38.963719 ], [ -77.010784, 38.963539 ], [ -77.010551, 38.963453 ], [ -77.010766, 38.962908 ], [ -77.010282, 38.962106 ], [ -77.009821, 38.962114 ], [ -77.009118, 38.961765 ], [ -77.009111, 38.961495 ], [ -77.009452, 38.961309 ], [ -77.009442, 38.960949 ], [ -77.009665, 38.960675 ], [ -77.009314, 38.960501 ], [ -77.009306, 38.96023 ], [ -77.009075, 38.960234 ], [ -77.008722, 38.95997 ], [ -77.008596, 38.959612 ], [ -77.007899, 38.959444 ], [ -77.007886, 38.958993 ], [ -77.007653, 38.958907 ], [ -77.007525, 38.958459 ], [ -77.007181, 38.958555 ], [ -77.007061, 38.958377 ], [ -77.0066, 38.958385 ], [ -77.006702, 38.957933 ], [ -77.006351, 38.957758 ], [ -77.006343, 38.957488 ], [ -77.006574, 38.957484 ], [ -77.006554, 38.956764 ], [ -77.006321, 38.956678 ], [ -77.006315, 38.956498 ], [ -77.006654, 38.956222 ], [ -77.006639, 38.955681 ], [ -77.006864, 38.955497 ], [ -77.007669, 38.955393 ], [ -77.007664, 38.955213 ], [ -77.00801, 38.955207 ], [ -77.008348, 38.954931 ], [ -77.008454, 38.954569 ], [ -77.008915, 38.954561 ], [ -77.008666, 38.953934 ], [ -77.008767, 38.953392 ], [ -77.008421, 38.953398 ], [ -77.008062, 38.952954 ], [ -77.007798, 38.951787 ], [ -77.007327, 38.951435 ], [ -77.007096, 38.951438 ], [ -77.006855, 38.951082 ], [ -77.006394, 38.95109 ], [ -77.006261, 38.950462 ], [ -77.006027, 38.950376 ], [ -77.006135, 38.950103 ], [ -77.005884, 38.949387 ], [ -77.00542, 38.949305 ], [ -77.004949, 38.948953 ], [ -77.004941, 38.948682 ], [ -77.004711, 38.948686 ], [ -77.0047, 38.948326 ], [ -77.004929, 38.948232 ], [ -77.004923, 38.948052 ], [ -77.004577, 38.948058 ], [ -77.004572, 38.947878 ], [ -77.004911, 38.947602 ], [ -77.00489, 38.946881 ], [ -77.005467, 38.946871 ], [ -77.005577, 38.946689 ], [ -77.006039, 38.946681 ], [ -77.006262, 38.946407 ], [ -77.006836, 38.946307 ], [ -77.006933, 38.945675 ], [ -77.007277, 38.945579 ], [ -77.007272, 38.945399 ], [ -77.00761, 38.945122 ], [ -77.007487, 38.944854 ], [ -77.007825, 38.944578 ], [ -77.007805, 38.943858 ], [ -77.008023, 38.943403 ], [ -77.008251, 38.943309 ], [ -77.008243, 38.943039 ], [ -77.008008, 38.942863 ], [ -77.008228, 38.942499 ], [ -77.00893, 38.942847 ], [ -77.009276, 38.942841 ], [ -77.009281, 38.943021 ], [ -77.009512, 38.943017 ], [ -77.009753, 38.943374 ], [ -77.010573, 38.94381 ], [ -77.010816, 38.944256 ], [ -77.011511, 38.944334 ], [ -77.01149, 38.943614 ], [ -77.011137, 38.94335 ], [ -77.011114, 38.942539 ], [ -77.011344, 38.942535 ], [ -77.011352, 38.942805 ], [ -77.011824, 38.943158 ], [ -77.012631, 38.943144 ], [ -77.012623, 38.942874 ], [ -77.013074, 38.942505 ], [ -77.013305, 38.942501 ], [ -77.013528, 38.942227 ], [ -77.013989, 38.942219 ], [ -77.013994, 38.942399 ], [ -77.014922, 38.942564 ], [ -77.015973, 38.942996 ], [ -77.016075, 38.942544 ], [ -77.016526, 38.942176 ], [ -77.017907, 38.942062 ], [ -77.01812, 38.941427 ], [ -77.01891, 38.940783 ], [ -77.018779, 38.940244 ], [ -77.019455, 38.939692 ], [ -77.019558, 38.93924 ], [ -77.019904, 38.939234 ], [ -77.019899, 38.939054 ], [ -77.020127, 38.93896 ], [ -77.02128, 38.93894 ], [ -77.021154, 38.938581 ], [ -77.019538, 38.938519 ], [ -77.019176, 38.937985 ], [ -77.019279, 38.937533 ], [ -77.019743, 38.937615 ], [ -77.019845, 38.937162 ], [ -77.020757, 38.936786 ], [ -77.020624, 38.936158 ], [ -77.020968, 38.936062 ], [ -77.021047, 38.934799 ], [ -77.021275, 38.934705 ], [ -77.021144, 38.934167 ], [ -77.020796, 38.934082 ], [ -77.020788, 38.933812 ], [ -77.021016, 38.933718 ], [ -77.02077, 38.933182 ], [ -77.021111, 38.932996 ], [ -77.021106, 38.932816 ], [ -77.022946, 38.932604 ], [ -77.022941, 38.932423 ], [ -77.023971, 38.932135 ], [ -77.02478, 38.932211 ], [ -77.024791, 38.932572 ], [ -77.025021, 38.932568 ], [ -77.025377, 38.932922 ], [ -77.025954, 38.932912 ], [ -77.025949, 38.932732 ], [ -77.027104, 38.932802 ], [ -77.027448, 38.932706 ], [ -77.027555, 38.932433 ], [ -77.027786, 38.932429 ], [ -77.028257, 38.932782 ], [ -77.028834, 38.932772 ], [ -77.02896, 38.93313 ], [ -77.029421, 38.933122 ], [ -77.029408, 38.932672 ], [ -77.029867, 38.932574 ], [ -77.029859, 38.932303 ], [ -77.031122, 38.932101 ], [ -77.031804, 38.931729 ], [ -77.032037, 38.931815 ], [ -77.032147, 38.931633 ], [ -77.03238, 38.931719 ], [ -77.032375, 38.931539 ], [ -77.032831, 38.931351 ], [ -77.033531, 38.931609 ], [ -77.033874, 38.931513 ], [ -77.034112, 38.931779 ], [ -77.034804, 38.931767 ], [ -77.036198, 38.932103 ], [ -77.036305, 38.931831 ], [ -77.035837, 38.931568 ], [ -77.035829, 38.931298 ], [ -77.035596, 38.931212 ], [ -77.035588, 38.930942 ], [ -77.035923, 38.930576 ], [ -77.035578, 38.930582 ], [ -77.035342, 38.930406 ], [ -77.035209, 38.929777 ], [ -77.035419, 38.929053 ], [ -77.03611, 38.929041 ], [ -77.036448, 38.928765 ], [ -77.036323, 38.928406 ], [ -77.035498, 38.92779 ], [ -77.035477, 38.92707 ], [ -77.035695, 38.926615 ], [ -77.03673, 38.926507 ], [ -77.036725, 38.926327 ], [ -77.036955, 38.926323 ], [ -77.037066, 38.926141 ], [ -77.037529, 38.926223 ], [ -77.037639, 38.926041 ], [ -77.03787, 38.926037 ], [ -77.037865, 38.925857 ], [ -77.038211, 38.925851 ], [ -77.038187, 38.92504 ], [ -77.039348, 38.92529 ], [ -77.039343, 38.92511 ], [ -77.039681, 38.924834 ], [ -77.04003, 38.924918 ], [ -77.040014, 38.924377 ], [ -77.040475, 38.924369 ], [ -77.04048, 38.924549 ], [ -77.040826, 38.924543 ], [ -77.042081, 38.924071 ], [ -77.042543, 38.924063 ], [ -77.042537, 38.923883 ], [ -77.042768, 38.923879 ], [ -77.04287, 38.923426 ], [ -77.043214, 38.92333 ], [ -77.043437, 38.923056 ], [ -77.043411, 38.922156 ], [ -77.043751, 38.921969 ], [ -77.04372, 38.920889 ], [ -77.044064, 38.920793 ], [ -77.044058, 38.920612 ], [ -77.043828, 38.920616 ], [ -77.043707, 38.920438 ], [ -77.043797, 38.919536 ], [ -77.044258, 38.919528 ], [ -77.044245, 38.919077 ], [ -77.045513, 38.919055 ], [ -77.0455, 38.918605 ], [ -77.046299, 38.918321 ], [ -77.046058, 38.917964 ], [ -77.046166, 38.917692 ], [ -77.04663, 38.917774 ], [ -77.046858, 38.91768 ], [ -77.046852, 38.9175 ], [ -77.047429, 38.91749 ], [ -77.047424, 38.91731 ], [ -77.047882, 38.917212 ], [ -77.047738, 38.916223 ], [ -77.048069, 38.915677 ], [ -77.046772, 38.914708 ], [ -77.046309, 38.914626 ], [ -77.046073, 38.91445 ], [ -77.046065, 38.91418 ], [ -77.045714, 38.914006 ], [ -77.045583, 38.913468 ], [ -77.045225, 38.913023 ], [ -77.045214, 38.912663 ], [ -77.044981, 38.912577 ], [ -77.045091, 38.912395 ], [ -77.044858, 38.912309 ], [ -77.045083, 38.912125 ], [ -77.045073, 38.911765 ], [ -77.04484, 38.911679 ], [ -77.044709, 38.91114 ], [ -77.04505, 38.910954 ], [ -77.044699, 38.91078 ], [ -77.044694, 38.9106 ], [ -77.044345, 38.910516 ], [ -77.044094, 38.909799 ], [ -77.043864, 38.909804 ], [ -77.043738, 38.909445 ], [ -77.043943, 38.908541 ], [ -77.044281, 38.908264 ], [ -77.044742, 38.908256 ], [ -77.04508, 38.90798 ], [ -77.045069, 38.90762 ], [ -77.045525, 38.907432 ], [ -77.045743, 38.906977 ], [ -77.046317, 38.906877 ], [ -77.046422, 38.906515 ], [ -77.046767, 38.906509 ], [ -77.046872, 38.906147 ], [ -77.047331, 38.906049 ], [ -77.047438, 38.905776 ], [ -77.047899, 38.905768 ], [ -77.048465, 38.905398 ], [ -77.049041, 38.905388 ], [ -77.049395, 38.905652 ], [ -77.049625, 38.905648 ], [ -77.050076, 38.90528 ], [ -77.050768, 38.905267 ], [ -77.050744, 38.904457 ], [ -77.05109, 38.904451 ], [ -77.05119, 38.903908 ], [ -77.05142, 38.903904 ], [ -77.051413, 38.903634 ], [ -77.051182, 38.903638 ], [ -77.051282, 38.903096 ], [ -77.050933, 38.903012 ], [ -77.050926, 38.902742 ], [ -77.05058, 38.902748 ], [ -77.049993, 38.902398 ], [ -77.049417, 38.902408 ], [ -77.049179, 38.902142 ], [ -77.048833, 38.902148 ], [ -77.047901, 38.901804 ], [ -77.04778, 38.901626 ], [ -77.047319, 38.901634 ], [ -77.046733, 38.901284 ], [ -77.046161, 38.901474 ], [ -77.04547, 38.901486 ], [ -77.045116, 38.901222 ], [ -77.04507, 38.899601 ], [ -77.045295, 38.899417 ], [ -77.045175, 38.899239 ], [ -77.045392, 38.898784 ], [ -77.04632, 38.898948 ], [ -77.046542, 38.898674 ], [ -77.047346, 38.89857 ], [ -77.047321, 38.897669 ], [ -77.047551, 38.897665 ], [ -77.047792, 38.898021 ], [ -77.048599, 38.898007 ], [ -77.048724, 38.898365 ], [ -77.048955, 38.898361 ], [ -77.049075, 38.898539 ], [ -77.049421, 38.898533 ], [ -77.049871, 38.898165 ], [ -77.050222, 38.898339 ], [ -77.050228, 38.898519 ], [ -77.051611, 38.898495 ], [ -77.0522, 38.898935 ], [ -77.052896, 38.899103 ], [ -77.05324, 38.899007 ], [ -77.053478, 38.899273 ], [ -77.054285, 38.899259 ], [ -77.054523, 38.899525 ], [ -77.054753, 38.899521 ], [ -77.054994, 38.899877 ], [ -77.055225, 38.899873 ], [ -77.05523, 38.900053 ], [ -77.055804, 38.899953 ], [ -77.055796, 38.899683 ], [ -77.056149, 38.899947 ], [ -77.05638, 38.899943 ], [ -77.056715, 38.899576 ], [ -77.056946, 38.899572 ], [ -77.057066, 38.89975 ], [ -77.05764, 38.89965 ], [ -77.057653, 38.9001 ], [ -77.058119, 38.900272 ], [ -77.058245, 38.900631 ], [ -77.058593, 38.900715 ], [ -77.059075, 38.901427 ], [ -77.058975, 38.901969 ], [ -77.058524, 38.902338 ], [ -77.058294, 38.902342 ], [ -77.058299, 38.902522 ], [ -77.058069, 38.902526 ], [ -77.058231, 38.904145 ], [ -77.058, 38.904149 ], [ -77.057895, 38.904511 ], [ -77.057434, 38.904519 ], [ -77.05744, 38.904699 ], [ -77.057212, 38.904794 ], [ -77.057219, 38.905064 ], [ -77.05757, 38.905238 ], [ -77.05735, 38.905602 ], [ -77.057583, 38.905688 ], [ -77.057591, 38.905958 ], [ -77.05794, 38.906042 ], [ -77.057845, 38.906765 ], [ -77.058078, 38.906851 ], [ -77.058083, 38.907031 ], [ -77.057853, 38.907035 ], [ -77.057858, 38.907215 ], [ -77.057518, 38.907401 ], [ -77.057751, 38.907487 ], [ -77.057769, 38.908118 ], [ -77.058128, 38.908562 ], [ -77.058136, 38.908832 ], [ -77.058489, 38.909096 ], [ -77.058266, 38.90937 ], [ -77.058272, 38.90955 ], [ -77.058505, 38.909636 ], [ -77.05852, 38.910177 ], [ -77.057952, 38.910457 ], [ -77.057852, 38.910999 ], [ -77.057512, 38.911186 ], [ -77.057525, 38.911636 ], [ -77.058229, 38.912074 ], [ -77.058918, 38.911972 ], [ -77.059046, 38.91242 ], [ -77.0594, 38.912684 ], [ -77.060553, 38.912664 ], [ -77.060558, 38.912844 ], [ -77.060912, 38.913108 ], [ -77.061598, 38.912915 ], [ -77.062525, 38.913079 ], [ -77.062753, 38.912985 ], [ -77.063115, 38.913519 ], [ -77.063468, 38.913783 ], [ -77.063699, 38.913779 ], [ -77.063591, 38.914052 ], [ -77.063827, 38.914228 ], [ -77.065323, 38.914111 ], [ -77.065548, 38.913927 ], [ -77.066243, 38.914005 ], [ -77.066353, 38.913823 ], [ -77.067042, 38.91372 ], [ -77.066916, 38.913362 ], [ -77.067492, 38.913352 ], [ -77.067733, 38.913708 ], [ -77.068194, 38.9137 ], [ -77.068894, 38.913958 ], [ -77.069386, 38.91503 ], [ -77.069423, 38.916291 ], [ -77.069905, 38.917003 ], [ -77.070256, 38.917177 ], [ -77.070261, 38.917357 ], [ -77.070497, 38.917533 ], [ -77.070843, 38.917527 ], [ -77.071199, 38.917881 ], [ -77.071094, 38.918244 ], [ -77.071333, 38.91851 ], [ -77.071346, 38.91896 ], [ -77.071694, 38.919044 ], [ -77.071705, 38.919404 ], [ -77.071946, 38.91976 ], [ -77.072176, 38.919756 ], [ -77.072297, 38.919934 ], [ -77.072208, 38.920837 ], [ -77.072677, 38.921099 ], [ -77.073049, 38.921993 ], [ -77.073638, 38.922433 ], [ -77.074445, 38.922419 ], [ -77.074802, 38.922773 ], [ -77.075376, 38.922673 ], [ -77.075611, 38.922849 ], [ -77.075394, 38.923303 ], [ -77.074587, 38.923317 ], [ -77.074582, 38.923137 ], [ -77.074354, 38.923231 ], [ -77.074359, 38.923412 ], [ -77.074131, 38.923506 ], [ -77.074142, 38.923866 ], [ -77.073801, 38.924052 ], [ -77.073809, 38.924322 ], [ -77.073581, 38.924416 ], [ -77.073591, 38.924777 ], [ -77.073251, 38.924963 ], [ -77.073508, 38.925859 ], [ -77.073175, 38.926316 ], [ -77.073193, 38.926946 ], [ -77.073426, 38.927032 ], [ -77.073432, 38.927212 ], [ -77.073204, 38.927306 ], [ -77.073225, 38.928027 ], [ -77.073573, 38.928111 ], [ -77.073474, 38.928653 ], [ -77.073707, 38.928739 ], [ -77.073712, 38.928919 ], [ -77.073492, 38.929284 ], [ -77.073146, 38.92929 ], [ -77.072947, 38.930374 ], [ -77.072022, 38.930301 ], [ -77.071812, 38.931025 ], [ -77.072276, 38.931107 ], [ -77.072284, 38.931377 ], [ -77.072632, 38.931461 ], [ -77.072774, 38.93236 ], [ -77.072669, 38.932722 ], [ -77.072101, 38.933002 ], [ -77.071996, 38.933365 ], [ -77.071079, 38.933561 ], [ -77.0711, 38.934282 ], [ -77.071794, 38.934359 ], [ -77.071904, 38.934177 ], [ -77.072365, 38.934169 ], [ -77.072384, 38.9348 ], [ -77.071925, 38.934898 ], [ -77.071702, 38.935172 ], [ -77.072169, 38.935344 ], [ -77.072072, 38.935976 ], [ -77.072766, 38.936054 ], [ -77.072779, 38.936504 ], [ -77.072433, 38.936511 ], [ -77.072326, 38.936783 ], [ -77.072795, 38.937045 ], [ -77.073136, 38.936858 ], [ -77.074202, 38.937831 ], [ -77.074454, 38.938547 ], [ -77.07481, 38.938901 ], [ -77.074821, 38.939261 ], [ -77.074244, 38.939272 ], [ -77.07425, 38.939452 ], [ -77.074941, 38.939439 ], [ -77.075062, 38.939617 ], [ -77.075641, 38.939697 ], [ -77.075654, 38.940147 ], [ -77.076003, 38.940231 ], [ -77.076131, 38.94068 ], [ -77.076365, 38.940766 ], [ -77.076375, 38.941126 ], [ -77.077182, 38.941111 ], [ -77.077397, 38.940567 ], [ -77.07763, 38.940653 ], [ -77.077638, 38.940923 ], [ -77.0773, 38.941199 ], [ -77.077313, 38.94165 ], [ -77.076627, 38.941842 ], [ -77.076527, 38.942385 ], [ -77.076763, 38.942561 ], [ -77.076774, 38.942921 ], [ -77.077004, 38.942917 ], [ -77.077017, 38.943367 ], [ -77.077251, 38.943453 ], [ -77.077259, 38.943723 ], [ -77.077494, 38.943899 ], [ -77.077392, 38.944351 ], [ -77.077859, 38.944523 ], [ -77.078108, 38.94515 ], [ -77.078338, 38.945145 ], [ -77.078577, 38.945411 ], [ -77.078472, 38.945774 ], [ -77.078708, 38.94595 ], [ -77.079743, 38.945841 ], [ -77.079979, 38.946017 ], [ -77.080317, 38.945741 ], [ -77.081009, 38.945729 ], [ -77.081015, 38.945909 ], [ -77.081478, 38.94599 ], [ -77.081258, 38.946355 ], [ -77.080918, 38.946541 ], [ -77.081151, 38.946627 ], [ -77.081175, 38.947438 ], [ -77.080837, 38.947714 ], [ -77.080514, 38.948531 ], [ -77.080176, 38.948807 ], [ -77.080302, 38.949165 ], [ -77.079613, 38.949267 ], [ -77.079631, 38.949898 ], [ -77.079406, 38.950082 ], [ -77.079414, 38.950352 ], [ -77.079183, 38.950356 ], [ -77.078845, 38.950633 ], [ -77.078635, 38.951357 ], [ -77.078289, 38.951363 ], [ -77.078295, 38.951543 ], [ -77.077951, 38.95164 ], [ -77.077959, 38.95191 ], [ -77.077618, 38.952096 ], [ -77.077768, 38.953265 ], [ -77.077425, 38.953361 ], [ -77.077435, 38.953721 ], [ -77.077671, 38.953897 ], [ -77.077108, 38.954358 ], [ -77.077139, 38.955438 ], [ -77.076914, 38.955623 ], [ -77.076927, 38.956073 ], [ -77.077283, 38.956427 ], [ -77.077307, 38.957237 ], [ -77.077653, 38.957231 ], [ -77.077658, 38.957411 ], [ -77.077315, 38.957508 ], [ -77.077325, 38.957868 ], [ -77.078017, 38.957855 ], [ -77.078146, 38.958304 ], [ -77.079079, 38.958647 ], [ -77.07921, 38.959186 ], [ -77.079674, 38.959268 ], [ -77.07968, 38.959448 ], [ -77.07991, 38.959444 ], [ -77.079918, 38.959714 ], [ -77.080385, 38.959886 ], [ -77.080645, 38.960872 ], [ -77.081106, 38.960864 ], [ -77.081119, 38.961314 ], [ -77.081465, 38.961308 ], [ -77.081476, 38.961668 ], [ -77.081945, 38.96193 ], [ -77.081953, 38.9622 ], [ -77.081859, 38.962923 ], [ -77.081292, 38.963293 ], [ -77.081188, 38.963656 ], [ -77.08096, 38.96375 ], [ -77.08086, 38.964292 ], [ -77.080514, 38.964298 ], [ -77.080519, 38.964478 ], [ -77.079942, 38.964489 ], [ -77.079948, 38.964669 ], [ -77.079602, 38.964675 ], [ -77.079607, 38.964855 ], [ -77.079376, 38.964859 ], [ -77.079387, 38.965219 ], [ -77.079046, 38.965406 ], [ -77.079054, 38.965676 ], [ -77.078598, 38.965864 ], [ -77.078606, 38.966134 ], [ -77.078375, 38.966138 ], [ -77.07827, 38.966501 ], [ -77.078042, 38.966595 ], [ -77.077943, 38.967137 ], [ -77.077599, 38.967234 ], [ -77.077264, 38.9676 ], [ -77.077056, 38.968414 ], [ -77.076249, 38.968429 ], [ -77.076254, 38.968609 ], [ -77.076026, 38.968703 ], [ -77.076058, 38.969784 ], [ -77.075948, 38.969966 ], [ -77.075602, 38.969972 ], [ -77.075612, 38.970332 ], [ -77.075384, 38.970426 ], [ -77.075389, 38.970607 ], [ -77.07562, 38.970602 ], [ -77.075861, 38.970959 ], [ -77.075992, 38.971497 ], [ -77.075541, 38.971865 ], [ -77.075555, 38.972316 ], [ -77.075326, 38.97241 ], [ -77.075227, 38.972952 ], [ -77.074671, 38.973683 ], [ -77.073284, 38.973617 ], [ -77.073531, 38.974154 ], [ -77.072959, 38.974344 ], [ -77.072862, 38.974976 ], [ -77.073806, 38.97568 ], [ -77.074383, 38.97567 ], [ -77.074621, 38.975936 ], [ -77.074968, 38.97593 ], [ -77.074983, 38.97647 ], [ -77.075445, 38.976462 ], [ -77.075573, 38.97691 ], [ -77.077419, 38.976878 ], [ -77.07787, 38.976509 ], [ -77.07856, 38.976407 ], [ -77.079944, 38.976382 ], [ -77.080411, 38.976554 ], [ -77.081449, 38.976535 ], [ -77.081559, 38.976353 ], [ -77.081683, 38.976621 ], [ -77.081913, 38.976617 ], [ -77.082619, 38.977055 ], [ -77.083539, 38.976949 ], [ -77.083877, 38.976672 ], [ -77.083872, 38.976492 ], [ -77.084334, 38.976484 ], [ -77.084685, 38.976658 ], [ -77.084932, 38.977194 ], [ -77.085398, 38.977366 ], [ -77.085626, 38.977272 ], [ -77.08598, 38.977536 ], [ -77.08656, 38.977615 ], [ -77.087478, 38.977419 ], [ -77.088516, 38.9774 ], [ -77.088757, 38.977756 ], [ -77.089103, 38.97775 ], [ -77.089009, 38.978473 ], [ -77.088778, 38.978477 ], [ -77.088797, 38.979107 ], [ -77.089148, 38.979281 ], [ -77.088934, 38.979825 ], [ -77.089164, 38.979821 ], [ -77.08976, 38.980441 ], [ -77.090221, 38.980433 ], [ -77.090347, 38.980791 ], [ -77.091047, 38.981049 ], [ -77.091509, 38.981041 ], [ -77.091632, 38.981309 ], [ -77.092104, 38.981661 ], [ -77.092335, 38.981657 ], [ -77.092576, 38.982013 ], [ -77.093038, 38.982004 ], [ -77.093277, 38.98227 ], [ -77.093306, 38.983261 ], [ -77.093078, 38.983355 ], [ -77.092863, 38.9839 ], [ -77.092291, 38.98409 ], [ -77.092302, 38.98445 ], [ -77.092076, 38.984635 ], [ -77.0922, 38.984903 ], [ -77.092903, 38.98525 ], [ -77.093595, 38.985238 ], [ -77.093705, 38.985056 ], [ -77.093936, 38.985052 ], [ -77.094175, 38.985318 ], [ -77.094185, 38.985678 ], [ -77.094419, 38.985764 ] ], [ [ -77.094185, 38.985678 ], [ -77.094072, 38.98577 ], [ -77.094188, 38.985768 ], [ -77.094185, 38.985678 ] ] ], [ [ [ -77.058583, 39.083621 ], [ -77.058696, 39.083529 ], [ -77.058698, 39.083619 ], [ -77.058583, 39.083621 ] ] ] ] } }
]
}
